{
 "type": "FeatureCollection",
 "metadata": {
  "line_id": "jr-east.yokosuka",
  "source": {
   "name": "mini-tokyo-3d (4ad6ca6, 2026-06-03)",
   "url": "https://github.com/nagix/mini-tokyo-3d",
   "license": "MIT (c) Akihiko Kusanagi",
   "retrieved": "2026-06-03",
   "note": "国土数値情報 N02 へ到達できない環境向けのブートストラップ。extract-n02 で再抽出して差し替え可能。"
  }
 },
 "features": [
  {
   "type": "Feature",
   "properties": {
    "kind": "track",
    "seq": 0,
    "role": "main"
   },
   "geometry": {
    "type": "LineString",
    "coordinates": [
     [
      139.7685261,
      35.6867672
     ],
     [
      139.7672668,
      35.6835609
     ],
     [
      139.7671421,
      35.6833325
     ],
     [
      139.7671058,
      35.6832697
     ],
     [
      139.7670694,
      35.6832134
     ],
     [
      139.7670189,
      35.6831544
     ],
     [
      139.7669697,
      35.6831073
     ],
     [
      139.7669015,
      35.6830575
     ],
     [
      139.766787,
      35.6829803
     ],
     [
      139.7665453,
      35.6828599
     ],
     [
      139.7660691,
      35.6826424
     ],
     [
      139.7659821,
      35.6825771
     ],
     [
      139.7655944,
      35.6820638
     ],
     [
      139.7646988,
      35.6809459
     ],
     [
      139.7645518,
      35.6807585
     ],
     [
      139.7644523,
      35.6806317
     ],
     [
      139.7642471,
      35.6802459
     ],
     [
      139.7638608,
      35.6791391
     ],
     [
      139.762778,
      35.6759674
     ],
     [
      139.7624323,
      35.6750377
     ],
     [
      139.7622368,
      35.6746494
     ],
     [
      139.7619098,
      35.6741829
     ],
     [
      139.7602175,
      35.6721383
     ],
     [
      139.7587311,
      35.6693546
     ],
     [
      139.7584916,
      35.6685776
     ],
     [
      139.7584551,
      35.6679794
     ],
     [
      139.7590009,
      35.662213
     ],
     [
      139.7591286,
      35.6603951
     ],
     [
      139.7591978,
      35.659322
     ],
     [
      139.7591957,
      35.6583086
     ],
     [
      139.7591554,
      35.6575714
     ],
     [
      139.7590752,
      35.6570471
     ],
     [
      139.7589502,
      35.6565259
     ],
     [
      139.7585809,
      35.6551865
     ],
     [
      139.7578261,
      35.6528697
     ],
     [
      139.7577386,
      35.6526811
     ],
     [
      139.7572634,
      35.6516575
     ],
     [
      139.7568545,
      35.6508652
     ],
     [
      139.7565794,
      35.6504445
     ],
     [
      139.7558048,
      35.6494765
     ],
     [
      139.7554518,
      35.6490042
     ],
     [
      139.7545211,
      35.6474218
     ],
     [
      139.7540842,
      35.6466561
     ],
     [
      139.7538538,
      35.6463147
     ],
     [
      139.7537004,
      35.6461517
     ],
     [
      139.7534997,
      35.6459882
     ],
     [
      139.7532009,
      35.645791
     ],
     [
      139.7529027,
      35.6456155
     ],
     [
      139.7525652,
      35.6454521
     ],
     [
      139.7508518,
      35.6447103
     ],
     [
      139.7488948,
      35.6438457
     ],
     [
      139.7463267,
      35.642771
     ],
     [
      139.7455442,
      35.6424421
     ],
     [
      139.7448458,
      35.642077
     ],
     [
      139.7439918,
      35.641471
     ],
     [
      139.7433897,
      35.6408221
     ],
     [
      139.7430262,
      35.6400814
     ],
     [
      139.7429325,
      35.6397947
     ],
     [
      139.7428385,
      35.6394043
     ],
     [
      139.7427307,
      35.6384631
     ],
     [
      139.7424893,
      35.6371591
     ],
     [
      139.7423409,
      35.6366034
     ],
     [
      139.7421465,
      35.6359562
     ],
     [
      139.741934,
      35.6352845
     ],
     [
      139.7418699,
      35.6350664
     ],
     [
      139.7417519,
      35.6347444
     ],
     [
      139.7412962,
      35.6336925
     ],
     [
      139.7411981,
      35.6335026
     ],
     [
      139.7410982,
      35.6332213
     ]
    ]
   }
  },
  {
   "type": "Feature",
   "properties": {
    "kind": "track",
    "seq": 1,
    "role": "sub"
   },
   "geometry": {
    "type": "LineString",
    "coordinates": [
     [
      139.7410982,
      35.6332213
     ],
     [
      139.740326,
      35.6314297
     ],
     [
      139.7396937,
      35.6286825
     ]
    ]
   }
  },
  {
   "type": "Feature",
   "properties": {
    "kind": "track",
    "seq": 2,
    "role": "sub"
   },
   "geometry": {
    "type": "LineString",
    "coordinates": [
     [
      139.7396937,
      35.6286825
     ],
     [
      139.7386341,
      35.6235839
     ]
    ]
   }
  },
  {
   "type": "Feature",
   "properties": {
    "kind": "station",
    "name": "東京"
   },
   "geometry": {
    "type": "Point",
    "coordinates": [
     139.76704,
     35.6813
    ]
   }
  },
  {
   "type": "Feature",
   "properties": {
    "kind": "station",
    "name": "新橋"
   },
   "geometry": {
    "type": "Point",
    "coordinates": [
     139.75788,
     35.6663
    ]
   }
  },
  {
   "type": "Feature",
   "properties": {
    "kind": "station",
    "name": "品川"
   },
   "geometry": {
    "type": "Point",
    "coordinates": [
     139.73871,
     35.6288
    ]
   }
  }
 ]
}
