{
 "type": "FeatureCollection",
 "metadata": {
  "line_id": "jr-east.keiyo",
  "source": {
   "name": "mini-tokyo-3d (4ad6ca6, 2026-06-03)",
   "url": "https://github.com/nagix/mini-tokyo-3d",
   "license": "MIT (c) Akihiko Kusanagi",
   "retrieved": "2026-06-03",
   "note": "国土数値情報 N02 へ到達できない環境向けのブートストラップ。extract-n02 で再抽出して差し替え可能。"
  }
 },
 "features": [
  {
   "type": "Feature",
   "properties": {
    "kind": "track",
    "seq": 0,
    "role": "main"
   },
   "geometry": {
    "type": "LineString",
    "coordinates": [
     [
      139.7641451,
      35.6778945
     ],
     [
      139.764641,
      35.6777904
     ],
     [
      139.7655741,
      35.6775907
     ],
     [
      139.7656637,
      35.6775758
     ],
     [
      139.7660239,
      35.6775036
     ],
     [
      139.7667124,
      35.6773656
     ],
     [
      139.7670839,
      35.6772942
     ],
     [
      139.7673015,
      35.6772445
     ],
     [
      139.7675737,
      35.6771544
     ],
     [
      139.7718548,
      35.6753692
     ],
     [
      139.7733594,
      35.6747624
     ],
     [
      139.7737962,
      35.6747432
     ],
     [
      139.7750457,
      35.6746457
     ],
     [
      139.7776583,
      35.6746584
     ],
     [
      139.7801642,
      35.6746705
     ],
     [
      139.7810996,
      35.674543
     ],
     [
      139.7820488,
      35.6743056
     ],
     [
      139.782914,
      35.6739896
     ],
     [
      139.7881593,
      35.671309
     ],
     [
      139.7896076,
      35.67044
     ],
     [
      139.7912491,
      35.6690865
     ],
     [
      139.7926328,
      35.6679366
     ],
     [
      139.795223,
      35.6658171
     ],
     [
      139.7961808,
      35.6650193
     ],
     [
      139.7978933,
      35.6634214
     ],
     [
      139.7983949,
      35.6630832
     ],
     [
      139.7987112,
      35.6629273
     ],
     [
      139.799008,
      35.6628049
     ],
     [
      139.8009636,
      35.662075
     ],
     [
      139.8022773,
      35.6615862
     ],
     [
      139.80309,
      35.6613371
     ],
     [
      139.8041922,
      35.6611736
     ],
     [
      139.8056792,
      35.6611478
     ],
     [
      139.8076519,
      35.6611745
     ],
     [
      139.8103101,
      35.6612872
     ],
     [
      139.8116631,
      35.661402
     ]
    ]
   }
  },
  {
   "type": "Feature",
   "properties": {
    "kind": "track",
    "seq": 1,
    "role": "main"
   },
   "geometry": {
    "type": "LineString",
    "coordinates": [
     [
      139.8116631,
      35.661402
     ],
     [
      139.8121843,
      35.6614225
     ],
     [
      139.8125172,
      35.6614311
     ],
     [
      139.8128455,
      35.6614212
     ],
     [
      139.8131563,
      35.6614037
     ],
     [
      139.8135074,
      35.661361
     ],
     [
      139.8137918,
      35.6613051
     ],
     [
      139.8141375,
      35.6612178
     ],
     [
      139.8144389,
      35.6611121
     ],
     [
      139.8147624,
      35.6609861
     ],
     [
      139.8150548,
      35.6608441
     ],
     [
      139.8153403,
      35.6606788
     ],
     [
      139.8156089,
      35.6604962
     ],
     [
      139.8158384,
      35.6603241
     ],
     [
      139.8161259,
      35.6600628
     ],
     [
      139.8166299,
      35.6595677
     ],
     [
      139.8172328,
      35.6589567
     ],
     [
      139.8176686,
      35.6585151
     ],
     [
      139.818256,
      35.6578395
     ],
     [
      139.8183718,
      35.6576892
     ],
     [
      139.8185557,
      35.6573915
     ],
     [
      139.8187212,
      35.6570921
     ],
     [
      139.8188394,
      35.6567974
     ],
     [
      139.8189468,
      35.6564962
     ],
     [
      139.819038,
      35.656169
     ],
     [
      139.819145,
      35.6555402
     ],
     [
      139.8196003,
      35.6517705
     ],
     [
      139.8199605,
      35.6489585
     ],
     [
      139.8200237,
      35.6487364
     ],
     [
      139.8201078,
      35.648488
     ],
     [
      139.8202147,
      35.6482471
     ],
     [
      139.8203072,
      35.648068
     ],
     [
      139.8204309,
      35.6478594
     ],
     [
      139.820625,
      35.6475857
     ],
     [
      139.8208221,
      35.647377
     ],
     [
      139.8210421,
      35.6471612
     ],
     [
      139.821316,
      35.6469419
     ],
     [
      139.8216771,
      35.6466957
     ],
     [
      139.8220454,
      35.6464689
     ],
     [
      139.822501,
      35.6462427
     ],
     [
      139.8230394,
      35.6460735
     ],
     [
      139.8235328,
      35.6459774
     ],
     [
      139.8240631,
      35.64592
     ],
     [
      139.8243196,
      35.6459029
     ],
     [
      139.8247412,
      35.6459059
     ],
     [
      139.8252465,
      35.6459424
     ],
     [
      139.8259206,
      35.6460172
     ],
     [
      139.8273636,
      35.6461637
     ],
     [
      139.8283305,
      35.6462658
     ],
     [
      139.8291879,
      35.6463418
     ],
     [
      139.8332187,
      35.6467367
     ],
     [
      139.8337778,
      35.6467879
     ],
     [
      139.8351273,
      35.646945
     ],
     [
      139.8361213,
      35.6470419
     ],
     [
      139.8364253,
      35.6470691
     ],
     [
      139.8368887,
      35.6471032
     ],
     [
      139.8373283,
      35.6471138
     ],
     [
      139.8375549,
      35.6471145
     ],
     [
      139.8379501,
      35.6470963
     ],
     [
      139.8384765,
      35.6470708
     ]
    ]
   }
  },
  {
   "type": "Feature",
   "properties": {
    "kind": "station",
    "name": "東京"
   },
   "geometry": {
    "type": "Point",
    "coordinates": [
     139.76704,
     35.6813
    ]
   }
  },
  {
   "type": "Feature",
   "properties": {
    "kind": "station",
    "name": "八丁堀"
   },
   "geometry": {
    "type": "Point",
    "coordinates": [
     139.77799,
     35.67462
    ]
   }
  },
  {
   "type": "Feature",
   "properties": {
    "kind": "station",
    "name": "越中島"
   },
   "geometry": {
    "type": "Point",
    "coordinates": [
     139.79315,
     35.66713
    ]
   }
  },
  {
   "type": "Feature",
   "properties": {
    "kind": "station",
    "name": "潮見"
   },
   "geometry": {
    "type": "Point",
    "coordinates": [
     139.81676,
     35.6588
    ]
   }
  },
  {
   "type": "Feature",
   "properties": {
    "kind": "station",
    "name": "新木場"
   },
   "geometry": {
    "type": "Point",
    "coordinates": [
     139.82648,
     35.64602
    ]
   }
  }
 ]
}
