{
 "type": "FeatureCollection",
 "metadata": {
  "line_id": "jr-east.sobu-rapid",
  "source": {
   "name": "mini-tokyo-3d (4ad6ca6, 2026-06-03)",
   "url": "https://github.com/nagix/mini-tokyo-3d",
   "license": "MIT (c) Akihiko Kusanagi",
   "retrieved": "2026-06-03",
   "note": "国土数値情報 N02 へ到達できない環境向けのブートストラップ。extract-n02 で再抽出して差し替え可能。"
  }
 },
 "features": [
  {
   "type": "Feature",
   "properties": {
    "kind": "track",
    "seq": 0,
    "role": "main"
   },
   "geometry": {
    "type": "LineString",
    "coordinates": [
     [
      139.7644523,
      35.6806317
     ],
     [
      139.7645518,
      35.6807585
     ],
     [
      139.7646988,
      35.6809459
     ],
     [
      139.7655944,
      35.6820638
     ],
     [
      139.7659821,
      35.6825771
     ],
     [
      139.7660691,
      35.6826424
     ],
     [
      139.7665453,
      35.6828599
     ],
     [
      139.766787,
      35.6829803
     ],
     [
      139.7669015,
      35.6830575
     ],
     [
      139.7669697,
      35.6831073
     ],
     [
      139.7670189,
      35.6831544
     ],
     [
      139.7670694,
      35.6832134
     ],
     [
      139.7671058,
      35.6832697
     ],
     [
      139.7671421,
      35.6833325
     ],
     [
      139.7672668,
      35.6835609
     ],
     [
      139.7685261,
      35.6867672
     ],
     [
      139.7685879,
      35.6868877
     ],
     [
      139.7686603,
      35.6869936
     ],
     [
      139.7687534,
      35.6871006
     ],
     [
      139.7688762,
      35.687203
     ],
     [
      139.7690405,
      35.6873032
     ],
     [
      139.7692961,
      35.6874228
     ],
     [
      139.7696208,
      35.6875772
     ],
     [
      139.7706667,
      35.6879427
     ],
     [
      139.7730478,
      35.6886958
     ],
     [
      139.7771813,
      35.6900032
     ],
     [
      139.7808243,
      35.6921061
     ],
     [
      139.7824528,
      35.6933502
     ],
     [
      139.7849611,
      35.6952663
     ],
     [
      139.7856225,
      35.6956003
     ],
     [
      139.7864028,
      35.6959001
     ],
     [
      139.7875855,
      35.6961582
     ],
     [
      139.7889423,
      35.6963948
     ],
     [
      139.7902312,
      35.6964912
     ],
     [
      139.7913844,
      35.6964843
     ],
     [
      139.7926855,
      35.6964263
     ],
     [
      139.7941219,
      35.6962027
     ]
    ]
   }
  },
  {
   "type": "Feature",
   "properties": {
    "kind": "track",
    "seq": 1,
    "role": "sub"
   },
   "geometry": {
    "type": "LineString",
    "coordinates": [
     [
      139.7941219,
      35.6962027
     ],
     [
      139.7949987,
      35.6960942
     ]
    ]
   }
  },
  {
   "type": "Feature",
   "properties": {
    "kind": "station",
    "name": "東京"
   },
   "geometry": {
    "type": "Point",
    "coordinates": [
     139.76704,
     35.6813
    ]
   }
  },
  {
   "type": "Feature",
   "properties": {
    "kind": "station",
    "name": "新日本橋"
   },
   "geometry": {
    "type": "Point",
    "coordinates": [
     139.77424,
     35.68902
    ]
   }
  },
  {
   "type": "Feature",
   "properties": {
    "kind": "station",
    "name": "馬喰町"
   },
   "geometry": {
    "type": "Point",
    "coordinates": [
     139.78232,
     35.69324
    ]
   }
  }
 ]
}
