{
 "type": "FeatureCollection",
 "metadata": {
  "line_id": "toei.shinjuku",
  "source": {
   "name": "mini-tokyo-3d (4ad6ca6, 2026-06-03)",
   "url": "https://github.com/nagix/mini-tokyo-3d",
   "license": "MIT (c) Akihiko Kusanagi",
   "retrieved": "2026-06-03",
   "note": "国土数値情報 N02 へ到達できない環境向けのブートストラップ。extract-n02 で再抽出して差し替え可能。"
  }
 },
 "features": [
  {
   "type": "Feature",
   "properties": {
    "kind": "track",
    "seq": 0,
    "role": "main"
   },
   "geometry": {
    "type": "LineString",
    "coordinates": [
     [
      139.6974801,
      35.688056
     ],
     [
      139.6985823,
      35.688506
     ],
     [
      139.6991422,
      35.6886848
     ],
     [
      139.6996804,
      35.6888089
     ],
     [
      139.7003046,
      35.6889023
     ],
     [
      139.7010139,
      35.6889907
     ],
     [
      139.7015581,
      35.6890814
     ],
     [
      139.7020613,
      35.6892103
     ],
     [
      139.7029486,
      35.6895061
     ],
     [
      139.7039777,
      35.6897181
     ],
     [
      139.7044297,
      35.6898551
     ],
     [
      139.7048923,
      35.6900146
     ],
     [
      139.705351,
      35.6902694
     ],
     [
      139.7062103,
      35.6908282
     ],
     [
      139.7076225,
      35.6914067
     ],
     [
      139.70909,
      35.6916092
     ],
     [
      139.7100395,
      35.6915961
     ],
     [
      139.712491,
      35.6913216
     ],
     [
      139.7138804,
      35.6912955
     ],
     [
      139.7169234,
      35.6913968
     ],
     [
      139.717252,
      35.691412
     ],
     [
      139.7176275,
      35.6914273
     ],
     [
      139.7182149,
      35.691522
     ],
     [
      139.7187218,
      35.6916386
     ],
     [
      139.7206959,
      35.6921908
     ],
     [
      139.7212196,
      35.6923067
     ],
     [
      139.721585,
      35.6923611
     ],
     [
      139.7219472,
      35.6924065
     ],
     [
      139.7223079,
      35.6924337
     ],
     [
      139.722861,
      35.6924315
     ],
     [
      139.7235523,
      35.6924034
     ],
     [
      139.7244966,
      35.6922943
     ],
     [
      139.7249164,
      35.6922562
     ],
     [
      139.7253196,
      35.6922036
     ],
     [
      139.7257009,
      35.69212
     ],
     [
      139.7260994,
      35.6920117
     ],
     [
      139.7271298,
      35.6915878
     ],
     [
      139.7282417,
      35.6912423
     ],
     [
      139.729402,
      35.6911245
     ],
     [
      139.7305267,
      35.6911113
     ],
     [
      139.7321865,
      35.6913066
     ],
     [
      139.7325327,
      35.6913871
     ],
     [
      139.7328984,
      35.69144
     ],
     [
      139.7332677,
      35.6914502
     ],
     [
      139.7336295,
      35.6914022
     ],
     [
      139.7340292,
      35.6913086
     ],
     [
      139.7343527,
      35.6912149
     ],
     [
      139.7347315,
      35.6911271
     ],
     [
      139.7350943,
      35.6910806
     ],
     [
      139.7355095,
      35.6910743
     ],
     [
      139.7358555,
      35.6910932
     ],
     [
      139.7361964,
      35.6911539
     ],
     [
      139.7365397,
      35.6912388
     ],
     [
      139.737639,
      35.691556
     ],
     [
      139.7387445,
      35.6918924
     ],
     [
      139.740701,
      35.6924817
     ],
     [
      139.7431373,
      35.6932194
     ],
     [
      139.743484,
      35.6933475
     ],
     [
      139.7436221,
      35.693398
     ],
     [
      139.74383,
      35.6934739
     ],
     [
      139.7441723,
      35.6936092
     ],
     [
      139.7451763,
      35.694011
     ]
    ]
   }
  },
  {
   "type": "Feature",
   "properties": {
    "kind": "track",
    "seq": 1,
    "role": "sub"
   },
   "geometry": {
    "type": "LineString",
    "coordinates": [
     [
      139.7451763,
      35.694011
     ],
     [
      139.7482892,
      35.6949346
     ],
     [
      139.7488591,
      35.6951076
     ],
     [
      139.7493922,
      35.6952226
     ],
     [
      139.7496691,
      35.6952771
     ],
     [
      139.7503608,
      35.695379
     ],
     [
      139.7525082,
      35.6957103
     ],
     [
      139.753262,
      35.6958199
     ],
     [
      139.7536495,
      35.6958493
     ],
     [
      139.7539301,
      35.6958626
     ],
     [
      139.7551763,
      35.6958993
     ],
     [
      139.7571896,
      35.6959512
     ]
    ]
   }
  },
  {
   "type": "Feature",
   "properties": {
    "kind": "track",
    "seq": 2,
    "role": "main"
   },
   "geometry": {
    "type": "LineString",
    "coordinates": [
     [
      139.7571896,
      35.6959512
     ],
     [
      139.7583926,
      35.6959853
     ],
     [
      139.7592,
      35.6960037
     ],
     [
      139.7597301,
      35.6960203
     ],
     [
      139.7601821,
      35.6960094
     ],
     [
      139.7603993,
      35.6959811
     ],
     [
      139.7605629,
      35.6959441
     ],
     [
      139.7607627,
      35.6958809
     ],
     [
      139.7609183,
      35.6958156
     ],
     [
      139.7610819,
      35.6957241
     ],
     [
      139.7612134,
      35.6956337
     ],
     [
      139.7614977,
      35.6954224
     ],
     [
      139.7619054,
      35.6950913
     ],
     [
      139.762018,
      35.6949954
     ],
     [
      139.7621709,
      35.6948887
     ],
     [
      139.7623077,
      35.6947918
     ],
     [
      139.762466,
      35.6947003
     ],
     [
      139.7626188,
      35.6946186
     ],
     [
      139.7627918,
      35.6945456
     ],
     [
      139.7629514,
      35.6944912
     ],
     [
      139.7631392,
      35.6944378
     ],
     [
      139.7633001,
      35.6944008
     ],
     [
      139.7635147,
      35.6943605
     ],
     [
      139.7636582,
      35.6943452
     ],
     [
      139.7638875,
      35.6943289
     ],
     [
      139.764027,
      35.6943278
     ],
     [
      139.7642751,
      35.6943409
     ],
     [
      139.7644025,
      35.6943583
     ],
     [
      139.7646265,
      35.6943975
     ],
     [
      139.7647525,
      35.6944236
     ],
     [
      139.7649725,
      35.6944868
     ],
     [
      139.7653413,
      35.6946164
     ],
     [
      139.7657355,
      35.69478
     ],
     [
      139.7662652,
      35.6950026
     ],
     [
      139.7670847,
      35.6953516
     ],
     [
      139.7678565,
      35.6956326
     ],
     [
      139.7680362,
      35.6956756
     ],
     [
      139.7682039,
      35.6957159
     ],
     [
      139.768405,
      35.6957589
     ],
     [
      139.768572,
      35.6957851
     ],
     [
      139.7689663,
      35.695845
     ],
     [
      139.7693096,
      35.6958559
     ],
     [
      139.7696999,
      35.6958646
     ],
     [
      139.7700593,
      35.6958559
     ],
     [
      139.7706574,
      35.6958297
     ],
     [
      139.7710034,
      35.6958156
     ],
     [
      139.7713937,
      35.6957981
     ],
     [
      139.7717705,
      35.695784
     ],
     [
      139.7728941,
      35.6957379
     ],
     [
      139.7735837,
      35.6957197
     ],
     [
      139.7738985,
      35.6957233
     ],
     [
      139.7746647,
      35.6957023
     ],
     [
      139.7753861,
      35.6956713
     ],
     [
      139.7758314,
      35.6956587
     ],
     [
      139.7767386,
      35.6955426
     ],
     [
      139.7771047,
      35.6954896
     ],
     [
      139.777492,
      35.6954335
     ],
     [
      139.7778243,
      35.695393
     ],
     [
      139.7781917,
      35.6953276
     ],
     [
      139.7782715,
      35.6953094
     ],
     [
      139.7785163,
      35.6952536
     ],
     [
      139.7788703,
      35.6951338
     ],
     [
      139.7792083,
      35.6950074
     ],
     [
      139.7795382,
      35.6948528
     ],
     [
      139.7798306,
      35.6946785
     ],
     [
      139.7803943,
      35.6942629
     ],
     [
      139.7814158,
      35.6933715
     ],
     [
      139.7822263,
      35.6926623
     ],
     [
      139.7828129,
      35.6921382
     ],
     [
      139.783756,
      35.6912574
     ],
     [
      139.7846559,
      35.6904307
     ],
     [
      139.7854578,
      35.6898207
     ],
     [
      139.7860077,
      35.6894307
     ],
     [
      139.7863135,
      35.6892717
     ],
     [
      139.7871207,
      35.6889164
     ],
     [
      139.7876711,
      35.688692
     ],
     [
      139.7879199,
      35.6886124
     ],
     [
      139.7881481,
      35.688536
     ],
     [
      139.7887727,
      35.6883996
     ],
     [
      139.7892957,
      35.6882932
     ],
     [
      139.789571,
      35.6882511
     ],
     [
      139.7899041,
      35.6882266
     ],
     [
      139.7905985,
      35.6882034
     ],
     [
      139.7921193,
      35.6881492
     ],
     [
      139.7932159,
      35.6881055
     ],
     [
      139.7943227,
      35.6880419
     ],
     [
      139.7949809,
      35.6879984
     ],
     [
      139.7955951,
      35.688004
     ],
     [
      139.7970431,
      35.6880527
     ],
     [
      139.7979107,
      35.6880725
     ],
     [
      139.7998839,
      35.6881943
     ],
     [
      139.8015858,
      35.6882806
     ],
     [
      139.8028359,
      35.6883393
     ],
     [
      139.803375,
      35.6883633
     ],
     [
      139.8040871,
      35.6883705
     ],
     [
      139.8048121,
      35.6883906
     ],
     [
      139.8058574,
      35.688444
     ],
     [
      139.8061199,
      35.6884574
     ],
     [
      139.8086232,
      35.6886041
     ],
     [
      139.8095359,
      35.6886584
     ],
     [
      139.8103808,
      35.6887564
     ],
     [
      139.8110396,
      35.6888001
     ],
     [
      139.8117864,
      35.6888404
     ],
     [
      139.8134884,
      35.6888872
     ],
     [
      139.8160315,
      35.6890468
     ],
     [
      139.8168359,
      35.6890703
     ],
     [
      139.8174968,
      35.6891007
     ],
     [
      139.8181554,
      35.6891531
     ],
     [
      139.8200455,
      35.6892228
     ],
     [
      139.8241416,
      35.6893678
     ],
     [
      139.825176,
      35.6893965
     ],
     [
      139.8260776,
      35.6894386
     ],
     [
      139.826635,
      35.6894286
     ],
     [
      139.8286664,
      35.689384
     ],
     [
      139.8297854,
      35.6893651
     ],
     [
      139.8314624,
      35.6895196
     ],
     [
      139.8321712,
      35.6895691
     ],
     [
      139.8326655,
      35.6896344
     ],
     [
      139.8328982,
      35.689663
     ],
     [
      139.8340033,
      35.689799
     ],
     [
      139.8350597,
      35.6899027
     ],
     [
      139.8357376,
      35.6899343
     ],
     [
      139.8360393,
      35.6899472
     ],
     [
      139.8363696,
      35.689978
     ],
     [
      139.8371062,
      35.6900471
     ],
     [
      139.8378509,
      35.6901091
     ],
     [
      139.8380493,
      35.6901268
     ],
     [
      139.8382651,
      35.6901249
     ],
     [
      139.8386303,
      35.6900937
     ],
     [
      139.8390036,
      35.690057
     ],
     [
      139.8395452,
      35.6900098
     ],
     [
      139.8399255,
      35.6900189
     ],
     [
      139.8411939,
      35.6901264
     ],
     [
      139.8421165,
      35.6902109
     ]
    ]
   }
  },
  {
   "type": "Feature",
   "properties": {
    "kind": "track",
    "seq": 3,
    "role": "main"
   },
   "geometry": {
    "type": "LineString",
    "coordinates": [
     [
      139.8421165,
      35.6902109
     ],
     [
      139.8432968,
      35.690317
     ],
     [
      139.8439316,
      35.6903741
     ],
     [
      139.8443894,
      35.6904054
     ],
     [
      139.8448798,
      35.6904049
     ],
     [
      139.8452817,
      35.6903957
     ],
     [
      139.8456665,
      35.690356
     ],
     [
      139.8459598,
      35.6903146
     ],
     [
      139.8462623,
      35.6902628
     ],
     [
      139.8465673,
      35.6901933
     ],
     [
      139.8467548,
      35.6901376
     ],
     [
      139.8470061,
      35.6900758
     ],
     [
      139.847193,
      35.6900204
     ],
     [
      139.8474871,
      35.6899172
     ],
     [
      139.8477371,
      35.6898215
     ],
     [
      139.8485833,
      35.689458
     ],
     [
      139.8492587,
      35.689172
     ],
     [
      139.8501071,
      35.6887912
     ],
     [
      139.8517779,
      35.6880745
     ],
     [
      139.8583146,
      35.6852277
     ],
     [
      139.8587521,
      35.6850403
     ],
     [
      139.8593204,
      35.6847884
     ],
     [
      139.8598822,
      35.6845469
     ],
     [
      139.860176,
      35.6844199
     ],
     [
      139.86047,
      35.6842982
     ],
     [
      139.860776,
      35.6841858
     ],
     [
      139.8610978,
      35.6840819
     ],
     [
      139.8613229,
      35.684021
     ],
     [
      139.8616413,
      35.6839448
     ],
     [
      139.8618766,
      35.683901
     ],
     [
      139.8621079,
      35.6838655
     ],
     [
      139.8623389,
      35.6838346
     ],
     [
      139.8625752,
      35.6838124
     ],
     [
      139.8628582,
      35.683795
     ],
     [
      139.8635433,
      35.6838128
     ],
     [
      139.8642955,
      35.683851
     ],
     [
      139.8644906,
      35.6838609
     ],
     [
      139.8658136,
      35.6839333
     ],
     [
      139.8672934,
      35.6839866
     ]
    ]
   }
  },
  {
   "type": "Feature",
   "properties": {
    "kind": "track",
    "seq": 4,
    "role": "main"
   },
   "geometry": {
    "type": "LineString",
    "coordinates": [
     [
      139.8672934,
      35.6839866
     ],
     [
      139.8674978,
      35.6839969
     ],
     [
      139.8684105,
      35.6840465
     ],
     [
      139.8687726,
      35.6840617
     ],
     [
      139.8691451,
      35.6840945
     ],
     [
      139.869529,
      35.6841402
     ],
     [
      139.8699094,
      35.6841917
     ],
     [
      139.8713599,
      35.6844148
     ],
     [
      139.8735647,
      35.6847518
     ],
     [
      139.8757512,
      35.6850623
     ],
     [
      139.8775944,
      35.6853214
     ],
     [
      139.879445,
      35.6855872
     ],
     [
      139.8831134,
      35.6860907
     ],
     [
      139.8836899,
      35.686171
     ],
     [
      139.8853755,
      35.6864255
     ],
     [
      139.8871982,
      35.6866828
     ],
     [
      139.8882454,
      35.6868326
     ],
     [
      139.8890072,
      35.6869527
     ],
     [
      139.8895248,
      35.6870645
     ],
     [
      139.8899188,
      35.6871597
     ],
     [
      139.8904489,
      35.6873024
     ],
     [
      139.8907942,
      35.6874235
     ],
     [
      139.8914674,
      35.6876727
     ],
     [
      139.8920899,
      35.6879433
     ],
     [
      139.8925772,
      35.6881945
     ],
     [
      139.8932468,
      35.6885731
     ],
     [
      139.8937389,
      35.6888988
     ],
     [
      139.8944992,
      35.6894961
     ],
     [
      139.8951094,
      35.6900465
     ],
     [
      139.8956645,
      35.6906714
     ],
     [
      139.8961563,
      35.6913069
     ],
     [
      139.8968541,
      35.6922875
     ],
     [
      139.8970766,
      35.6925296
     ],
     [
      139.897603,
      35.6932825
     ],
     [
      139.8984137,
      35.6944127
     ],
     [
      139.8985103,
      35.6945565
     ],
     [
      139.8986042,
      35.6946872
     ],
     [
      139.8987061,
      35.6948179
     ],
     [
      139.8987946,
      35.6949443
     ],
     [
      139.8988858,
      35.6950902
     ],
     [
      139.8990092,
      35.6952492
     ],
     [
      139.8991057,
      35.6954082
     ],
     [
      139.8991808,
      35.6955662
     ],
     [
      139.899431,
      35.6959154
     ],
     [
      139.8999942,
      35.6967691
     ],
     [
      139.9002234,
      35.6972539
     ],
     [
      139.9007479,
      35.6984569
     ],
     [
      139.9009759,
      35.6990438
     ],
     [
      139.9013454,
      35.7000885
     ],
     [
      139.9015673,
      35.7009713
     ],
     [
      139.9018825,
      35.7024422
     ],
     [
      139.9020755,
      35.7033088
     ],
     [
      139.9022513,
      35.7039384
     ],
     [
      139.9024638,
      35.7044354
     ],
     [
      139.902675,
      35.7048107
     ],
     [
      139.9030193,
      35.7053033
     ],
     [
      139.9033312,
      35.7056643
     ],
     [
      139.9034388,
      35.7057812
     ],
     [
      139.9035501,
      35.705895
     ],
     [
      139.9037969,
      35.706112
     ],
     [
      139.9040772,
      35.7063491
     ],
     [
      139.9043674,
      35.7065539
     ],
     [
      139.9049613,
      35.7069342
     ],
     [
      139.9084777,
      35.7091878
     ],
     [
      139.9120288,
      35.7114429
     ],
     [
      139.9128993,
      35.7119975
     ],
     [
      139.9135237,
      35.7123876
     ],
     [
      139.9140794,
      35.7127409
     ],
     [
      139.914742,
      35.7131059
     ],
     [
      139.9157037,
      35.7135504
     ],
     [
      139.9162864,
      35.7138228
     ],
     [
      139.9172361,
      35.7142358
     ],
     [
      139.9185519,
      35.714761
     ],
     [
      139.9195566,
      35.7152296
     ],
     [
      139.9198755,
      35.7153777
     ],
     [
      139.920452,
      35.7157079
     ],
     [
      139.921063,
      35.7161148
     ],
     [
      139.921674,
      35.7166081
     ],
     [
      139.9219185,
      35.7168417
     ],
     [
      139.9221568,
      35.7170934
     ],
     [
      139.9223786,
      35.7173462
     ],
     [
      139.9227167,
      35.7177535
     ],
     [
      139.9236091,
      35.7188608
     ],
     [
      139.9247733,
      35.7202872
     ],
     [
      139.9253619,
      35.7210645
     ],
     [
      139.9255738,
      35.7213586
     ],
     [
      139.9258232,
      35.7217004
     ],
     [
      139.926084,
      35.7221593
     ],
     [
      139.9266792,
      35.7232295
     ],
     [
      139.927044,
      35.7237667
     ]
    ]
   }
  },
  {
   "type": "Feature",
   "properties": {
    "kind": "station",
    "name": "新宿"
   },
   "geometry": {
    "type": "Point",
    "coordinates": [
     139.698418,
     35.688433
    ]
   }
  },
  {
   "type": "Feature",
   "properties": {
    "kind": "station",
    "name": "新宿三丁目"
   },
   "geometry": {
    "type": "Point",
    "coordinates": [
     139.706794,
     35.691016
    ]
   }
  },
  {
   "type": "Feature",
   "properties": {
    "kind": "station",
    "name": "曙橋"
   },
   "geometry": {
    "type": "Point",
    "coordinates": [
     139.722317,
     35.692402
    ]
   }
  },
  {
   "type": "Feature",
   "properties": {
    "kind": "station",
    "name": "市ヶ谷"
   },
   "geometry": {
    "type": "Point",
    "coordinates": [
     139.737588,
     35.69153
    ]
   }
  },
  {
   "type": "Feature",
   "properties": {
    "kind": "station",
    "name": "九段下"
   },
   "geometry": {
    "type": "Point",
    "coordinates": [
     139.751738,
     35.695546
    ]
   }
  },
  {
   "type": "Feature",
   "properties": {
    "kind": "station",
    "name": "神保町"
   },
   "geometry": {
    "type": "Point",
    "coordinates": [
     139.757981,
     35.695972
    ]
   }
  },
  {
   "type": "Feature",
   "properties": {
    "kind": "station",
    "name": "小川町"
   },
   "geometry": {
    "type": "Point",
    "coordinates": [
     139.766449,
     35.695005
    ]
   }
  },
  {
   "type": "Feature",
   "properties": {
    "kind": "station",
    "name": "岩本町"
   },
   "geometry": {
    "type": "Point",
    "coordinates": [
     139.775115,
     35.695607
    ]
   }
  },
  {
   "type": "Feature",
   "properties": {
    "kind": "station",
    "name": "馬喰横山"
   },
   "geometry": {
    "type": "Point",
    "coordinates": [
     139.783006,
     35.69193
    ]
   }
  },
  {
   "type": "Feature",
   "properties": {
    "kind": "station",
    "name": "浜町"
   },
   "geometry": {
    "type": "Point",
    "coordinates": [
     139.787725,
     35.688601
    ]
   }
  },
  {
   "type": "Feature",
   "properties": {
    "kind": "station",
    "name": "森下"
   },
   "geometry": {
    "type": "Point",
    "coordinates": [
     139.796623,
     35.687982
    ]
   }
  },
  {
   "type": "Feature",
   "properties": {
    "kind": "station",
    "name": "菊川"
   },
   "geometry": {
    "type": "Point",
    "coordinates": [
     139.806057,
     35.688399
    ]
   }
  },
  {
   "type": "Feature",
   "properties": {
    "kind": "station",
    "name": "住吉"
   },
   "geometry": {
    "type": "Point",
    "coordinates": [
     139.815723,
     35.68904
    ]
   }
  },
  {
   "type": "Feature",
   "properties": {
    "kind": "station",
    "name": "西大島"
   },
   "geometry": {
    "type": "Point",
    "coordinates": [
     139.826231,
     35.689391
    ]
   }
  },
  {
   "type": "Feature",
   "properties": {
    "kind": "station",
    "name": "大島"
   },
   "geometry": {
    "type": "Point",
    "coordinates": [
     139.834705,
     35.689752
    ]
   }
  },
  {
   "type": "Feature",
   "properties": {
    "kind": "station",
    "name": "東大島"
   },
   "geometry": {
    "type": "Point",
    "coordinates": [
     139.847255,
     35.689959
    ]
   }
  },
  {
   "type": "Feature",
   "properties": {
    "kind": "station",
    "name": "船堀"
   },
   "geometry": {
    "type": "Point",
    "coordinates": [
     139.863955,
     35.68376
    ]
   }
  },
  {
   "type": "Feature",
   "properties": {
    "kind": "station",
    "name": "一之江"
   },
   "geometry": {
    "type": "Point",
    "coordinates": [
     139.882586,
     35.685987
    ]
   }
  },
  {
   "type": "Feature",
   "properties": {
    "kind": "station",
    "name": "瑞江"
   },
   "geometry": {
    "type": "Point",
    "coordinates": [
     139.8977,
     35.69351
    ]
   }
  },
  {
   "type": "Feature",
   "properties": {
    "kind": "station",
    "name": "篠崎"
   },
   "geometry": {
    "type": "Point",
    "coordinates": [
     139.903796,
     35.706022
    ]
   }
  },
  {
   "type": "Feature",
   "properties": {
    "kind": "station",
    "name": "本八幡"
   },
   "geometry": {
    "type": "Point",
    "coordinates": [
     139.926613,
     35.722819
    ]
   }
  }
 ]
}
