{
 "type": "FeatureCollection",
 "metadata": {
  "line_id": "toei.mita",
  "source": {
   "name": "mini-tokyo-3d (4ad6ca6, 2026-06-03)",
   "url": "https://github.com/nagix/mini-tokyo-3d",
   "license": "MIT (c) Akihiko Kusanagi",
   "retrieved": "2026-06-03",
   "note": "国土数値情報 N02 へ到達できない環境向けのブートストラップ。extract-n02 で再抽出して差し替え可能。"
  }
 },
 "features": [
  {
   "type": "Feature",
   "properties": {
    "kind": "track",
    "seq": 0,
    "role": "sub"
   },
   "geometry": {
    "type": "LineString",
    "coordinates": [
     [
      139.7155881,
      35.632788
     ],
     [
      139.7154804,
      35.6332142
     ],
     [
      139.7154582,
      35.633461
     ],
     [
      139.7154227,
      35.6337635
     ],
     [
      139.7154834,
      35.6340545
     ],
     [
      139.7155692,
      35.6342975
     ],
     [
      139.7157286,
      35.6345392
     ],
     [
      139.715794,
      35.63461
     ],
     [
      139.7159758,
      35.6347997
     ],
     [
      139.7160369,
      35.634836
     ],
     [
      139.7162756,
      35.6349799
     ],
     [
      139.7163467,
      35.6350083
     ],
     [
      139.7166108,
      35.635121
     ],
     [
      139.7170065,
      35.6352055
     ],
     [
      139.7173794,
      35.6352491
     ],
     [
      139.7186667,
      35.635373
     ],
     [
      139.7203622,
      35.6354003
     ],
     [
      139.720722,
      35.6354492
     ],
     [
      139.7210566,
      35.6355419
     ],
     [
      139.7216959,
      35.6358561
     ],
     [
      139.7240996,
      35.6370145
     ],
     [
      139.7265558,
      35.6381169
     ],
     [
      139.7283217,
      35.6389913
     ],
     [
      139.7297614,
      35.639912
     ],
     [
      139.7300723,
      35.6400532
     ],
     [
      139.7304469,
      35.6401635
     ],
     [
      139.7308146,
      35.6402292
     ],
     [
      139.7316716,
      35.6403218
     ],
     [
      139.7318792,
      35.6403495
     ],
     [
      139.7320482,
      35.6403854
     ],
     [
      139.7322029,
      35.6404296
     ],
     [
      139.7323756,
      35.6404939
     ],
     [
      139.7325294,
      35.64056
     ],
     [
      139.7326934,
      35.6406585
     ],
     [
      139.7328127,
      35.6407478
     ],
     [
      139.7329402,
      35.640871
     ],
     [
      139.7330341,
      35.6409789
     ],
     [
      139.7331253,
      35.6411021
     ],
     [
      139.7332218,
      35.6412449
     ],
     [
      139.7334042,
      35.6416263
     ],
     [
      139.7335166,
      35.6418241
     ],
     [
      139.7338238,
      35.6425826
     ],
     [
      139.7338374,
      35.6426181
     ],
     [
      139.7340053,
      35.6429669
     ],
     [
      139.7345531,
      35.6439558
     ],
     [
      139.7349572,
      35.6446681
     ],
     [
      139.7353556,
      35.6453942
     ],
     [
      139.7354707,
      35.6455754
     ]
    ]
   }
  },
  {
   "type": "Feature",
   "properties": {
    "kind": "track",
    "seq": 1,
    "role": "main"
   },
   "geometry": {
    "type": "LineString",
    "coordinates": [
     [
      139.7354707,
      35.6455754
     ],
     [
      139.7356316,
      35.6457519
     ],
     [
      139.7358677,
      35.6459416
     ],
     [
      139.7361069,
      35.6460675
     ],
     [
      139.7364271,
      35.6461808
     ],
     [
      139.736682,
      35.6462384
     ],
     [
      139.7370393,
      35.6462953
     ],
     [
      139.737683,
      35.6464501
     ],
     [
      139.7384608,
      35.6467313
     ],
     [
      139.7388015,
      35.6468969
     ],
     [
      139.7395994,
      35.6473514
     ],
     [
      139.7402619,
      35.6476478
     ],
     [
      139.7406911,
      35.6477917
     ],
     [
      139.7412509,
      35.647843
     ],
     [
      139.742477,
      35.6478786
     ],
     [
      139.7426491,
      35.647844
     ],
     [
      139.7438159,
      35.647347
     ],
     [
      139.743957,
      35.6472898
     ],
     [
      139.7440473,
      35.6472655
     ],
     [
      139.7442979,
      35.6472414
     ],
     [
      139.7468223,
      35.6472408
     ],
     [
      139.7471908,
      35.6472445
     ],
     [
      139.7475153,
      35.6472859
     ],
     [
      139.7478747,
      35.6474385
     ],
     [
      139.7481342,
      35.6475998
     ],
     [
      139.7482615,
      35.6477312
     ],
     [
      139.7483544,
      35.6478253
     ],
     [
      139.7485296,
      35.6481038
     ],
     [
      139.7488424,
      35.6486842
     ],
     [
      139.7490836,
      35.6494181
     ],
     [
      139.7491143,
      35.6495673
     ],
     [
      139.7493955,
      35.6512265
     ],
     [
      139.7496607,
      35.6527014
     ],
     [
      139.749743,
      35.6533199
     ],
     [
      139.7497632,
      35.6534953
     ],
     [
      139.7498714,
      35.6542309
     ],
     [
      139.7499797,
      35.6549665
     ],
     [
      139.7501333,
      35.6563554
     ],
     [
      139.7502163,
      35.6571611
     ],
     [
      139.7503343,
      35.6580895
     ],
     [
      139.7504322,
      35.6585875
     ],
     [
      139.7505408,
      35.6589994
     ],
     [
      139.7506508,
      35.6593246
     ],
     [
      139.7507822,
      35.6597131
     ],
     [
      139.7509591,
      35.6601269
     ],
     [
      139.7511712,
      35.6605652
     ],
     [
      139.7512869,
      35.6608276
     ],
     [
      139.7516152,
      35.6615207
     ],
     [
      139.7516835,
      35.6617137
     ],
     [
      139.7519463,
      35.6622824
     ],
     [
      139.7547335,
      35.6683207
     ],
     [
      139.754819,
      35.6685016
     ],
     [
      139.7549557,
      35.6687871
     ],
     [
      139.7553001,
      35.6694851
     ],
     [
      139.75571,
      35.6701382
     ],
     [
      139.7561162,
      35.6707113
     ],
     [
      139.7566194,
      35.6715525
     ],
     [
      139.7570917,
      35.6723628
     ],
     [
      139.7574083,
      35.6728904
     ]
    ]
   }
  },
  {
   "type": "Feature",
   "properties": {
    "kind": "track",
    "seq": 2,
    "role": "sub"
   },
   "geometry": {
    "type": "LineString",
    "coordinates": [
     [
      139.7574083,
      35.6728904
     ],
     [
      139.7575971,
      35.6731625
     ],
     [
      139.7577998,
      35.6733986
     ],
     [
      139.7585025,
      35.6741038
     ],
     [
      139.7589811,
      35.6745865
     ],
     [
      139.7592011,
      35.6748325
     ],
     [
      139.759419,
      35.6750777
     ],
     [
      139.7596387,
      35.6753349
     ],
     [
      139.7598201,
      35.6755914
     ],
     [
      139.7598833,
      35.6756908
     ],
     [
      139.7599834,
      35.6759091
     ],
     [
      139.7601265,
      35.6762873
     ],
     [
      139.7604837,
      35.6773062
     ],
     [
      139.7606229,
      35.6776336
     ],
     [
      139.760829,
      35.6782214
     ],
     [
      139.7611656,
      35.6792211
     ],
     [
      139.7612498,
      35.6795397
     ],
     [
      139.7614835,
      35.6802632
     ],
     [
      139.7617454,
      35.6810571
     ],
     [
      139.7618378,
      35.6813469
     ],
     [
      139.761935,
      35.6816297
     ],
     [
      139.762402,
      35.6829045
     ],
     [
      139.7624725,
      35.6831839
     ],
     [
      139.7625283,
      35.6834232
     ],
     [
      139.7626682,
      35.6839724
     ],
     [
      139.7629187,
      35.6848596
     ],
     [
      139.7629906,
      35.6851679
     ],
     [
      139.7631242,
      35.6855913
     ],
     [
      139.7635419,
      35.6870415
     ],
     [
      139.763913,
      35.6882226
     ]
    ]
   }
  },
  {
   "type": "Feature",
   "properties": {
    "kind": "track",
    "seq": 3,
    "role": "main"
   },
   "geometry": {
    "type": "LineString",
    "coordinates": [
     [
      139.763913,
      35.6882226
     ],
     [
      139.7640761,
      35.6887228
     ],
     [
      139.7641269,
      35.6890015
     ],
     [
      139.7641183,
      35.6893081
     ],
     [
      139.7640199,
      35.689632
     ],
     [
      139.7638522,
      35.6899128
     ],
     [
      139.7636437,
      35.6901378
     ],
     [
      139.7633525,
      35.6903475
     ],
     [
      139.7630416,
      35.6904938
     ],
     [
      139.7627003,
      35.6906336
     ],
     [
      139.7623736,
      35.6907704
     ],
     [
      139.7620349,
      35.6909136
     ],
     [
      139.76172,
      35.6910725
     ],
     [
      139.7614204,
      35.6912474
     ],
     [
      139.7611012,
      35.6914422
     ],
     [
      139.7605287,
      35.6917847
     ],
     [
      139.7602156,
      35.6919741
     ],
     [
      139.7599192,
      35.6921538
     ],
     [
      139.7593077,
      35.6925165
     ],
     [
      139.7591655,
      35.6926156
     ],
     [
      139.7590247,
      35.6927267
     ],
     [
      139.7588007,
      35.6929587
     ],
     [
      139.7586438,
      35.6932451
     ],
     [
      139.7585902,
      35.6933748
     ],
     [
      139.7585365,
      35.6935926
     ],
     [
      139.758476,
      35.6938658
     ],
     [
      139.7583852,
      35.6942665
     ],
     [
      139.7582452,
      35.6949878
     ],
     [
      139.7580707,
      35.6957724
     ],
     [
      139.7579437,
      35.6962741
     ],
     [
      139.7578338,
      35.6965714
     ],
     [
      139.7556639,
      35.7004356
     ],
     [
      139.7555137,
      35.7010368
     ],
     [
      139.7554761,
      35.7023044
     ],
     [
      139.7553874,
      35.7026721
     ],
     [
      139.7552571,
      35.703043
     ],
     [
      139.7551113,
      35.7035224
     ],
     [
      139.7548903,
      35.7043916
     ],
     [
      139.7543344,
      35.7064244
     ],
     [
      139.7536808,
      35.7082741
     ],
     [
      139.75359,
      35.7085489
     ],
     [
      139.7534126,
      35.7090365
     ],
     [
      139.7531498,
      35.7099084
     ],
     [
      139.7528766,
      35.7108004
     ],
     [
      139.75242,
      35.712329
     ],
     [
      139.7522401,
      35.7131983
     ],
     [
      139.7517121,
      35.7161961
     ],
     [
      139.7514685,
      35.7176892
     ],
     [
      139.7513454,
      35.7183222
     ],
     [
      139.7513572,
      35.7190861
     ],
     [
      139.751607,
      35.7198777
     ],
     [
      139.7519714,
      35.7209251
     ],
     [
      139.7520342,
      35.7210986
     ],
     [
      139.7520815,
      35.7212855
     ],
     [
      139.7521258,
      35.7215191
     ],
     [
      139.7521405,
      35.7216997
     ],
     [
      139.7521578,
      35.7223559
     ],
     [
      139.7521221,
      35.7225793
     ],
     [
      139.7519892,
      35.7231077
     ],
     [
      139.7518737,
      35.7234321
     ],
     [
      139.7515732,
      35.7239335
     ],
     [
      139.7513698,
      35.7241927
     ],
     [
      139.7511405,
      35.7244541
     ],
     [
      139.7506298,
      35.7248751
     ],
     [
      139.75034,
      35.7250646
     ],
     [
      139.750023,
      35.72523
     ],
     [
      139.749686,
      35.7253769
     ],
     [
      139.7493369,
      35.7255019
     ],
     [
      139.7486036,
      35.7257184
     ],
     [
      139.7479387,
      35.7259844
     ],
     [
      139.7466691,
      35.7266552
     ],
     [
      139.7460858,
      35.7269541
     ],
     [
      139.7456365,
      35.7272167
     ],
     [
      139.7449457,
      35.7276828
     ],
     [
      139.7442511,
      35.7281815
     ],
     [
      139.7435712,
      35.7287448
     ],
     [
      139.7412803,
      35.7310897
     ],
     [
      139.7405346,
      35.7317307
     ],
     [
      139.7393284,
      35.7328206
     ],
     [
      139.7386839,
      35.7333325
     ],
     [
      139.7385141,
      35.7334676
     ],
     [
      139.7381841,
      35.7337434
     ],
     [
      139.7377572,
      35.7341241
     ],
     [
      139.7374714,
      35.7344086
     ],
     [
      139.73737,
      35.7345049
     ],
     [
      139.7370508,
      35.7348154
     ],
     [
      139.7327506,
      35.7392558
     ],
     [
      139.7302777,
      35.7418583
     ],
     [
      139.7286561,
      35.743529
     ],
     [
      139.7281934,
      35.7440359
     ],
     [
      139.7277434,
      35.7445375
     ],
     [
      139.7272664,
      35.7450245
     ],
     [
      139.7269989,
      35.7452298
     ],
     [
      139.7246683,
      35.74678
     ],
     [
      139.7235193,
      35.7475081
     ],
     [
      139.7228562,
      35.7479098
     ],
     [
      139.7222746,
      35.7482073
     ],
     [
      139.7217108,
      35.7484173
     ],
     [
      139.7213682,
      35.748522
     ],
     [
      139.7210175,
      35.7486061
     ],
     [
      139.7207426,
      35.7486615
     ],
     [
      139.7202457,
      35.7487215
     ],
     [
      139.7199957,
      35.748744
     ],
     [
      139.7184091,
      35.7489049
     ],
     [
      139.7183189,
      35.7489168
     ],
     [
      139.7145433,
      35.7493206
     ],
     [
      139.7134868,
      35.7494797
     ],
     [
      139.7130774,
      35.7495709
     ],
     [
      139.7127402,
      35.7496629
     ],
     [
      139.7124091,
      35.7497806
     ],
     [
      139.7120834,
      35.7499066
     ],
     [
      139.7117427,
      35.7500633
     ],
     [
      139.7112253,
      35.7503632
     ],
     [
      139.7107722,
      35.7506986
     ],
     [
      139.7100156,
      35.7513354
     ],
     [
      139.7092636,
      35.7519783
     ],
     [
      139.7090438,
      35.7522016
     ],
     [
      139.7088307,
      35.7524613
     ],
     [
      139.7086655,
      35.7527385
     ],
     [
      139.7085364,
      35.7530151
     ],
     [
      139.7084512,
      35.7533116
     ],
     [
      139.7079333,
      35.7550809
     ],
     [
      139.7074055,
      35.7565077
     ],
     [
      139.7067307,
      35.7582512
     ],
     [
      139.7060849,
      35.7598979
     ],
     [
      139.7058014,
      35.760633
     ],
     [
      139.7054985,
      35.7614278
     ],
     [
      139.7041259,
      35.7649434
     ],
     [
      139.7037884,
      35.7658187
     ],
     [
      139.703558,
      35.7664137
     ],
     [
      139.7031121,
      35.7675964
     ],
     [
      139.7024273,
      35.7685127
     ],
     [
      139.7014588,
      35.7697989
     ],
     [
      139.7010539,
      35.7702815
     ],
     [
      139.7004758,
      35.7709229
     ],
     [
      139.6994838,
      35.7719999
     ],
     [
      139.6984193,
      35.7730864
     ],
     [
      139.6977176,
      35.7737518
     ],
     [
      139.6964474,
      35.7748401
     ],
     [
      139.6954813,
      35.7756747
     ],
     [
      139.6945761,
      35.7764622
     ],
     [
      139.6933255,
      35.7775746
     ],
     [
      139.6930272,
      35.777818
     ],
     [
      139.6925664,
      35.7781048
     ],
     [
      139.6922961,
      35.7782513
     ]
    ]
   }
  },
  {
   "type": "Feature",
   "properties": {
    "kind": "track",
    "seq": 4,
    "role": "main"
   },
   "geometry": {
    "type": "LineString",
    "coordinates": [
     [
      139.6922961,
      35.7782513
     ],
     [
      139.6920387,
      35.7783733
     ],
     [
      139.6917889,
      35.778462
     ],
     [
      139.6917205,
      35.7784831
     ],
     [
      139.6915992,
      35.7785165
     ],
     [
      139.691488,
      35.7785421
     ],
     [
      139.6913272,
      35.7785751
     ],
     [
      139.6911093,
      35.778609
     ],
     [
      139.690949,
      35.7786277
     ],
     [
      139.6907075,
      35.7786411
     ],
     [
      139.690273,
      35.7786268
     ],
     [
      139.6899246,
      35.7785796
     ],
     [
      139.6896331,
      35.7785162
     ],
     [
      139.6894165,
      35.7784564
     ],
     [
      139.6885274,
      35.7781626
     ],
     [
      139.6882849,
      35.7780862
     ],
     [
      139.6879032,
      35.7779847
     ],
     [
      139.6871672,
      35.7777921
     ],
     [
      139.6867435,
      35.7776824
     ],
     [
      139.6862788,
      35.7775626
     ],
     [
      139.6859899,
      35.7774881
     ],
     [
      139.684947,
      35.7772173
     ],
     [
      139.6846297,
      35.7771351
     ],
     [
      139.6843533,
      35.777072
     ],
     [
      139.6841573,
      35.7770404
     ],
     [
      139.6841416,
      35.7770387
     ],
     [
      139.6839563,
      35.7770185
     ],
     [
      139.6838645,
      35.7770154
     ],
     [
      139.6837368,
      35.7770223
     ],
     [
      139.6835322,
      35.7770322
     ],
     [
      139.6833538,
      35.7770548
     ],
     [
      139.6831436,
      35.7770991
     ],
     [
      139.6829489,
      35.7771532
     ],
     [
      139.6827608,
      35.7772209
     ],
     [
      139.6825604,
      35.777314
     ],
     [
      139.6824081,
      35.7774042
     ],
     [
      139.6822602,
      35.777498
     ],
     [
      139.6821354,
      35.7775956
     ],
     [
      139.6820097,
      35.7777102
     ],
     [
      139.6818663,
      35.7778617
     ],
     [
      139.6817652,
      35.7779943
     ],
     [
      139.6801254,
      35.7803895
     ],
     [
      139.6793805,
      35.7814475
     ],
     [
      139.6792332,
      35.7816901
     ],
     [
      139.679151,
      35.7818361
     ],
     [
      139.6790755,
      35.7820218
     ],
     [
      139.6790034,
      35.7822342
     ],
     [
      139.6789565,
      35.7824191
     ],
     [
      139.678921,
      35.7826898
     ],
     [
      139.6789121,
      35.7829119
     ],
     [
      139.6789128,
      35.7834247
     ],
     [
      139.6789242,
      35.7836542
     ],
     [
      139.6789524,
      35.7838992
     ],
     [
      139.678984,
      35.7841688
     ],
     [
      139.6790348,
      35.784509
     ],
     [
      139.6790816,
      35.7848574
     ],
     [
      139.6791021,
      35.7850707
     ],
     [
      139.6791032,
      35.7852052
     ],
     [
      139.679091,
      35.7853168
     ],
     [
      139.6790678,
      35.7854413
     ],
     [
      139.6790214,
      35.785587
     ],
     [
      139.6789618,
      35.7857187
     ],
     [
      139.6788772,
      35.7858644
     ],
     [
      139.6787712,
      35.786002
     ],
     [
      139.6786673,
      35.7861095
     ],
     [
      139.6785126,
      35.7862386
     ],
     [
      139.678379,
      35.786326
     ],
     [
      139.6782265,
      35.7864174
     ],
     [
      139.6780652,
      35.786485
     ],
     [
      139.677874,
      35.7865487
     ],
     [
      139.6776481,
      35.7865935
     ],
     [
      139.6774327,
      35.7866249
     ],
     [
      139.6771647,
      35.7866531
     ],
     [
      139.6740086,
      35.786948
     ],
     [
      139.6725878,
      35.7870672
     ],
     [
      139.6719904,
      35.787127
     ],
     [
      139.6716749,
      35.7871593
     ],
     [
      139.6712675,
      35.787199
     ],
     [
      139.6702078,
      35.787286
     ],
     [
      139.6692093,
      35.7873792
     ],
     [
      139.6685539,
      35.7874482
     ],
     [
      139.6679031,
      35.7875458
     ],
     [
      139.6670539,
      35.7877081
     ],
     [
      139.6639876,
      35.7883271
     ],
     [
      139.6633392,
      35.7884551
     ],
     [
      139.6629114,
      35.7885314
     ],
     [
      139.6625982,
      35.78857
     ],
     [
      139.6618046,
      35.7886998
     ],
     [
      139.6612689,
      35.7888074
     ],
     [
      139.6610277,
      35.7888498
     ],
     [
      139.6603623,
      35.7889746
     ],
     [
      139.6592331,
      35.7892284
     ],
     [
      139.6586588,
      35.7893582
     ],
     [
      139.6558629,
      35.78991
     ],
     [
      139.6552958,
      35.7900243
     ],
     [
      139.6543429,
      35.7902113
     ],
     [
      139.6472871,
      35.7915962
     ],
     [
      139.6467283,
      35.7917062
     ],
     [
      139.6457556,
      35.7918972
     ],
     [
      139.644313,
      35.7921794
     ]
    ]
   }
  },
  {
   "type": "Feature",
   "properties": {
    "kind": "station",
    "name": "目黒"
   },
   "geometry": {
    "type": "Point",
    "coordinates": [
     139.715456,
     35.63297
    ]
   }
  },
  {
   "type": "Feature",
   "properties": {
    "kind": "station",
    "name": "白金台"
   },
   "geometry": {
    "type": "Point",
    "coordinates": [
     139.726007,
     35.637851
    ]
   }
  },
  {
   "type": "Feature",
   "properties": {
    "kind": "station",
    "name": "白金高輪"
   },
   "geometry": {
    "type": "Point",
    "coordinates": [
     139.734344,
     35.643283
    ]
   }
  },
  {
   "type": "Feature",
   "properties": {
    "kind": "station",
    "name": "三田"
   },
   "geometry": {
    "type": "Point",
    "coordinates": [
     139.748998,
     35.64865
    ]
   }
  },
  {
   "type": "Feature",
   "properties": {
    "kind": "station",
    "name": "芝公園"
   },
   "geometry": {
    "type": "Point",
    "coordinates": [
     139.74985,
     35.654186
    ]
   }
  },
  {
   "type": "Feature",
   "properties": {
    "kind": "station",
    "name": "御成門"
   },
   "geometry": {
    "type": "Point",
    "coordinates": [
     139.751366,
     35.660774
    ]
   }
  },
  {
   "type": "Feature",
   "properties": {
    "kind": "station",
    "name": "内幸町"
   },
   "geometry": {
    "type": "Point",
    "coordinates": [
     139.75533,
     35.669344
    ]
   }
  },
  {
   "type": "Feature",
   "properties": {
    "kind": "station",
    "name": "日比谷"
   },
   "geometry": {
    "type": "Point",
    "coordinates": [
     139.760274,
     35.676585
    ]
   }
  },
  {
   "type": "Feature",
   "properties": {
    "kind": "station",
    "name": "大手町"
   },
   "geometry": {
    "type": "Point",
    "coordinates": [
     139.762798,
     35.684093
    ]
   }
  },
  {
   "type": "Feature",
   "properties": {
    "kind": "station",
    "name": "神保町"
   },
   "geometry": {
    "type": "Point",
    "coordinates": [
     139.758213,
     35.695331
    ]
   }
  },
  {
   "type": "Feature",
   "properties": {
    "kind": "station",
    "name": "水道橋"
   },
   "geometry": {
    "type": "Point",
    "coordinates": [
     139.755147,
     35.70346
    ]
   }
  },
  {
   "type": "Feature",
   "properties": {
    "kind": "station",
    "name": "春日"
   },
   "geometry": {
    "type": "Point",
    "coordinates": [
     139.753287,
     35.709532
    ]
   }
  },
  {
   "type": "Feature",
   "properties": {
    "kind": "station",
    "name": "白山"
   },
   "geometry": {
    "type": "Point",
    "coordinates": [
     139.752134,
     35.721682
    ]
   }
  },
  {
   "type": "Feature",
   "properties": {
    "kind": "station",
    "name": "千石"
   },
   "geometry": {
    "type": "Point",
    "coordinates": [
     139.744984,
     35.727772
    ]
   }
  },
  {
   "type": "Feature",
   "properties": {
    "kind": "station",
    "name": "巣鴨"
   },
   "geometry": {
    "type": "Point",
    "coordinates": [
     139.738154,
     35.733793
    ]
   }
  },
  {
   "type": "Feature",
   "properties": {
    "kind": "station",
    "name": "西巣鴨"
   },
   "geometry": {
    "type": "Point",
    "coordinates": [
     139.728703,
     35.743568
    ]
   }
  },
  {
   "type": "Feature",
   "properties": {
    "kind": "station",
    "name": "新板橋"
   },
   "geometry": {
    "type": "Point",
    "coordinates": [
     139.719808,
     35.748772
    ]
   }
  },
  {
   "type": "Feature",
   "properties": {
    "kind": "station",
    "name": "板橋区役所前"
   },
   "geometry": {
    "type": "Point",
    "coordinates": [
     139.71012,
     35.751372
    ]
   }
  },
  {
   "type": "Feature",
   "properties": {
    "kind": "station",
    "name": "板橋本町"
   },
   "geometry": {
    "type": "Point",
    "coordinates": [
     139.705544,
     35.761309
    ]
   }
  },
  {
   "type": "Feature",
   "properties": {
    "kind": "station",
    "name": "本蓮沼"
   },
   "geometry": {
    "type": "Point",
    "coordinates": [
     139.70241,
     35.768566
    ]
   }
  },
  {
   "type": "Feature",
   "properties": {
    "kind": "station",
    "name": "志村坂上"
   },
   "geometry": {
    "type": "Point",
    "coordinates": [
     139.695097,
     35.776082
    ]
   }
  },
  {
   "type": "Feature",
   "properties": {
    "kind": "station",
    "name": "志村三丁目"
   },
   "geometry": {
    "type": "Point",
    "coordinates": [
     139.685751,
     35.777468
    ]
   }
  },
  {
   "type": "Feature",
   "properties": {
    "kind": "station",
    "name": "蓮根"
   },
   "geometry": {
    "type": "Point",
    "coordinates": [
     139.678947,
     35.784262
    ]
   }
  },
  {
   "type": "Feature",
   "properties": {
    "kind": "station",
    "name": "西台"
   },
   "geometry": {
    "type": "Point",
    "coordinates": [
     139.672867,
     35.787074
    ]
   }
  },
  {
   "type": "Feature",
   "properties": {
    "kind": "station",
    "name": "高島平"
   },
   "geometry": {
    "type": "Point",
    "coordinates": [
     139.661361,
     35.788908
    ]
   }
  },
  {
   "type": "Feature",
   "properties": {
    "kind": "station",
    "name": "新高島平"
   },
   "geometry": {
    "type": "Point",
    "coordinates": [
     139.65405,
     35.790289
    ]
   }
  },
  {
   "type": "Feature",
   "properties": {
    "kind": "station",
    "name": "西高島平"
   },
   "geometry": {
    "type": "Point",
    "coordinates": [
     139.645421,
     35.791965
    ]
   }
  }
 ]
}
