{
 "type": "FeatureCollection",
 "metadata": {
  "line_id": "toei.asakusa",
  "source": {
   "name": "mini-tokyo-3d (4ad6ca6, 2026-06-03)",
   "url": "https://github.com/nagix/mini-tokyo-3d",
   "license": "MIT (c) Akihiko Kusanagi",
   "retrieved": "2026-06-03",
   "note": "国土数値情報 N02 へ到達できない環境向けのブートストラップ。extract-n02 で再抽出して差し替え可能。"
  }
 },
 "features": [
  {
   "type": "Feature",
   "properties": {
    "kind": "track",
    "seq": 0,
    "role": "main"
   },
   "geometry": {
    "type": "LineString",
    "coordinates": [
     [
      139.7047794,
      35.5853207
     ],
     [
      139.705821,
      35.5867049
     ],
     [
      139.7062949,
      35.5873183
     ],
     [
      139.7069905,
      35.5882232
     ],
     [
      139.7071671,
      35.5884546
     ],
     [
      139.7088355,
      35.5906414
     ],
     [
      139.7102672,
      35.5925186
     ],
     [
      139.7106794,
      35.593052
     ],
     [
      139.7111263,
      35.5937361
     ],
     [
      139.7112721,
      35.5940443
     ],
     [
      139.7114005,
      35.5943787
     ],
     [
      139.7116636,
      35.595681
     ],
     [
      139.711717,
      35.5959962
     ],
     [
      139.711871,
      35.596806
     ],
     [
      139.7119947,
      35.5974181
     ],
     [
      139.7128006,
      35.6013717
     ],
     [
      139.7128111,
      35.6014067
     ],
     [
      139.7132112,
      35.6031812
     ],
     [
      139.7134549,
      35.6045389
     ],
     [
      139.7135235,
      35.6049108
     ],
     [
      139.713591,
      35.6052663
     ],
     [
      139.7137433,
      35.6059471
     ],
     [
      139.714019,
      35.6071674
     ],
     [
      139.7142452,
      35.6083561
     ],
     [
      139.7143686,
      35.6089274
     ],
     [
      139.7144805,
      35.6093788
     ],
     [
      139.7155898,
      35.6124475
     ],
     [
      139.7158571,
      35.6132767
     ],
     [
      139.7160135,
      35.6137816
     ],
     [
      139.7162995,
      35.6145375
     ],
     [
      139.7165304,
      35.6151039
     ],
     [
      139.7166598,
      35.6153803
     ],
     [
      139.7168228,
      35.6157275
     ],
     [
      139.7172224,
      35.6164798
     ],
     [
      139.7180283,
      35.617839
     ],
     [
      139.7195435,
      35.6207326
     ],
     [
      139.7200991,
      35.6218315
     ],
     [
      139.7205336,
      35.6229457
     ],
     [
      139.7209856,
      35.6241426
     ],
     [
      139.7211961,
      35.6246005
     ],
     [
      139.7214013,
      35.6249232
     ],
     [
      139.7215986,
      35.6251649
     ],
     [
      139.7217715,
      35.6253625
     ],
     [
      139.7219368,
      35.6255201
     ],
     [
      139.7220106,
      35.6255927
     ],
     [
      139.7220963,
      35.6256709
     ],
     [
      139.7223981,
      35.625886
     ],
     [
      139.7235224,
      35.6266929
     ],
     [
      139.7241661,
      35.6271354
     ],
     [
      139.7248507,
      35.6276026
     ],
     [
      139.7249352,
      35.6276725
     ],
     [
      139.725688,
      35.6283586
     ],
     [
      139.726409,
      35.6290775
     ],
     [
      139.7269419,
      35.629535
     ],
     [
      139.7284708,
      35.6304084
     ],
     [
      139.7296357,
      35.6313121
     ],
     [
      139.73033,
      35.6318096
     ],
     [
      139.7309892,
      35.6321992
     ],
     [
      139.7311659,
      35.6323049
     ],
     [
      139.7315854,
      35.632514
     ],
     [
      139.7318575,
      35.632619
     ],
     [
      139.7321961,
      35.6327556
     ],
     [
      139.7325684,
      35.6328305
     ],
     [
      139.7328951,
      35.6328693
     ],
     [
      139.7334424,
      35.6328975
     ],
     [
      139.734528,
      35.6328851
     ],
     [
      139.7358245,
      35.6328359
     ],
     [
      139.7362366,
      35.6328954
     ],
     [
      139.7366847,
      35.6330736
     ],
     [
      139.7371392,
      35.6334112
     ],
     [
      139.7377896,
      35.6341199
     ],
     [
      139.7382008,
      35.6346372
     ],
     [
      139.7383992,
      35.635076
     ],
     [
      139.7384437,
      35.6351738
     ],
     [
      139.7388017,
      35.636125
     ],
     [
      139.7390628,
      35.6367376
     ],
     [
      139.7392462,
      35.6371678
     ],
     [
      139.7393735,
      35.6374727
     ],
     [
      139.739498,
      35.63776
     ],
     [
      139.7396637,
      35.6380727
     ],
     [
      139.7400421,
      35.6387926
     ],
     [
      139.7403616,
      35.6393889
     ],
     [
      139.7405991,
      35.639856
     ],
     [
      139.7406722,
      35.6400634
     ],
     [
      139.7408208,
      35.6403653
     ],
     [
      139.7413959,
      35.6414171
     ],
     [
      139.7416922,
      35.6419511
     ],
     [
      139.7418324,
      35.6422127
     ],
     [
      139.7419168,
      35.6423543
     ],
     [
      139.742634,
      35.643612
     ],
     [
      139.7428247,
      35.6439068
     ],
     [
      139.743083,
      35.6442453
     ],
     [
      139.74348,
      35.6446621
     ],
     [
      139.7437575,
      35.6448992
     ],
     [
      139.7440536,
      35.6451208
     ],
     [
      139.7446596,
      35.6455057
     ],
     [
      139.7454612,
      35.6460164
     ],
     [
      139.7457637,
      35.6461986
     ],
     [
      139.7461002,
      35.6464055
     ],
     [
      139.7464336,
      35.6466033
     ],
     [
      139.746772,
      35.6467685
     ],
     [
      139.7476024,
      35.6471602
     ],
     [
      139.7479575,
      35.6473307
     ],
     [
      139.7483294,
      35.6475006
     ],
     [
      139.7491045,
      35.6478613
     ],
     [
      139.7494344,
      35.6479975
     ],
     [
      139.7497631,
      35.648101
     ],
     [
      139.7501234,
      35.6482061
     ],
     [
      139.7505399,
      35.648296
     ],
     [
      139.7515657,
      35.6485175
     ],
     [
      139.7519249,
      35.6486198
     ],
     [
      139.7522561,
      35.6487539
     ],
     [
      139.7527483,
      35.6490407
     ],
     [
      139.7530207,
      35.6492808
     ],
     [
      139.7532579,
      35.6495864
     ],
     [
      139.7534312,
      35.6498949
     ],
     [
      139.7536589,
      35.6504452
     ],
     [
      139.7537702,
      35.6507721
     ],
     [
      139.7538628,
      35.6511265
     ],
     [
      139.7539297,
      35.6515777
     ],
     [
      139.7540478,
      35.6524362
     ],
     [
      139.7541888,
      35.6533603
     ],
     [
      139.7544012,
      35.6549321
     ],
     [
      139.7545666,
      35.656169
     ],
     [
      139.7546855,
      35.6569287
     ],
     [
      139.7547796,
      35.6575978
     ],
     [
      139.755045,
      35.6595435
     ],
     [
      139.7551594,
      35.66001
     ],
     [
      139.7553061,
      35.6603579
     ],
     [
      139.7554308,
      35.6605928
     ],
     [
      139.755607,
      35.6608898
     ],
     [
      139.7572917,
      35.6629149
     ],
     [
      139.7584963,
      35.6643556
     ],
     [
      139.7587592,
      35.66467
     ],
     [
      139.7587899,
      35.6647039
     ],
     [
      139.7593717,
      35.6654162
     ],
     [
      139.7597302,
      35.6658445
     ],
     [
      139.7597799,
      35.6659035
     ],
     [
      139.759849,
      35.6660002
     ],
     [
      139.7600698,
      35.6662189
     ],
     [
      139.7602167,
      35.666313
     ],
     [
      139.7603903,
      35.6664152
     ],
     [
      139.7605273,
      35.6664747
     ],
     [
      139.7607425,
      35.6665511
     ],
     [
      139.7608838,
      35.6665887
     ],
     [
      139.7610836,
      35.666627
     ],
     [
      139.7612697,
      35.6666424
     ],
     [
      139.7614722,
      35.6666517
     ],
     [
      139.7618442,
      35.6666606
     ],
     [
      139.7623958,
      35.6666789
     ],
     [
      139.7625454,
      35.6666857
     ],
     [
      139.7627024,
      35.6666957
     ],
     [
      139.7628771,
      35.6667129
     ],
     [
      139.7630609,
      35.6667412
     ],
     [
      139.7632358,
      35.6667856
     ],
     [
      139.7634102,
      35.6668379
     ],
     [
      139.7635665,
      35.6668954
     ],
     [
      139.7637324,
      35.6669734
     ],
     [
      139.7638722,
      35.6670547
     ],
     [
      139.7641099,
      35.6672051
     ],
     [
      139.7645991,
      35.6675905
     ],
     [
      139.7647932,
      35.6677451
     ],
     [
      139.7652635,
      35.668238
     ],
     [
      139.7654948,
      35.6684728
     ],
     [
      139.7656269,
      35.6685823
     ],
     [
      139.7664445,
      35.6692209
     ],
     [
      139.7668607,
      35.6695796
     ],
     [
      139.7671628,
      35.6698939
     ],
     [
      139.7673691,
      35.6701102
     ],
     [
      139.7681653,
      35.6709994
     ],
     [
      139.7686377,
      35.6715163
     ],
     [
      139.7694594,
      35.6723012
     ],
     [
      139.7702631,
      35.6731886
     ],
     [
      139.7707638,
      35.6737762
     ],
     [
      139.7711134,
      35.6742399
     ],
     [
      139.7718655,
      35.67544
     ],
     [
      139.7722004,
      35.675985
     ],
     [
      139.7727911,
      35.6769472
     ],
     [
      139.7732699,
      35.6777163
     ],
     [
      139.7736168,
      35.6782839
     ],
     [
      139.7753573,
      35.6811368
     ],
     [
      139.775831,
      35.6819023
     ],
     [
      139.7761492,
      35.6824463
     ],
     [
      139.776632,
      35.6832668
     ],
     [
      139.776805,
      35.6835563
     ],
     [
      139.7769314,
      35.6837465
     ],
     [
      139.7769982,
      35.6838297
     ],
     [
      139.7771658,
      35.6839844
     ],
     [
      139.777251,
      35.6840617
     ],
     [
      139.777434,
      35.6841892
     ],
     [
      139.7775571,
      35.6842574
     ],
     [
      139.7778712,
      35.6844027
     ],
     [
      139.7780394,
      35.6844886
     ],
     [
      139.7784334,
      35.6846777
     ],
     [
      139.7787899,
      35.6848397
     ],
     [
      139.7794242,
      35.6850922
     ],
     [
      139.7802469,
      35.6854252
     ],
     [
      139.780882,
      35.685688
     ],
     [
      139.7809212,
      35.6857081
     ],
     [
      139.7814973,
      35.6860043
     ],
     [
      139.7816968,
      35.6861108
     ],
     [
      139.7821612,
      35.6863228
     ],
     [
      139.7823425,
      35.6864239
     ],
     [
      139.7829644,
      35.6867968
     ],
     [
      139.7836192,
      35.6872074
     ],
     [
      139.7842562,
      35.6876237
     ],
     [
      139.7845472,
      35.6878132
     ],
     [
      139.7846966,
      35.6879272
     ],
     [
      139.7848128,
      35.6880507
     ],
     [
      139.7849201,
      35.688189
     ],
     [
      139.7849979,
      35.6883206
     ],
     [
      139.7850687,
      35.6884649
     ],
     [
      139.7851108,
      35.6885882
     ],
     [
      139.7851499,
      35.688749
     ],
     [
      139.7851538,
      35.6889018
     ],
     [
      139.7851494,
      35.6890626
     ],
     [
      139.7851218,
      35.6892029
     ],
     [
      139.7850928,
      35.6893582
     ],
     [
      139.7850613,
      35.6895012
     ],
     [
      139.7849834,
      35.6898078
     ],
     [
      139.7849255,
      35.6900586
     ],
     [
      139.7848837,
      35.6902382
     ],
     [
      139.7848416,
      35.6903786
     ],
     [
      139.7847599,
      35.6906703
     ],
     [
      139.7847327,
      35.6908629
     ],
     [
      139.7847279,
      35.6911192
     ],
     [
      139.7848622,
      35.6921262
     ],
     [
      139.7851239,
      35.6939074
     ],
     [
      139.7852701,
      35.6946273
     ],
     [
      139.7854371,
      35.6952229
     ],
     [
      139.7855407,
      35.6955793
     ],
     [
      139.7857025,
      35.6960438
     ],
     [
      139.785806,
      35.696404
     ],
     [
      139.7859085,
      35.6966967
     ],
     [
      139.7860104,
      35.6969701
     ],
     [
      139.7862521,
      35.697411
     ],
     [
      139.7867977,
      35.6982355
     ],
     [
      139.7869574,
      35.698477
     ],
     [
      139.787281,
      35.698966
     ],
     [
      139.7885888,
      35.7009345
     ],
     [
      139.7889796,
      35.7014441
     ],
     [
      139.7891761,
      35.7016757
     ],
     [
      139.7895194,
      35.702055
     ],
     [
      139.7901533,
      35.7026037
     ],
     [
      139.7902175,
      35.7026594
     ],
     [
      139.7909413,
      35.7032372
     ],
     [
      139.7913334,
      35.7035559
     ],
     [
      139.7930135,
      35.7049311
     ],
     [
      139.7932443,
      35.7051414
     ],
     [
      139.7936856,
      35.7055251
     ],
     [
      139.7939725,
      35.7058394
     ],
     [
      139.7944569,
      35.7064076
     ],
     [
      139.7950209,
      35.7072452
     ],
     [
      139.7956572,
      35.7082483
     ],
     [
      139.7958957,
      35.7085064
     ],
     [
      139.7960087,
      35.7086077
     ],
     [
      139.7965559,
      35.7089843
     ],
     [
      139.7974813,
      35.7095208
     ],
     [
      139.7977209,
      35.7096073
     ],
     [
      139.7978922,
      35.7096551
     ],
     [
      139.7983123,
      35.7097228
     ],
     [
      139.7986923,
      35.7097203
     ],
     [
      139.7990385,
      35.7096658
     ],
     [
      139.7996242,
      35.7095152
     ],
     [
      139.8001497,
      35.7093645
     ],
     [
      139.8008001,
      35.7091674
     ],
     [
      139.8011018,
      35.7090607
     ],
     [
      139.8018848,
      35.7086991
     ],
     [
      139.8021274,
      35.708601
     ],
     [
      139.8023482,
      35.70854
     ],
     [
      139.8027836,
      35.7085053
     ],
     [
      139.8043538,
      35.7085782
     ],
     [
      139.8051077,
      35.708649
     ],
     [
      139.808768,
      35.7091818
     ],
     [
      139.8093723,
      35.7092727
     ],
     [
      139.8103363,
      35.7094253
     ],
     [
      139.8108389,
      35.709636
     ],
     [
      139.812003,
      35.7102283
     ],
     [
      139.8126114,
      35.7105501
     ],
     [
      139.8127547,
      35.7106204
     ],
     [
      139.81287,
      35.7106773
     ],
     [
      139.8134718,
      35.7110175
     ],
     [
      139.8138103,
      35.7112029
     ],
     [
      139.8142412,
      35.7114523
     ],
     [
      139.8144833,
      35.7116464
     ],
     [
      139.814728,
      35.7118396
     ],
     [
      139.8149679,
      35.7120844
     ]
    ]
   }
  },
  {
   "type": "Feature",
   "properties": {
    "kind": "station",
    "name": "西馬込"
   },
   "geometry": {
    "type": "Point",
    "coordinates": [
     139.706086,
     35.58705
    ]
   }
  },
  {
   "type": "Feature",
   "properties": {
    "kind": "station",
    "name": "馬込"
   },
   "geometry": {
    "type": "Point",
    "coordinates": [
     139.711884,
     35.596773
    ]
   }
  },
  {
   "type": "Feature",
   "properties": {
    "kind": "station",
    "name": "中延"
   },
   "geometry": {
    "type": "Point",
    "coordinates": [
     139.713645,
     35.605274
    ]
   }
  },
  {
   "type": "Feature",
   "properties": {
    "kind": "station",
    "name": "戸越"
   },
   "geometry": {
    "type": "Point",
    "coordinates": [
     139.716315,
     35.614421
    ]
   }
  },
  {
   "type": "Feature",
   "properties": {
    "kind": "station",
    "name": "五反田"
   },
   "geometry": {
    "type": "Point",
    "coordinates": [
     139.723965,
     35.626878
    ]
   }
  },
  {
   "type": "Feature",
   "properties": {
    "kind": "station",
    "name": "高輪台"
   },
   "geometry": {
    "type": "Point",
    "coordinates": [
     139.730384,
     35.631751
    ]
   }
  },
  {
   "type": "Feature",
   "properties": {
    "kind": "station",
    "name": "泉岳寺"
   },
   "geometry": {
    "type": "Point",
    "coordinates": [
     139.739993,
     35.638715
    ]
   }
  },
  {
   "type": "Feature",
   "properties": {
    "kind": "station",
    "name": "三田"
   },
   "geometry": {
    "type": "Point",
    "coordinates": [
     139.746877,
     35.646749
    ]
   }
  },
  {
   "type": "Feature",
   "properties": {
    "kind": "station",
    "name": "大門"
   },
   "geometry": {
    "type": "Point",
    "coordinates": [
     139.754679,
     35.65687
    ]
   }
  },
  {
   "type": "Feature",
   "properties": {
    "kind": "station",
    "name": "新橋"
   },
   "geometry": {
    "type": "Point",
    "coordinates": [
     139.759338,
     35.665386
    ]
   }
  },
  {
   "type": "Feature",
   "properties": {
    "kind": "station",
    "name": "東銀座"
   },
   "geometry": {
    "type": "Point",
    "coordinates": [
     139.76735,
     35.669915
    ]
   }
  },
  {
   "type": "Feature",
   "properties": {
    "kind": "station",
    "name": "宝町"
   },
   "geometry": {
    "type": "Point",
    "coordinates": [
     139.771966,
     35.675606
    ]
   }
  },
  {
   "type": "Feature",
   "properties": {
    "kind": "station",
    "name": "日本橋"
   },
   "geometry": {
    "type": "Point",
    "coordinates": [
     139.775814,
     35.681796
    ]
   }
  },
  {
   "type": "Feature",
   "properties": {
    "kind": "station",
    "name": "人形町"
   },
   "geometry": {
    "type": "Point",
    "coordinates": [
     139.782276,
     35.686345
    ]
   }
  },
  {
   "type": "Feature",
   "properties": {
    "kind": "station",
    "name": "東日本橋"
   },
   "geometry": {
    "type": "Point",
    "coordinates": [
     139.784886,
     35.692123
    ]
   }
  },
  {
   "type": "Feature",
   "properties": {
    "kind": "station",
    "name": "浅草橋"
   },
   "geometry": {
    "type": "Point",
    "coordinates": [
     139.786335,
     35.697494
    ]
   }
  },
  {
   "type": "Feature",
   "properties": {
    "kind": "station",
    "name": "蔵前"
   },
   "geometry": {
    "type": "Point",
    "coordinates": [
     139.790858,
     35.703128
    ]
   }
  },
  {
   "type": "Feature",
   "properties": {
    "kind": "station",
    "name": "浅草"
   },
   "geometry": {
    "type": "Point",
    "coordinates": [
     139.796542,
     35.70892
    ]
   }
  },
  {
   "type": "Feature",
   "properties": {
    "kind": "station",
    "name": "本所吾妻橋"
   },
   "geometry": {
    "type": "Point",
    "coordinates": [
     139.804397,
     35.708565
    ]
   }
  },
  {
   "type": "Feature",
   "properties": {
    "kind": "station",
    "name": "押上"
   },
   "geometry": {
    "type": "Point",
    "coordinates": [
     139.812993,
     35.710824
    ]
   }
  }
 ]
}
