{
 "type": "FeatureCollection",
 "metadata": {
  "line_id": "toei.oedo",
  "source": {
   "name": "mini-tokyo-3d (4ad6ca6, 2026-06-03)",
   "url": "https://github.com/nagix/mini-tokyo-3d",
   "license": "MIT (c) Akihiko Kusanagi",
   "retrieved": "2026-06-03",
   "note": "国土数値情報 N02 へ到達できない環境向けのブートストラップ。extract-n02 で再抽出して差し替え可能。"
  }
 },
 "features": [
  {
   "type": "Feature",
   "properties": {
    "kind": "track",
    "seq": 0,
    "role": "main"
   },
   "geometry": {
    "type": "LineString",
    "coordinates": [
     [
      139.6912519,
      35.6903689
     ],
     [
      139.6927908,
      35.6906241
     ],
     [
      139.6936099,
      35.6907575
     ],
     [
      139.6940495,
      35.6908281
     ],
     [
      139.6949343,
      35.6909693
     ],
     [
      139.6951363,
      35.6910037
     ],
     [
      139.6955046,
      35.6910657
     ],
     [
      139.6956705,
      35.6910907
     ],
     [
      139.6963722,
      35.6911753
     ],
     [
      139.6972519,
      35.6912557
     ],
     [
      139.698177,
      35.6913426
     ],
     [
      139.6985706,
      35.6914601
     ],
     [
      139.69879,
      35.6915892
     ],
     [
      139.6990029,
      35.6917956
     ],
     [
      139.6991494,
      35.6920008
     ],
     [
      139.6992367,
      35.6923625
     ],
     [
      139.6992239,
      35.692561
     ],
     [
      139.6991807,
      35.6928424
     ],
     [
      139.6991259,
      35.6931378
     ],
     [
      139.6990513,
      35.6934963
     ],
     [
      139.6989052,
      35.6940566
     ],
     [
      139.697932,
      35.6966237
     ],
     [
      139.6977818,
      35.6971509
     ],
     [
      139.6978515,
      35.697495
     ],
     [
      139.6980071,
      35.6977695
     ],
     [
      139.6982485,
      35.6979525
     ],
     [
      139.6984336,
      35.6980526
     ],
     [
      139.698624,
      35.6980919
     ],
     [
      139.6988292,
      35.6981322
     ],
     [
      139.6993509,
      35.6981507
     ],
     [
      139.7003031,
      35.6981463
     ],
     [
      139.7023094,
      35.698179
     ],
     [
      139.7039026,
      35.6983097
     ],
     [
      139.704954,
      35.6982923
     ],
     [
      139.7071986,
      35.697997
     ],
     [
      139.7075537,
      35.6979513
     ],
     [
      139.7083334,
      35.6978399
     ],
     [
      139.7089323,
      35.6977703
     ],
     [
      139.709441,
      35.6977314
     ],
     [
      139.7103667,
      35.6977096
     ],
     [
      139.7115109,
      35.6977201
     ],
     [
      139.7133681,
      35.6978074
     ],
     [
      139.7144295,
      35.6978443
     ],
     [
      139.7145658,
      35.697854
     ],
     [
      139.7146953,
      35.6978788
     ],
     [
      139.7148268,
      35.6979154
     ],
     [
      139.714948,
      35.697959
     ],
     [
      139.7150889,
      35.6980259
     ],
     [
      139.7158009,
      35.6983776
     ],
     [
      139.7161244,
      35.6985418
     ],
     [
      139.7163777,
      35.6986559
     ],
     [
      139.7165259,
      35.6987164
     ],
     [
      139.7167183,
      35.6987951
     ],
     [
      139.7169558,
      35.6988802
     ],
     [
      139.7174862,
      35.6990508
     ],
     [
      139.7183874,
      35.6993312
     ],
     [
      139.7185159,
      35.6993682
     ],
     [
      139.7187634,
      35.6994533
     ],
     [
      139.7194191,
      35.6996494
     ],
     [
      139.7197766,
      35.69975
     ],
     [
      139.72013,
      35.6998546
     ],
     [
      139.720327,
      35.6999156
     ],
     [
      139.7204906,
      35.6999591
     ],
     [
      139.7206734,
      35.7000098
     ],
     [
      139.720842,
      35.7000378
     ],
     [
      139.7210394,
      35.7000537
     ],
     [
      139.7212252,
      35.700054
     ],
     [
      139.7214413,
      35.7000178
     ],
     [
      139.721866,
      35.6999316
     ],
     [
      139.7222479,
      35.699858
     ],
     [
      139.7228993,
      35.6997674
     ],
     [
      139.7234586,
      35.6997151
     ],
     [
      139.7255818,
      35.6994965
     ],
     [
      139.7257425,
      35.6994767
     ],
     [
      139.7259857,
      35.6994547
     ],
     [
      139.7266176,
      35.6994527
     ],
     [
      139.7269846,
      35.6994646
     ],
     [
      139.7277241,
      35.6994997
     ],
     [
      139.7280919,
      35.699485
     ],
     [
      139.7288445,
      35.6993661
     ],
     [
      139.7292078,
      35.6993037
     ],
     [
      139.7296109,
      35.6992299
     ],
     [
      139.7299511,
      35.6991842
     ],
     [
      139.7301232,
      35.6991799
     ],
     [
      139.7303106,
      35.6991918
     ],
     [
      139.7304985,
      35.699224
     ],
     [
      139.7315841,
      35.6994348
     ],
     [
      139.731762,
      35.6994739
     ],
     [
      139.7319331,
      35.6995231
     ],
     [
      139.7324668,
      35.6997021
     ],
     [
      139.7330233,
      35.6998997
     ],
     [
      139.7352785,
      35.7006973
     ],
     [
      139.7359264,
      35.7009492
     ],
     [
      139.7369236,
      35.7013849
     ],
     [
      139.7371821,
      35.701504
     ],
     [
      139.7374314,
      35.7016566
     ],
     [
      139.7380986,
      35.702213
     ],
     [
      139.7389177,
      35.7030084
     ],
     [
      139.7390248,
      35.7031005
     ],
     [
      139.7391982,
      35.7032199
     ],
     [
      139.7395923,
      35.7033552
     ]
    ]
   }
  },
  {
   "type": "Feature",
   "properties": {
    "kind": "track",
    "seq": 1,
    "role": "sub"
   },
   "geometry": {
    "type": "LineString",
    "coordinates": [
     [
      139.7395923,
      35.7033552
     ],
     [
      139.7409182,
      35.7035367
     ],
     [
      139.7412758,
      35.7035004
     ],
     [
      139.7424733,
      35.7030462
     ],
     [
      139.7427076,
      35.7029534
     ],
     [
      139.7439344,
      35.7027438
     ]
    ]
   }
  },
  {
   "type": "Feature",
   "properties": {
    "kind": "track",
    "seq": 2,
    "role": "main"
   },
   "geometry": {
    "type": "LineString",
    "coordinates": [
     [
      139.7439344,
      35.7027438
     ],
     [
      139.7442222,
      35.7027241
     ],
     [
      139.7443744,
      35.7027277
     ],
     [
      139.7445774,
      35.702772
     ],
     [
      139.7447553,
      35.7028239
     ],
     [
      139.7449704,
      35.7028979
     ],
     [
      139.7453623,
      35.7030541
     ],
     [
      139.7456694,
      35.7031771
     ],
     [
      139.7460215,
      35.7033087
     ],
     [
      139.7463341,
      35.7034336
     ],
     [
      139.7465967,
      35.7035481
     ],
     [
      139.7467161,
      35.7036177
     ],
     [
      139.7468888,
      35.7037434
     ],
     [
      139.7470577,
      35.703935
     ],
     [
      139.7471174,
      35.704062
     ],
     [
      139.7471921,
      35.7043089
     ],
     [
      139.7473128,
      35.7048779
     ],
     [
      139.7479034,
      35.7061622
     ],
     [
      139.7479674,
      35.7063243
     ],
     [
      139.7482099,
      35.7067082
     ],
     [
      139.748622,
      35.7070539
     ],
     [
      139.7490951,
      35.7074335
     ],
     [
      139.7495323,
      35.7077815
     ],
     [
      139.7497696,
      35.7079355
     ],
     [
      139.7501188,
      35.7081955
     ],
     [
      139.7503541,
      35.708345
     ],
     [
      139.7507061,
      35.708477
     ],
     [
      139.7509983,
      35.7085458
     ],
     [
      139.7512015,
      35.7085739
     ],
     [
      139.7513825,
      35.7085844
     ],
     [
      139.7516993,
      35.7085719
     ],
     [
      139.7527322,
      35.7085795
     ],
     [
      139.7533824,
      35.7085503
     ],
     [
      139.7535911,
      35.7085379
     ],
     [
      139.7537756,
      35.7085181
     ],
     [
      139.7539595,
      35.7084904
     ],
     [
      139.7541739,
      35.7084339
     ],
     [
      139.7543629,
      35.708349
     ],
     [
      139.7556894,
      35.7076525
     ],
     [
      139.7559002,
      35.7075555
     ],
     [
      139.7560405,
      35.7075014
     ],
     [
      139.7561904,
      35.7074619
     ],
     [
      139.7564124,
      35.7074154
     ],
     [
      139.7565601,
      35.7074034
     ]
    ]
   }
  },
  {
   "type": "Feature",
   "properties": {
    "kind": "track",
    "seq": 3,
    "role": "sub"
   },
   "geometry": {
    "type": "LineString",
    "coordinates": [
     [
      139.7565601,
      35.7074034
     ],
     [
      139.7576012,
      35.7074385
     ]
    ]
   }
  },
  {
   "type": "Feature",
   "properties": {
    "kind": "track",
    "seq": 4,
    "role": "main"
   },
   "geometry": {
    "type": "LineString",
    "coordinates": [
     [
      139.7576012,
      35.7074385
     ],
     [
      139.7588736,
      35.7074738
     ],
     [
      139.7593752,
      35.7074876
     ],
     [
      139.7597121,
      35.7075112
     ],
     [
      139.7605464,
      35.7075493
     ],
     [
      139.7611066,
      35.7075726
     ],
     [
      139.7612251,
      35.7075842
     ],
     [
      139.7629205,
      35.7075374
     ],
     [
      139.7637152,
      35.7075258
     ],
     [
      139.7641718,
      35.7075143
     ],
     [
      139.7649399,
      35.7074484
     ],
     [
      139.7653061,
      35.7073998
     ],
     [
      139.7656698,
      35.7073769
     ],
     [
      139.7660274,
      35.7073909
     ],
     [
      139.7663993,
      35.7074643
     ],
     [
      139.7668601,
      35.7076266
     ],
     [
      139.7671635,
      35.7077864
     ],
     [
      139.7677739,
      35.7081134
     ],
     [
      139.7680693,
      35.7082584
     ],
     [
      139.7684054,
      35.7083492
     ],
     [
      139.76886,
      35.7083857
     ],
     [
      139.7696538,
      35.7083232
     ],
     [
      139.7719361,
      35.7081557
     ],
     [
      139.7725102,
      35.7080976
     ],
     [
      139.7732748,
      35.7080416
     ],
     [
      139.7741308,
      35.7079304
     ],
     [
      139.774339,
      35.707898
     ],
     [
      139.7747156,
      35.7078388
     ],
     [
      139.7750965,
      35.7077975
     ],
     [
      139.7757984,
      35.7077455
     ],
     [
      139.7761908,
      35.7077125
     ],
     [
      139.7765715,
      35.7076662
     ],
     [
      139.7769324,
      35.7076265
     ],
     [
      139.7773361,
      35.7075775
     ],
     [
      139.778077,
      35.7075007
     ],
     [
      139.7808458,
      35.7072082
     ],
     [
      139.7811692,
      35.7071741
     ],
     [
      139.7814365,
      35.7071491
     ],
     [
      139.7818928,
      35.7071022
     ],
     [
      139.7826793,
      35.7070301
     ],
     [
      139.7842254,
      35.7068566
     ],
     [
      139.7849425,
      35.7067769
     ],
     [
      139.7855906,
      35.7067085
     ],
     [
      139.7867804,
      35.7065851
     ],
     [
      139.7882001,
      35.706436
     ],
     [
      139.7885746,
      35.7063927
     ],
     [
      139.7892261,
      35.7063293
     ],
     [
      139.789426,
      35.7063
     ],
     [
      139.7901115,
      35.7062228
     ],
     [
      139.790723,
      35.7061188
     ],
     [
      139.7915281,
      35.7058734
     ],
     [
      139.7924202,
      35.705566
     ],
     [
      139.7929462,
      35.7053978
     ],
     [
      139.7932658,
      35.7052808
     ],
     [
      139.7936226,
      35.7051143
     ],
     [
      139.7939208,
      35.7049766
     ],
     [
      139.7940733,
      35.7049248
     ],
     [
      139.7942911,
      35.7048752
     ],
     [
      139.7944182,
      35.7048517
     ],
     [
      139.7946206,
      35.7048182
     ],
     [
      139.7947991,
      35.704795
     ],
     [
      139.7949824,
      35.7047548
     ],
     [
      139.7951692,
      35.7046952
     ],
     [
      139.795409,
      35.7045981
     ],
     [
      139.7956848,
      35.704426
     ],
     [
      139.7958735,
      35.7042753
     ],
     [
      139.7960603,
      35.7041592
     ],
     [
      139.796225,
      35.7040322
     ],
     [
      139.7965166,
      35.7038395
     ],
     [
      139.7968611,
      35.7035096
     ],
     [
      139.796939,
      35.7033364
     ],
     [
      139.7969994,
      35.7030842
     ],
     [
      139.797015,
      35.7028492
     ],
     [
      139.7971304,
      35.7012285
     ],
     [
      139.7974842,
      35.696861
     ],
     [
      139.7975651,
      35.6960089
     ],
     [
      139.7983197,
      35.6880621
     ],
     [
      139.7984007,
      35.6860854
     ],
     [
      139.7985808,
      35.6844673
     ],
     [
      139.7986794,
      35.6838427
     ],
     [
      139.7987337,
      35.6831855
     ],
     [
      139.7987873,
      35.6825283
     ],
     [
      139.7988891,
      35.6819706
     ],
     [
      139.7989145,
      35.6817781
     ],
     [
      139.7989462,
      35.6815345
     ],
     [
      139.798978,
      35.6812624
     ],
     [
      139.7991244,
      35.6799797
     ],
     [
      139.7991282,
      35.6798786
     ],
     [
      139.7991245,
      35.6797341
     ],
     [
      139.7991161,
      35.6796675
     ],
     [
      139.7990927,
      35.6795811
     ],
     [
      139.7990731,
      35.6795368
     ],
     [
      139.7989985,
      35.6793841
     ],
     [
      139.7981128,
      35.6782759
     ],
     [
      139.7974032,
      35.6773939
     ],
     [
      139.7965509,
      35.6763351
     ],
     [
      139.7964798,
      35.6762327
     ],
     [
      139.7964048,
      35.6761076
     ],
     [
      139.7963499,
      35.6760008
     ],
     [
      139.7962886,
      35.6758777
     ],
     [
      139.7962224,
      35.6756093
     ],
     [
      139.7961936,
      35.6753094
     ],
     [
      139.7961722,
      35.6749118
     ],
     [
      139.7961624,
      35.6747475
     ],
     [
      139.7961453,
      35.6745989
     ],
     [
      139.7961205,
      35.67444
     ],
     [
      139.7961055,
      35.6743727
     ],
     [
      139.7960874,
      35.6743054
     ],
     [
      139.7959782,
      35.6740319
     ],
     [
      139.7959391,
      35.6739362
     ],
     [
      139.7958204,
      35.6737608
     ],
     [
      139.7957415,
      35.6736539
     ],
     [
      139.7955591,
      35.6733797
     ],
     [
      139.7950674,
      35.6725911
     ],
     [
      139.7948252,
      35.6722578
     ],
     [
      139.7947369,
      35.6721434
     ],
     [
      139.7946247,
      35.6720208
     ],
     [
      139.7945227,
      35.6719041
     ],
     [
      139.7940792,
      35.6714549
     ],
     [
      139.7919852,
      35.6698126
     ],
     [
      139.7905058,
      35.6687196
     ],
     [
      139.7867859,
      35.665861
     ],
     [
      139.7864234,
      35.665525
     ],
     [
      139.7847641,
      35.6643022
     ],
     [
      139.7845159,
      35.6641235
     ],
     [
      139.7836179,
      35.6634829
     ],
     [
      139.7782475,
      35.6596701
     ],
     [
      139.7771843,
      35.6589327
     ],
     [
      139.775252,
      35.6575874
     ],
     [
      139.7751186,
      35.657501
     ],
     [
      139.7749516,
      35.6574134
     ],
     [
      139.7747946,
      35.6573497
     ],
     [
      139.7746045,
      35.6573018
     ],
     [
      139.7744282,
      35.6572774
     ],
     [
      139.7742296,
      35.6572762
     ],
     [
      139.7740453,
      35.657298
     ],
     [
      139.7738644,
      35.6573392
     ],
     [
      139.7736973,
      35.6574
     ],
     [
      139.7735387,
      35.6574841
     ],
     [
      139.7733939,
      35.6575829
     ],
     [
      139.7732634,
      35.6576947
     ],
     [
      139.7731381,
      35.6578125
     ],
     [
      139.7725314,
      35.6583913
     ],
     [
      139.7724132,
      35.6585082
     ],
     [
      139.7722992,
      35.6586343
     ],
     [
      139.772193,
      35.6587579
     ],
     [
      139.7721021,
      35.6588924
     ],
     [
      139.7720144,
      35.6590266
     ],
     [
      139.7719405,
      35.659166
     ],
     [
      139.771873,
      35.6593106
     ],
     [
      139.7718192,
      35.6594539
     ],
     [
      139.7717707,
      35.6596023
     ],
     [
      139.7717302,
      35.6597529
     ],
     [
      139.7716926,
      35.6599018
     ],
     [
      139.7716223,
      35.660203
     ],
     [
      139.771583,
      35.6603523
     ],
     [
      139.7715445,
      35.6605044
     ],
     [
      139.7715006,
      35.6606463
     ],
     [
      139.7714438,
      35.6607948
     ],
     [
      139.7713829,
      35.6609375
     ],
     [
      139.7713048,
      35.6610844
     ],
     [
      139.7712292,
      35.661216
     ],
     [
      139.7711404,
      35.661349
     ],
     [
      139.7710377,
      35.6614782
     ],
     [
      139.7709328,
      35.6616071
     ],
     [
      139.7708245,
      35.6617317
     ],
     [
      139.7707052,
      35.6618493
     ],
     [
      139.7705799,
      35.6619623
     ],
     [
      139.7704474,
      35.6620764
     ],
     [
      139.7703142,
      35.6621788
     ],
     [
      139.7689354,
      35.6632151
     ],
     [
      139.7679933,
      35.6639521
     ],
     [
      139.7668272,
      35.6648537
     ],
     [
      139.7663201,
      35.6652448
     ],
     [
      139.7647788,
      35.6665913
     ],
     [
      139.7646475,
      35.6666957
     ],
     [
      139.7644837,
      35.6667899
     ],
     [
      139.7643277,
      35.6668501
     ],
     [
      139.7641409,
      35.6668912
     ],
     [
      139.7639579,
      35.6669124
     ],
     [
      139.7637669,
      35.6669103
     ],
     [
      139.7635869,
      35.6668889
     ],
     [
      139.7634024,
      35.666831
     ]
    ]
   }
  },
  {
   "type": "Feature",
   "properties": {
    "kind": "track",
    "seq": 5,
    "role": "main"
   },
   "geometry": {
    "type": "LineString",
    "coordinates": [
     [
      139.7634024,
      35.666831
     ],
     [
      139.7632411,
      35.6667604
     ],
     [
      139.7631013,
      35.6666737
     ],
     [
      139.7629664,
      35.6665584
     ],
     [
      139.7628579,
      35.6664336
     ],
     [
      139.7627633,
      35.6662992
     ],
     [
      139.762594,
      35.6660306
     ],
     [
      139.7624226,
      35.6657497
     ],
     [
      139.7621666,
      35.6653409
     ],
     [
      139.7619971,
      35.6650777
     ],
     [
      139.7617631,
      35.6647786
     ],
     [
      139.7615471,
      35.6645285
     ],
     [
      139.7610557,
      35.6640047
     ],
     [
      139.7609048,
      35.6638374
     ],
     [
      139.7607442,
      35.6636643
     ],
     [
      139.7603251,
      35.6632061
     ],
     [
      139.7598803,
      35.6627248
     ],
     [
      139.759655,
      35.662472
     ],
     [
      139.7595633,
      35.6623323
     ],
     [
      139.7594753,
      35.6622083
     ],
     [
      139.7593975,
      35.6620623
     ],
     [
      139.7593385,
      35.6619316
     ],
     [
      139.7592768,
      35.6617834
     ],
     [
      139.7592366,
      35.6616265
     ],
     [
      139.7591749,
      35.6613279
     ],
     [
      139.7591212,
      35.660879
     ],
     [
      139.7590488,
      35.6604257
     ],
     [
      139.7590169,
      35.6603019
     ],
     [
      139.7589684,
      35.6601141
     ],
     [
      139.7588562,
      35.659635
     ],
     [
      139.7582334,
      35.6574401
     ],
     [
      139.7581825,
      35.6572788
     ],
     [
      139.7581154,
      35.6571459
     ],
     [
      139.7580296,
      35.6570129
     ],
     [
      139.7579303,
      35.6568931
     ],
     [
      139.7577909,
      35.6567754
     ],
     [
      139.7576541,
      35.6566926
     ],
     [
      139.7574958,
      35.6566141
     ],
     [
      139.7573081,
      35.6565618
     ],
     [
      139.7571203,
      35.6565313
     ],
     [
      139.7569272,
      35.6565139
     ],
     [
      139.7567394,
      35.6565291
     ],
     [
      139.7564552,
      35.6565561
     ],
     [
      139.7553828,
      35.6566579
     ],
     [
      139.7544949,
      35.6567494
     ],
     [
      139.7517588,
      35.6570499
     ],
     [
      139.7514468,
      35.6570776
     ],
     [
      139.7513133,
      35.6570849
     ],
     [
      139.751102,
      35.6570685
     ],
     [
      139.7509564,
      35.6570294
     ],
     [
      139.7507643,
      35.6569673
     ],
     [
      139.7506355,
      35.6569054
     ],
     [
      139.7504614,
      35.656769
     ],
     [
      139.7504024,
      35.6567108
     ],
     [
      139.7502027,
      35.6563697
     ]
    ]
   }
  },
  {
   "type": "Feature",
   "properties": {
    "kind": "track",
    "seq": 6,
    "role": "sub"
   },
   "geometry": {
    "type": "LineString",
    "coordinates": [
     [
      139.7502027,
      35.6563697
     ],
     [
      139.7500005,
      35.6547742
     ]
    ]
   }
  },
  {
   "type": "Feature",
   "properties": {
    "kind": "track",
    "seq": 7,
    "role": "main"
   },
   "geometry": {
    "type": "LineString",
    "coordinates": [
     [
      139.7499585,
      35.6546097
     ],
     [
      139.7498884,
      35.6544137
     ],
     [
      139.7498179,
      35.6543317
     ],
     [
      139.7496871,
      35.6541925
     ],
     [
      139.7495268,
      35.6540738
     ],
     [
      139.7493659,
      35.653987
     ],
     [
      139.7492427,
      35.6539291
     ],
     [
      139.7490522,
      35.6538815
     ],
     [
      139.7488551,
      35.6538692
     ],
     [
      139.7485078,
      35.6538758
     ],
     [
      139.7481643,
      35.6539655
     ],
     [
      139.7478716,
      35.6540393
     ],
     [
      139.7474909,
      35.6541426
     ],
     [
      139.7471649,
      35.654241
     ],
     [
      139.7468571,
      35.6543926
     ],
     [
      139.7460427,
      35.6547171
     ],
     [
      139.7457801,
      35.6548
     ],
     [
      139.7454599,
      35.6548659
     ],
     [
      139.7438912,
      35.654987
     ],
     [
      139.7421065,
      35.655153
     ],
     [
      139.7417325,
      35.6552041
     ],
     [
      139.7413735,
      35.6553031
     ],
     [
      139.7398072,
      35.6557216
     ],
     [
      139.7386551,
      35.6560101
     ],
     [
      139.7376247,
      35.656151
     ],
     [
      139.7367453,
      35.656318
     ],
     [
      139.7361199,
      35.6564518
     ],
     [
      139.7352449,
      35.656657
     ],
     [
      139.7348436,
      35.6567363
     ],
     [
      139.7339499,
      35.6569328
     ],
     [
      139.7335316,
      35.6570606
     ],
     [
      139.7332111,
      35.6572169
     ],
     [
      139.7329375,
      35.6574312
     ],
     [
      139.7327167,
      35.6576912
     ],
     [
      139.7325617,
      35.658003
     ],
     [
      139.7323855,
      35.6584438
     ],
     [
      139.732285,
      35.6587542
     ],
     [
      139.7322862,
      35.6591374
     ],
     [
      139.7323743,
      35.6594955
     ],
     [
      139.7325448,
      35.6600282
     ],
     [
      139.7328843,
      35.6613102
     ],
     [
      139.7328919,
      35.6616984
     ],
     [
      139.7328418,
      35.6620238
     ],
     [
      139.7323507,
      35.6630405
     ],
     [
      139.7321902,
      35.6633052
     ],
     [
      139.7319329,
      35.6635648
     ],
     [
      139.7310522,
      35.6643449
     ],
     [
      139.7291252,
      35.6657062
     ],
     [
      139.7281444,
      35.6663727
     ],
     [
      139.7278648,
      35.666616
     ],
     [
      139.7275314,
      35.6669737
     ],
     [
      139.7274172,
      35.6672024
     ],
     [
      139.7272368,
      35.6676403
     ],
     [
      139.7268472,
      35.6694165
     ],
     [
      139.7264922,
      35.6708572
     ],
     [
      139.7264123,
      35.6709686
     ],
     [
      139.726134,
      35.6711921
     ],
     [
      139.7258425,
      35.6713233
     ],
     [
      139.7254889,
      35.6714386
     ],
     [
      139.7251283,
      35.6715459
     ],
     [
      139.7247705,
      35.671666
     ],
     [
      139.7244856,
      35.6718718
     ],
     [
      139.7242933,
      35.6721246
     ],
     [
      139.7241489,
      35.6724063
     ],
     [
      139.7241011,
      35.6724479
     ],
     [
      139.7239642,
      35.6727324
     ],
     [
      139.7235925,
      35.6736372
     ],
     [
      139.7234875,
      35.673871
     ],
     [
      139.7233268,
      35.6740869
     ],
     [
      139.723064,
      35.6743162
     ],
     [
      139.7227827,
      35.674514
     ],
     [
      139.7221897,
      35.6749305
     ],
     [
      139.721978,
      35.6751453
     ],
     [
      139.7217536,
      35.6754192
     ],
     [
      139.7207603,
      35.6773938
     ],
     [
      139.7205538,
      35.6778012
     ],
     [
      139.720153,
      35.6783098
     ],
     [
      139.7198353,
      35.6785781
     ],
     [
      139.7196094,
      35.6787557
     ],
     [
      139.7193152,
      35.6789336
     ],
     [
      139.7189836,
      35.679103
     ],
     [
      139.7184908,
      35.67929
     ],
     [
      139.7179595,
      35.6794264
     ],
     [
      139.717425,
      35.6794962
     ],
     [
      139.7168238,
      35.6795019
     ],
     [
      139.7164607,
      35.6794898
     ],
     [
      139.7160757,
      35.6794917
     ],
     [
      139.7157277,
      35.6795448
     ],
     [
      139.7154586,
      35.6796119
     ],
     [
      139.7139227,
      35.6800624
     ],
     [
      139.7137,
      35.6801249
     ],
     [
      139.7134174,
      35.6802167
     ],
     [
      139.7130485,
      35.6803257
     ],
     [
      139.7126895,
      35.6804201
     ],
     [
      139.7119519,
      35.680602
     ],
     [
      139.7105344,
      35.6809577
     ],
     [
      139.7101774,
      35.6810422
     ],
     [
      139.7097591,
      35.6811364
     ],
     [
      139.7094538,
      35.6811901
     ],
     [
      139.7090793,
      35.6812229
     ],
     [
      139.7086711,
      35.6812281
     ],
     [
      139.7067936,
      35.6811369
     ],
     [
      139.7064547,
      35.6810922
     ],
     [
      139.706084,
      35.681
     ],
     [
      139.7057614,
      35.6808635
     ],
     [
      139.70544,
      35.6806893
     ],
     [
      139.705135,
      35.6805184
     ],
     [
      139.7048052,
      35.6803558
     ],
     [
      139.7044876,
      35.6802404
     ],
     [
      139.7041022,
      35.6801848
     ],
     [
      139.7036084,
      35.6802356
     ],
     [
      139.7032647,
      35.6803508
     ],
     [
      139.7029321,
      35.6804787
     ],
     [
      139.7026225,
      35.6806497
     ],
     [
      139.702367,
      35.6809005
     ],
     [
      139.7022716,
      35.6810926
     ],
     [
      139.7022347,
      35.6811953
     ],
     [
      139.7021761,
      35.6813789
     ],
     [
      139.702131,
      35.6814859
     ],
     [
      139.7019298,
      35.6820748
     ],
     [
      139.7017796,
      35.6825661
     ],
     [
      139.7017519,
      35.6826574
     ],
     [
      139.7016786,
      35.6829226
     ],
     [
      139.701526,
      35.6835456
     ],
     [
      139.701387,
      35.6841396
     ],
     [
      139.7011777,
      35.6848139
     ],
     [
      139.7010241,
      35.6852301
     ],
     [
      139.7008518,
      35.6854588
     ],
     [
      139.7003949,
      35.685875
     ],
     [
      139.6999045,
      35.6863346
     ],
     [
      139.6997374,
      35.6865395
     ],
     [
      139.6995272,
      35.6869077
     ],
     [
      139.699394,
      35.687295
     ],
     [
      139.6992536,
      35.687708
     ],
     [
      139.699227,
      35.6877916
     ],
     [
      139.6990884,
      35.6881954
     ],
     [
      139.6989598,
      35.6885578
     ],
     [
      139.6988391,
      35.6889116
     ],
     [
      139.6987402,
      35.6895137
     ]
    ]
   }
  },
  {
   "type": "Feature",
   "properties": {
    "kind": "track",
    "seq": 8,
    "role": "hybrid"
   },
   "geometry": {
    "type": "LineString",
    "coordinates": [
     [
      139.6987402,
      35.6895137
     ],
     [
      139.6986708,
      35.6900789
     ],
     [
      139.6986257,
      35.6903915
     ]
    ]
   }
  },
  {
   "type": "Feature",
   "properties": {
    "kind": "track",
    "seq": 9,
    "role": "main"
   },
   "geometry": {
    "type": "LineString",
    "coordinates": [
     [
      139.6986257,
      35.6903915
     ],
     [
      139.6985635,
      35.6905194
     ],
     [
      139.6984806,
      35.690684
     ],
     [
      139.6981751,
      35.6909653
     ],
     [
      139.6978432,
      35.6911253
     ],
     [
      139.6973813,
      35.6912239
     ],
     [
      139.6968859,
      35.691167
     ],
     [
      139.6967245,
      35.6911311
     ],
     [
      139.6962303,
      35.6910483
     ],
     [
      139.695691,
      35.6909589
     ],
     [
      139.6950465,
      35.6908654
     ],
     [
      139.6948855,
      35.6908453
     ],
     [
      139.6946896,
      35.690834
     ],
     [
      139.6944737,
      35.6908215
     ],
     [
      139.6940482,
      35.6907335
     ],
     [
      139.6938681,
      35.690705
     ],
     [
      139.6936974,
      35.690669
     ],
     [
      139.6932904,
      35.690569
     ],
     [
      139.692844,
      35.6904946
     ],
     [
      139.6920982,
      35.6903893
     ],
     [
      139.6910119,
      35.6902575
     ],
     [
      139.6900192,
      35.6900774
     ],
     [
      139.689164,
      35.6899218
     ],
     [
      139.6888152,
      35.6899122
     ],
     [
      139.6884983,
      35.6899561
     ],
     [
      139.6878704,
      35.6901052
     ],
     [
      139.6871952,
      35.690267
     ],
     [
      139.6868621,
      35.6903591
     ],
     [
      139.6864903,
      35.6904134
     ],
     [
      139.6862424,
      35.6904332
     ],
     [
      139.685885,
      35.6903918
     ],
     [
      139.68563,
      35.6903225
     ],
     [
      139.6848044,
      35.6899599
     ],
     [
      139.6840561,
      35.6896322
     ],
     [
      139.6835549,
      35.6894205
     ],
     [
      139.6830071,
      35.6893693
     ],
     [
      139.6826082,
      35.6894236
     ],
     [
      139.6823247,
      35.6895498
     ],
     [
      139.6821323,
      35.6896803
     ],
     [
      139.6819823,
      35.6898107
     ],
     [
      139.6818158,
      35.6900166
     ],
     [
      139.6817663,
      35.6901564
     ],
     [
      139.6816802,
      35.6904043
     ],
     [
      139.6816809,
      35.6906618
     ],
     [
      139.6817317,
      35.69108
     ],
     [
      139.6819384,
      35.6923143
     ],
     [
      139.6824489,
      35.6949927
     ],
     [
      139.6827597,
      35.6967931
     ],
     [
      139.6827918,
      35.6969082
     ],
     [
      139.6828614,
      35.6972801
     ],
     [
      139.6829266,
      35.6985498
     ],
     [
      139.682989,
      35.6999307
     ],
     [
      139.6829798,
      35.7001936
     ],
     [
      139.6829266,
      35.700552
     ],
     [
      139.682875,
      35.7007659
     ],
     [
      139.6827928,
      35.7010156
     ],
     [
      139.682538,
      35.701623
     ],
     [
      139.6824341,
      35.7019275
     ],
     [
      139.6823536,
      35.7022262
     ],
     [
      139.6823147,
      35.7025235
     ],
     [
      139.6823213,
      35.7028498
     ],
     [
      139.6823707,
      35.7034663
     ],
     [
      139.6825442,
      35.7048375
     ],
     [
      139.6826354,
      35.7056913
     ],
     [
      139.6826756,
      35.7059788
     ],
     [
      139.6827101,
      35.7062143
     ],
     [
      139.6828021,
      35.7065225
     ],
     [
      139.6829081,
      35.7067728
     ],
     [
      139.6831719,
      35.7073729
     ],
     [
      139.683434,
      35.7079502
     ],
     [
      139.6835633,
      35.7082373
     ],
     [
      139.6844819,
      35.7102463
     ],
     [
      139.6856652,
      35.7127633
     ],
     [
      139.6862846,
      35.7140663
     ],
     [
      139.6873042,
      35.7162389
     ],
     [
      139.6881024,
      35.7179491
     ],
     [
      139.6882192,
      35.7182201
     ],
     [
      139.6883391,
      35.7184943
     ],
     [
      139.6883675,
      35.7186314
     ],
     [
      139.6883791,
      35.718787
     ],
     [
      139.6883777,
      35.71893
     ],
     [
      139.6883763,
      35.719075
     ],
     [
      139.6883369,
      35.7192009
     ],
     [
      139.6882675,
      35.7193505
     ],
     [
      139.6881939,
      35.7194679
     ],
     [
      139.6880931,
      35.7196119
     ],
     [
      139.6880191,
      35.7197021
     ],
     [
      139.687905,
      35.7198117
     ],
     [
      139.6876319,
      35.720025
     ],
     [
      139.6869056,
      35.7205271
     ],
     [
      139.6862151,
      35.7210139
     ],
     [
      139.6844997,
      35.7222154
     ],
     [
      139.6842161,
      35.7224537
     ],
     [
      139.6837884,
      35.7228855
     ],
     [
      139.6835303,
      35.7231984
     ],
     [
      139.6833579,
      35.7234343
     ],
     [
      139.683188,
      35.7237405
     ],
     [
      139.683064,
      35.7239978
     ],
     [
      139.6827967,
      35.7245991
     ],
     [
      139.6825141,
      35.7251638
     ],
     [
      139.6819289,
      35.7262669
     ],
     [
      139.6817755,
      35.7265458
     ],
     [
      139.6816102,
      35.7268171
     ],
     [
      139.681516,
      35.7269284
     ],
     [
      139.6814058,
      35.7270674
     ],
     [
      139.6813079,
      35.7271819
     ],
     [
      139.6811806,
      35.727309
     ],
     [
      139.6810662,
      35.7274168
     ],
     [
      139.6809343,
      35.7275281
     ],
     [
      139.6806549,
      35.7277207
     ],
     [
      139.6800498,
      35.7280778
     ],
     [
      139.6794389,
      35.7284258
     ],
     [
      139.6785112,
      35.7289532
     ],
     [
      139.6782233,
      35.7291241
     ],
     [
      139.6776093,
      35.729441
     ],
     [
      139.6733943,
      35.7314651
     ],
     [
      139.6730891,
      35.7316013
     ],
     [
      139.6727316,
      35.7317432
     ],
     [
      139.672378,
      35.731865
     ],
     [
      139.6712258,
      35.7322739
     ],
     [
      139.6703967,
      35.7325652
     ],
     [
      139.66689,
      35.7338297
     ],
     [
      139.6665444,
      35.7339446
     ],
     [
      139.6662104,
      35.734039
     ],
     [
      139.6658688,
      35.7341187
     ],
     [
      139.6644031,
      35.7344222
     ],
     [
      139.66404,
      35.7345205
     ],
     [
      139.6636765,
      35.7346455
     ],
     [
      139.663343,
      35.7348051
     ],
     [
      139.6630122,
      35.7349857
     ],
     [
      139.6627957,
      35.7350977
     ],
     [
      139.6624988,
      35.7352782
     ],
     [
      139.6610192,
      35.7361703
     ],
     [
      139.6607153,
      35.7363563
     ],
     [
      139.6605635,
      35.7364521
     ],
     [
      139.6604032,
      35.7365386
     ],
     [
      139.6600902,
      35.7366908
     ],
     [
      139.6597485,
      35.7368237
     ],
     [
      139.6594035,
      35.736929
     ],
     [
      139.6586739,
      35.7370672
     ],
     [
      139.6574813,
      35.7372786
     ],
     [
      139.6567168,
      35.7374259
     ],
     [
      139.6563745,
      35.7374871
     ],
     [
      139.6561848,
      35.7375124
     ],
     [
      139.6559997,
      35.7375224
     ],
     [
      139.6558267,
      35.7375222
     ],
     [
      139.6556524,
      35.7375027
     ],
     [
      139.6554905,
      35.7374807
     ],
     [
      139.6551777,
      35.7374138
     ],
     [
      139.6545012,
      35.7372962
     ],
     [
      139.6539658,
      35.7372336
     ],
     [
      139.6530738,
      35.7370927
     ],
     [
      139.6523871,
      35.7370336
     ],
     [
      139.6519641,
      35.7370024
     ],
     [
      139.6517611,
      35.7369961
     ],
     [
      139.6515572,
      35.7370093
     ],
     [
      139.6513686,
      35.7370377
     ],
     [
      139.6511817,
      35.7370863
     ],
     [
      139.6510106,
      35.7371429
     ],
     [
      139.6508613,
      35.7372058
     ],
     [
      139.6505465,
      35.737384
     ],
     [
      139.6502807,
      35.7375769
     ],
     [
      139.649938,
      35.7378064
     ],
     [
      139.6496575,
      35.7380076
     ],
     [
      139.6495075,
      35.7381273
     ],
     [
      139.6493791,
      35.7382648
     ],
     [
      139.6492864,
      35.7383829
     ],
     [
      139.6491913,
      35.7385404
     ],
     [
      139.6491251,
      35.7386861
     ],
     [
      139.6490762,
      35.7388475
     ],
     [
      139.6490518,
      35.7389966
     ],
     [
      139.6490324,
      35.7391559
     ],
     [
      139.649027,
      35.7394591
     ],
     [
      139.6490052,
      35.7400669
     ],
     [
      139.6489975,
      35.7403704
     ],
     [
      139.6489785,
      35.7406995
     ],
     [
      139.6489977,
      35.7410642
     ],
     [
      139.6490286,
      35.7421728
     ],
     [
      139.6490833,
      35.7426396
     ],
     [
      139.6490705,
      35.7428275
     ],
     [
      139.6490552,
      35.7429362
     ],
     [
      139.6490071,
      35.7430861
     ],
     [
      139.6489484,
      35.7432228
     ],
     [
      139.648863,
      35.7433728
     ],
     [
      139.6485067,
      35.7439048
     ],
     [
      139.6483163,
      35.7442154
     ],
     [
      139.6481906,
      35.7444709
     ],
     [
      139.6480901,
      35.7447701
     ],
     [
      139.6480088,
      35.7450763
     ],
     [
      139.6479731,
      35.7453637
     ],
     [
      139.6479555,
      35.745682
     ],
     [
      139.6479586,
      35.7465943
     ],
     [
      139.6479544,
      35.7469081
     ],
     [
      139.6479043,
      35.747196
     ],
     [
      139.647833,
      35.7474923
     ],
     [
      139.6477266,
      35.7477712
     ],
     [
      139.6475799,
      35.7480611
     ],
     [
      139.6473985,
      35.748338
     ],
     [
      139.6472044,
      35.7485751
     ],
     [
      139.6469621,
      35.748821
     ],
     [
      139.6467049,
      35.7490358
     ],
     [
      139.6464522,
      35.7492131
     ],
     [
      139.6461331,
      35.7493916
     ],
     [
      139.6458089,
      35.7495444
     ],
     [
      139.645459,
      35.7496725
     ],
     [
      139.6446752,
      35.7499217
     ],
     [
      139.6433007,
      35.7503579
     ],
     [
      139.641915,
      35.7508311
     ],
     [
      139.6415691,
      35.7509494
     ],
     [
      139.641212,
      35.7510659
     ],
     [
      139.6409872,
      35.7511447
     ],
     [
      139.6403554,
      35.7513611
     ],
     [
      139.6378016,
      35.752298
     ],
     [
      139.6364182,
      35.7528119
     ],
     [
      139.6361112,
      35.7529421
     ],
     [
      139.635773,
      35.7531105
     ],
     [
      139.6354886,
      35.7533039
     ],
     [
      139.6351971,
      35.7535227
     ],
     [
      139.6349345,
      35.753754
     ],
     [
      139.6347228,
      35.7540117
     ],
     [
      139.6345269,
      35.7542734
     ],
     [
      139.6343541,
      35.7545753
     ],
     [
      139.6342225,
      35.754868
     ],
     [
      139.6341471,
      35.7551763
     ],
     [
      139.6340318,
      35.7557539
     ],
     [
      139.6339374,
      35.7560249
     ],
     [
      139.6337734,
      35.7564721
     ],
     [
      139.6335538,
      35.7568841
     ],
     [
      139.633364,
      35.7571349
     ],
     [
      139.6331356,
      35.7573735
     ],
     [
      139.6329227,
      35.7575568
     ],
     [
      139.6326685,
      35.7577574
     ],
     [
      139.6323505,
      35.7579505
     ],
     [
      139.6320832,
      35.7581011
     ],
     [
      139.63171,
      35.758245
     ],
     [
      139.6313969,
      35.7583427
     ],
     [
      139.6310462,
      35.7584197
     ],
     [
      139.6306799,
      35.7584714
     ],
     [
      139.6303217,
      35.7584994
     ],
     [
      139.6298243,
      35.7584951
     ],
     [
      139.6293713,
      35.7585032
     ],
     [
      139.6283088,
      35.7584864
     ]
    ]
   }
  },
  {
   "type": "Feature",
   "properties": {
    "kind": "station",
    "name": "都庁前"
   },
   "geometry": {
    "type": "Point",
    "coordinates": [
     139.692677,
     35.690607
    ]
   }
  },
  {
   "type": "Feature",
   "properties": {
    "kind": "station",
    "name": "新宿西口"
   },
   "geometry": {
    "type": "Point",
    "coordinates": [
     139.699121,
     35.693367
    ]
   }
  },
  {
   "type": "Feature",
   "properties": {
    "kind": "station",
    "name": "東新宿"
   },
   "geometry": {
    "type": "Point",
    "coordinates": [
     139.707434,
     35.697957
    ]
   }
  },
  {
   "type": "Feature",
   "properties": {
    "kind": "station",
    "name": "若松河田"
   },
   "geometry": {
    "type": "Point",
    "coordinates": [
     139.718043,
     35.699188
    ]
   }
  },
  {
   "type": "Feature",
   "properties": {
    "kind": "station",
    "name": "牛込柳町"
   },
   "geometry": {
    "type": "Point",
    "coordinates": [
     139.72504,
     35.699501
    ]
   }
  },
  {
   "type": "Feature",
   "properties": {
    "kind": "station",
    "name": "牛込神楽坂"
   },
   "geometry": {
    "type": "Point",
    "coordinates": [
     139.735894,
     35.700911
    ]
   }
  },
  {
   "type": "Feature",
   "properties": {
    "kind": "station",
    "name": "飯田橋"
   },
   "geometry": {
    "type": "Point",
    "coordinates": [
     139.745257,
     35.702952
    ]
   }
  },
  {
   "type": "Feature",
   "properties": {
    "kind": "station",
    "name": "春日"
   },
   "geometry": {
    "type": "Point",
    "coordinates": [
     139.752487,
     35.708493
    ]
   }
  },
  {
   "type": "Feature",
   "properties": {
    "kind": "station",
    "name": "本郷三丁目"
   },
   "geometry": {
    "type": "Point",
    "coordinates": [
     139.760524,
     35.70751
    ]
   }
  },
  {
   "type": "Feature",
   "properties": {
    "kind": "station",
    "name": "上野御徒町"
   },
   "geometry": {
    "type": "Point",
    "coordinates": [
     139.773351,
     35.707949
    ]
   }
  },
  {
   "type": "Feature",
   "properties": {
    "kind": "station",
    "name": "新御徒町"
   },
   "geometry": {
    "type": "Point",
    "coordinates": [
     139.782166,
     35.707009
    ]
   }
  },
  {
   "type": "Feature",
   "properties": {
    "kind": "station",
    "name": "蔵前"
   },
   "geometry": {
    "type": "Point",
    "coordinates": [
     139.792244,
     35.705587
    ]
   }
  },
  {
   "type": "Feature",
   "properties": {
    "kind": "station",
    "name": "両国"
   },
   "geometry": {
    "type": "Point",
    "coordinates": [
     139.797469,
     35.696807
    ]
   }
  },
  {
   "type": "Feature",
   "properties": {
    "kind": "station",
    "name": "森下"
   },
   "geometry": {
    "type": "Point",
    "coordinates": [
     139.798251,
     35.687926
    ]
   }
  },
  {
   "type": "Feature",
   "properties": {
    "kind": "station",
    "name": "清澄白河"
   },
   "geometry": {
    "type": "Point",
    "coordinates": [
     139.798758,
     35.682355
    ]
   }
  },
  {
   "type": "Feature",
   "properties": {
    "kind": "station",
    "name": "門前仲町"
   },
   "geometry": {
    "type": "Point",
    "coordinates": [
     139.795124,
     35.672772
    ]
   }
  },
  {
   "type": "Feature",
   "properties": {
    "kind": "station",
    "name": "月島"
   },
   "geometry": {
    "type": "Point",
    "coordinates": [
     139.783912,
     35.663757
    ]
   }
  },
  {
   "type": "Feature",
   "properties": {
    "kind": "station",
    "name": "勝どき"
   },
   "geometry": {
    "type": "Point",
    "coordinates": [
     139.777138,
     35.658934
    ]
   }
  },
  {
   "type": "Feature",
   "properties": {
    "kind": "station",
    "name": "築地市場"
   },
   "geometry": {
    "type": "Point",
    "coordinates": [
     139.766929,
     35.664919
    ]
   }
  },
  {
   "type": "Feature",
   "properties": {
    "kind": "station",
    "name": "汐留"
   },
   "geometry": {
    "type": "Point",
    "coordinates": [
     139.760225,
     35.663193
    ]
   }
  },
  {
   "type": "Feature",
   "properties": {
    "kind": "station",
    "name": "大門"
   },
   "geometry": {
    "type": "Point",
    "coordinates": [
     139.755696,
     35.656671
    ]
   }
  },
  {
   "type": "Feature",
   "properties": {
    "kind": "station",
    "name": "赤羽橋"
   },
   "geometry": {
    "type": "Point",
    "coordinates": [
     139.743989,
     35.654985
    ]
   }
  },
  {
   "type": "Feature",
   "properties": {
    "kind": "station",
    "name": "麻布十番"
   },
   "geometry": {
    "type": "Point",
    "coordinates": [
     139.73633,
     35.656448
    ]
   }
  },
  {
   "type": "Feature",
   "properties": {
    "kind": "station",
    "name": "六本木"
   },
   "geometry": {
    "type": "Point",
    "coordinates": [
     139.731354,
     35.664106
    ]
   }
  },
  {
   "type": "Feature",
   "properties": {
    "kind": "station",
    "name": "青山一丁目"
   },
   "geometry": {
    "type": "Point",
    "coordinates": [
     139.723925,
     35.673067
    ]
   }
  },
  {
   "type": "Feature",
   "properties": {
    "kind": "station",
    "name": "国立競技場"
   },
   "geometry": {
    "type": "Point",
    "coordinates": [
     139.714667,
     35.679896
    ]
   }
  },
  {
   "type": "Feature",
   "properties": {
    "kind": "station",
    "name": "代々木"
   },
   "geometry": {
    "type": "Point",
    "coordinates": [
     139.701603,
     35.683505
    ]
   }
  },
  {
   "type": "Feature",
   "properties": {
    "kind": "station",
    "name": "新宿"
   },
   "geometry": {
    "type": "Point",
    "coordinates": [
     139.699019,
     35.688462
    ]
   }
  },
  {
   "type": "Feature",
   "properties": {
    "kind": "station",
    "name": "西新宿五丁目"
   },
   "geometry": {
    "type": "Point",
    "coordinates": [
     139.684545,
     35.689892
    ]
   }
  },
  {
   "type": "Feature",
   "properties": {
    "kind": "station",
    "name": "中野坂上"
   },
   "geometry": {
    "type": "Point",
    "coordinates": [
     139.682899,
     35.697887
    ]
   }
  },
  {
   "type": "Feature",
   "properties": {
    "kind": "station",
    "name": "東中野"
   },
   "geometry": {
    "type": "Point",
    "coordinates": [
     139.683112,
     35.70716
    ]
   }
  },
  {
   "type": "Feature",
   "properties": {
    "kind": "station",
    "name": "中井"
   },
   "geometry": {
    "type": "Point",
    "coordinates": [
     139.686296,
     35.713935
    ]
   }
  },
  {
   "type": "Feature",
   "properties": {
    "kind": "station",
    "name": "落合南長崎"
   },
   "geometry": {
    "type": "Point",
    "coordinates": [
     139.683389,
     35.723435
    ]
   }
  },
  {
   "type": "Feature",
   "properties": {
    "kind": "station",
    "name": "新江古田"
   },
   "geometry": {
    "type": "Point",
    "coordinates": [
     139.670498,
     35.732579
    ]
   }
  },
  {
   "type": "Feature",
   "properties": {
    "kind": "station",
    "name": "練馬"
   },
   "geometry": {
    "type": "Point",
    "coordinates": [
     139.654762,
     35.737411
    ]
   }
  },
  {
   "type": "Feature",
   "properties": {
    "kind": "station",
    "name": "豊島園"
   },
   "geometry": {
    "type": "Point",
    "coordinates": [
     139.649116,
     35.741711
    ]
   }
  },
  {
   "type": "Feature",
   "properties": {
    "kind": "station",
    "name": "練馬春日町"
   },
   "geometry": {
    "type": "Point",
    "coordinates": [
     139.6403,
     35.75141
    ]
   }
  },
  {
   "type": "Feature",
   "properties": {
    "kind": "station",
    "name": "光が丘"
   },
   "geometry": {
    "type": "Point",
    "coordinates": [
     139.628901,
     35.758527
    ]
   }
  }
 ]
}
