{
 "type": "FeatureCollection",
 "metadata": {
  "line_id": "tokyo-metro.marunouchi",
  "source": {
   "name": "mini-tokyo-3d (4ad6ca6, 2026-06-03)",
   "url": "https://github.com/nagix/mini-tokyo-3d",
   "license": "MIT (c) Akihiko Kusanagi",
   "retrieved": "2026-06-03",
   "note": "国土数値情報 N02 へ到達できない環境向けのブートストラップ。extract-n02 で再抽出して差し替え可能。"
  }
 },
 "features": [
  {
   "type": "Feature",
   "properties": {
    "kind": "track",
    "seq": 0,
    "role": "main"
   },
   "geometry": {
    "type": "LineString",
    "coordinates": [
     [
      139.6189517,
      35.7042898
     ],
     [
      139.6199943,
      35.7043191
     ],
     [
      139.6204256,
      35.7043322
     ],
     [
      139.620607,
      35.7043427
     ],
     [
      139.6213271,
      35.7043823
     ],
     [
      139.6218067,
      35.7044124
     ],
     [
      139.6223517,
      35.7044236
     ],
     [
      139.6227293,
      35.7044332
     ],
     [
      139.6231069,
      35.704403
     ],
     [
      139.6232909,
      35.7043804
     ],
     [
      139.6234794,
      35.7043478
     ],
     [
      139.6238467,
      35.7042702
     ],
     [
      139.6242008,
      35.7041667
     ],
     [
      139.6245664,
      35.7040636
     ],
     [
      139.6249115,
      35.7039652
     ],
     [
      139.6252549,
      35.703864
     ],
     [
      139.6256116,
      35.7037714
     ],
     [
      139.6259831,
      35.7036777
     ],
     [
      139.6263561,
      35.7035899
     ],
     [
      139.6267126,
      35.7035074
     ],
     [
      139.6270667,
      35.7034254
     ],
     [
      139.627419,
      35.7033189
     ],
     [
      139.627755,
      35.703163
     ],
     [
      139.62804,
      35.702988
     ],
     [
      139.6283674,
      35.7027794
     ],
     [
      139.6292404,
      35.7022376
     ],
     [
      139.6298589,
      35.701895
     ],
     [
      139.6301727,
      35.7017349
     ],
     [
      139.6304986,
      35.7015857
     ],
     [
      139.6308492,
      35.7014332
     ],
     [
      139.6318384,
      35.7010117
     ],
     [
      139.63283,
      35.7005975
     ],
     [
      139.6341853,
      35.700025
     ],
     [
      139.6350694,
      35.6996753
     ],
     [
      139.6357198,
      35.6994156
     ],
     [
      139.6362828,
      35.6991973
     ],
     [
      139.6371449,
      35.6988582
     ],
     [
      139.6378076,
      35.6986081
     ],
     [
      139.6385179,
      35.6983857
     ],
     [
      139.6392259,
      35.6981938
     ],
     [
      139.6396877,
      35.6980661
     ],
     [
      139.6400674,
      35.6979744
     ],
     [
      139.6404328,
      35.6979128
     ],
     [
      139.6410487,
      35.6978485
     ],
     [
      139.6421367,
      35.6977771
     ],
     [
      139.6426534,
      35.697757
     ],
     [
      139.6432485,
      35.6977575
     ],
     [
      139.6440273,
      35.6977682
     ],
     [
      139.6447519,
      35.6977773
     ],
     [
      139.647367,
      35.6978189
     ],
     [
      139.647669,
      35.6978367
     ],
     [
      139.6486895,
      35.6978863
     ],
     [
      139.6490166,
      35.6979056
     ],
     [
      139.6496254,
      35.6979416
     ],
     [
      139.6504087,
      35.6979809
     ],
     [
      139.6507265,
      35.6979949
     ],
     [
      139.6511047,
      35.6980069
     ],
     [
      139.6514225,
      35.6980102
     ],
     [
      139.6518082,
      35.6980108
     ],
     [
      139.6521802,
      35.6980178
     ],
     [
      139.6525584,
      35.6980222
     ],
     [
      139.6529487,
      35.6980287
     ],
     [
      139.6533032,
      35.6980298
     ],
     [
      139.6536662,
      35.698033
     ],
     [
      139.6540765,
      35.6980374
     ],
     [
      139.6544317,
      35.6980411
     ],
     [
      139.6555585,
      35.6980516
     ],
     [
      139.6566804,
      35.6980609
     ],
     [
      139.6570578,
      35.6980646
     ],
     [
      139.657499,
      35.6980548
     ],
     [
      139.6578198,
      35.6980303
     ],
     [
      139.6581626,
      35.6979918
     ],
     [
      139.6588106,
      35.6979013
     ],
     [
      139.6596628,
      35.6977911
     ],
     [
      139.6600436,
      35.6977381
     ],
     [
      139.6611696,
      35.6975974
     ],
     [
      139.6618909,
      35.6975024
     ],
     [
      139.662264,
      35.69747
     ],
     [
      139.6626408,
      35.6974427
     ],
     [
      139.6645073,
      35.6974181
     ],
     [
      139.665252,
      35.6974133
     ],
     [
      139.6660271,
      35.6974057
     ],
     [
      139.6663785,
      35.6974003
     ],
     [
      139.6671378,
      35.6974266
     ],
     [
      139.6675305,
      35.6974427
     ],
     [
      139.6678993,
      35.6974602
     ],
     [
      139.6682614,
      35.6974667
     ],
     [
      139.6686417,
      35.697478
     ],
     [
      139.6697951,
      35.6975133
     ],
     [
      139.671546,
      35.697566
     ],
     [
      139.6730392,
      35.6976153
     ],
     [
      139.6734019,
      35.6976268
     ],
     [
      139.673764,
      35.6976399
     ],
     [
      139.6741341,
      35.6976519
     ],
     [
      139.674519,
      35.6976747
     ],
     [
      139.6748811,
      35.6976987
     ],
     [
      139.6752526,
      35.6977259
     ],
     [
      139.67562,
      35.6977357
     ],
     [
      139.6759969,
      35.6977335
     ],
     [
      139.676367,
      35.697727
     ],
     [
      139.6767385,
      35.6977128
     ],
     [
      139.677114,
      35.6976856
     ],
     [
      139.6774761,
      35.697654
     ],
     [
      139.6796698,
      35.6974087
     ],
     [
      139.6800659,
      35.6973721
     ],
     [
      139.6803448,
      35.6973491
     ],
     [
      139.6819279,
      35.6971813
     ],
     [
      139.6826997,
      35.6970727
     ],
     [
      139.683045,
      35.696994
     ],
     [
      139.6840448,
      35.6967718
     ],
     [
      139.684155,
      35.6967566
     ],
     [
      139.6847118,
      35.6966707
     ],
     [
      139.6856005,
      35.6965687
     ],
     [
      139.6864432,
      35.6963948
     ],
     [
      139.6868551,
      35.6962745
     ],
     [
      139.687279,
      35.6961582
     ],
     [
      139.6877617,
      35.6960164
     ],
     [
      139.6894812,
      35.6955353
     ],
     [
      139.6909997,
      35.6951061
     ],
     [
      139.6919622,
      35.6947464
     ],
     [
      139.6924502,
      35.6945615
     ],
     [
      139.692792,
      35.6944429
     ],
     [
      139.6932223,
      35.6942753
     ],
     [
      139.6940171,
      35.6940195
     ],
     [
      139.695105,
      35.6937108
     ],
     [
      139.6962405,
      35.6933829
     ],
     [
      139.6968786,
      35.6932165
     ],
     [
      139.6970597,
      35.6931524
     ],
     [
      139.6972186,
      35.6930556
     ],
     [
      139.6974717,
      35.6928954
     ],
     [
      139.6977927,
      35.692622
     ],
     [
      139.697985,
      35.6924719
     ],
     [
      139.6982987,
      35.6923058
     ],
     [
      139.698484,
      35.6922241
     ],
     [
      139.6987234,
      35.6921775
     ],
     [
      139.6989158,
      35.6921698
     ],
     [
      139.6993804,
      35.6921832
     ],
     [
      139.6998342,
      35.6922263
     ],
     [
      139.7005961,
      35.6922842
     ],
     [
      139.7012262,
      35.6923267
     ],
     [
      139.7015215,
      35.6923106
     ],
     [
      139.7016656,
      35.6922954
     ],
     [
      139.7018748,
      35.6922453
     ],
     [
      139.7020116,
      35.6921952
     ],
     [
      139.7022343,
      35.6921059
     ],
     [
      139.7028565,
      35.691827
     ],
     [
      139.70343,
      35.6915735
     ],
     [
      139.7041282,
      35.6912513
     ],
     [
      139.7046062,
      35.6910333
     ],
     [
      139.7047815,
      35.6909444
     ],
     [
      139.7051069,
      35.6907781
     ],
     [
      139.7054248,
      35.69063
     ],
     [
      139.7060899,
      35.6903294
     ],
     [
      139.7076499,
      35.689624
     ],
     [
      139.7087474,
      35.6891264
     ],
     [
      139.7089666,
      35.6890386
     ],
     [
      139.7090819,
      35.6889929
     ],
     [
      139.7092934,
      35.6889221
     ],
     [
      139.7094349,
      35.6888797
     ],
     [
      139.7096741,
      35.6888223
     ],
     [
      139.709897,
      35.6887702
     ],
     [
      139.7107442,
      35.6885916
     ],
     [
      139.7115914,
      35.688413
     ],
     [
      139.7143919,
      35.6878201
     ],
     [
      139.7151451,
      35.6876716
     ],
     [
      139.7154692,
      35.6876231
     ],
     [
      139.7158559,
      35.6875924
     ],
     [
      139.7162306,
      35.6875915
     ],
     [
      139.7165988,
      35.6876117
     ],
     [
      139.7169632,
      35.6876511
     ],
     [
      139.7173311,
      35.6876879
     ],
     [
      139.7177047,
      35.6877234
     ],
     [
      139.7180834,
      35.6877631
     ],
     [
      139.7184496,
      35.6877991
     ],
     [
      139.7188412,
      35.6878383
     ],
     [
      139.7197322,
      35.6879296
     ],
     [
      139.7205725,
      35.6880109
     ],
     [
      139.7215765,
      35.6880999
     ],
     [
      139.7219423,
      35.6881125
     ],
     [
      139.7223143,
      35.688103
     ],
     [
      139.7226796,
      35.6880766
     ],
     [
      139.7230407,
      35.688014
     ],
     [
      139.7234076,
      35.6879341
     ],
     [
      139.7237657,
      35.6878383
     ],
     [
      139.7241087,
      35.6877285
     ],
     [
      139.7248068,
      35.6874858
     ],
     [
      139.7251479,
      35.6873523
     ],
     [
      139.7258227,
      35.6870766
     ],
     [
      139.7264975,
      35.6868165
     ],
     [
      139.7271842,
      35.6865845
     ],
     [
      139.7285999,
      35.6861653
     ],
     [
      139.7289517,
      35.686054
     ],
     [
      139.7292786,
      35.6858928
     ],
     [
      139.7293689,
      35.6858213
     ],
     [
      139.7295362,
      35.6856905
     ],
     [
      139.7296205,
      35.685601
     ],
     [
      139.7298048,
      35.6853558
     ],
     [
      139.7298534,
      35.6852624
     ],
     [
      139.7298771,
      35.6852081
     ],
     [
      139.7299541,
      35.6849445
     ],
     [
      139.7299774,
      35.6846783
     ],
     [
      139.7300318,
      35.6831608
     ],
     [
      139.7300331,
      35.6829528
     ],
     [
      139.7300735,
      35.6826984
     ],
     [
      139.7301036,
      35.6825799
     ],
     [
      139.7303231,
      35.6820691
     ],
     [
      139.7304618,
      35.6818166
     ],
     [
      139.7306174,
      35.6815378
     ],
     [
      139.7308296,
      35.6813072
     ],
     [
      139.7310749,
      35.6810756
     ],
     [
      139.7313694,
      35.6808742
     ],
     [
      139.7316474,
      35.6806794
     ],
     [
      139.7319236,
      35.6804702
     ],
     [
      139.7321487,
      35.6802302
     ],
     [
      139.7323378,
      35.6799611
     ],
     [
      139.7325337,
      35.6796213
     ],
     [
      139.7328116,
      35.679319
     ],
     [
      139.7330444,
      35.6791368
     ],
     [
      139.7333576,
      35.6789659
     ],
     [
      139.7336816,
      35.6788402
     ],
     [
      139.7340295,
      35.678763
     ],
     [
      139.7344187,
      35.6787305
     ],
     [
      139.7348215,
      35.6787085
     ],
     [
      139.7351647,
      35.6786873
     ],
     [
      139.7355515,
      35.6786311
     ],
     [
      139.7358843,
      35.678531
     ],
     [
      139.7362389,
      35.678356
     ],
     [
      139.7364516,
      35.6782339
     ],
     [
      139.7365452,
      35.6781433
     ],
     [
      139.7366663,
      35.6780261
     ],
     [
      139.7367847,
      35.6778732
     ],
     [
      139.7368908,
      35.6777303
     ],
     [
      139.7369577,
      35.6776183
     ],
     [
      139.7370046,
      35.6774623
     ],
     [
      139.7370532,
      35.6773182
     ],
     [
      139.7371852,
      35.6770378
     ],
     [
      139.7373274,
      35.6767685
     ],
     [
      139.7374476,
      35.6765568
     ],
     [
      139.7376028,
      35.6763504
     ],
     [
      139.7377483,
      35.676145
     ],
     [
      139.7378727,
      35.6759705
     ],
     [
      139.7382349,
      35.6753631
     ],
     [
      139.7384515,
      35.6749315
     ],
     [
      139.7385313,
      35.6747781
     ],
     [
      139.7386104,
      35.6746452
     ],
     [
      139.7387096,
      35.6745205
     ],
     [
      139.7389548,
      35.674297
     ],
     [
      139.739272,
      35.6741223
     ],
     [
      139.7395953,
      35.6739933
     ],
     [
      139.7399584,
      35.6738678
     ],
     [
      139.7403263,
      35.6737256
     ],
     [
      139.7406469,
      35.6736223
     ],
     [
      139.7408782,
      35.6735696
     ],
     [
      139.7413905,
      35.673532
     ],
     [
      139.7417191,
      35.6735656
     ],
     [
      139.7421345,
      35.6736323
     ],
     [
      139.7426158,
      35.6737203
     ],
     [
      139.7432318,
      35.6738096
     ],
     [
      139.7436208,
      35.6738728
     ],
     [
      139.7439935,
      35.6739341
     ],
     [
      139.7443341,
      35.6739802
     ],
     [
      139.7446835,
      35.6740723
     ],
     [
      139.7449907,
      35.6742078
     ],
     [
      139.745159,
      35.6742896
     ],
     [
      139.7455408,
      35.674555
     ],
     [
      139.7458442,
      35.6748352
     ],
     [
      139.746044,
      35.6750585
     ],
     [
      139.7463029,
      35.6753248
     ],
     [
      139.746551,
      35.6755717
     ],
     [
      139.7468634,
      35.6757504
     ],
     [
      139.74721,
      35.6758891
     ],
     [
      139.747567,
      35.6759681
     ],
     [
      139.7479355,
      35.6759725
     ],
     [
      139.7483292,
      35.6759304
     ],
     [
      139.7503638,
      35.6751681
     ],
     [
      139.751206,
      35.6749012
     ],
     [
      139.7516831,
      35.6747299
     ],
     [
      139.7518905,
      35.6746454
     ],
     [
      139.7529086,
      35.6742116
     ],
     [
      139.7531591,
      35.6741094
     ],
     [
      139.7537615,
      35.6738649
     ],
     [
      139.754245,
      35.6737007
     ],
     [
      139.7551757,
      35.6734958
     ],
     [
      139.7562942,
      35.6733695
     ],
     [
      139.7567609,
      35.6733194
     ],
     [
      139.757174,
      35.6732387
     ],
     [
      139.757866,
      35.6730165
     ],
     [
      139.7594525,
      35.6724075
     ],
     [
      139.7595946,
      35.6723617
     ],
     [
      139.7597972,
      35.6723181
     ],
     [
      139.7599567,
      35.6722909
     ],
     [
      139.7602156,
      35.67228
     ],
     [
      139.7605699,
      35.6723051
     ],
     [
      139.7607345,
      35.6723344
     ],
     [
      139.7609974,
      35.6724042
     ],
     [
      139.7613582,
      35.6725034
     ],
     [
      139.7618115,
      35.6726232
     ],
     [
      139.7624593,
      35.6727688
     ],
     [
      139.7630946,
      35.6728947
     ],
     [
      139.7634469,
      35.6729601
     ],
     [
      139.7637586,
      35.6730427
     ],
     [
      139.7641577,
      35.6732005
     ],
     [
      139.7644079,
      35.6734131
     ],
     [
      139.7645933,
      35.6736658
     ],
     [
      139.7647566,
      35.67396
     ],
     [
      139.7650069,
      35.6745064
     ],
     [
      139.7650436,
      35.674838
     ],
     [
      139.7649925,
      35.6751833
     ],
     [
      139.7648936,
      35.6754679
     ],
     [
      139.7647458,
      35.6759275
     ],
     [
      139.7646224,
      35.6763175
     ],
     [
      139.7646098,
      35.6766172
     ],
     [
      139.7646868,
      35.6769101
     ],
     [
      139.7648232,
      35.677218
     ],
     [
      139.7649284,
      35.677504
     ],
     [
      139.7650804,
      35.6777944
     ],
     [
      139.7651857,
      35.6780736
     ],
     [
      139.7653025,
      35.6783544
     ],
     [
      139.7654137,
      35.6786488
     ],
     [
      139.7655371,
      35.6789364
     ],
     [
      139.7655991,
      35.6792387
     ],
     [
      139.7655941,
      35.6795441
     ],
     [
      139.7655026,
      35.6798344
     ],
     [
      139.7653295,
      35.680118
     ],
     [
      139.7651501,
      35.6803909
     ],
     [
      139.7649814,
      35.6806458
     ],
     [
      139.7648588,
      35.6809133
     ],
     [
      139.7648163,
      35.6811352
     ],
     [
      139.7648142,
      35.6814483
     ],
     [
      139.764889,
      35.6820503
     ],
     [
      139.764947,
      35.6824928
     ],
     [
      139.7650495,
      35.6828227
     ],
     [
      139.7651294,
      35.683041
     ],
     [
      139.7652219,
      35.6833362
     ],
     [
      139.765384,
      35.6837887
     ],
     [
      139.7657624,
      35.6850563
     ],
     [
      139.7660504,
      35.6861259
     ],
     [
      139.7662001,
      35.6867945
     ],
     [
      139.7664061,
      35.6876095
     ],
     [
      139.7664276,
      35.6886007
     ],
     [
      139.7664812,
      35.6889471
     ],
     [
      139.7665,
      35.6890909
     ],
     [
      139.7666234,
      35.689348
     ],
     [
      139.7667564,
      35.6896332
     ],
     [
      139.766964,
      35.6900647
     ],
     [
      139.7670311,
      35.6902999
     ],
     [
      139.7673866,
      35.6919892
     ],
     [
      139.7674334,
      35.6925807
     ],
     [
      139.7674374,
      35.694172
     ],
     [
      139.767457,
      35.6951289
     ],
     [
      139.7674455,
      35.6956446
     ],
     [
      139.7675115,
      35.696207
     ],
     [
      139.7676507,
      35.6968568
     ],
     [
      139.7676292,
      35.6974515
     ],
     [
      139.7675313,
      35.6977314
     ],
     [
      139.7674079,
      35.6980134
     ],
     [
      139.7672912,
      35.6983097
     ],
     [
      139.7671384,
      35.6985798
     ],
     [
      139.7669711,
      35.6988532
     ],
     [
      139.7664846,
      35.6993673
     ],
     [
      139.766421,
      35.6994338
     ],
     [
      139.7663087,
      35.6995509
     ],
     [
      139.7662101,
      35.6996461
     ],
     [
      139.7661407,
      35.6997024
     ],
     [
      139.7660303,
      35.6997872
     ],
     [
      139.7659524,
      35.6998396
     ],
     [
      139.7657079,
      35.6999754
     ],
     [
      139.7653238,
      35.7001062
     ],
     [
      139.7645205,
      35.7003801
     ],
     [
      139.7640727,
      35.7005574
     ],
     [
      139.7635727,
      35.7007927
     ],
     [
      139.7632061,
      35.7009886
     ],
     [
      139.7628837,
      35.7012058
     ],
     [
      139.7626323,
      35.7013998
     ],
     [
      139.7624399,
      35.7015749
     ],
     [
      139.7622353,
      35.7017923
     ],
     [
      139.7620502,
      35.702152
     ],
     [
      139.7619662,
      35.7024834
     ],
     [
      139.7618517,
      35.7033826
     ],
     [
      139.7618032,
      35.7036613
     ],
     [
      139.7617211,
      35.7039411
     ],
     [
      139.7616174,
      35.7042098
     ],
     [
      139.7614391,
      35.704528
     ],
     [
      139.761152,
      35.7051045
     ],
     [
      139.7610101,
      35.7053604
     ],
     [
      139.760872,
      35.7056303
     ],
     [
      139.760745,
      35.7058316
     ],
     [
      139.7606451,
      35.7059418
     ],
     [
      139.7605116,
      35.7061143
     ],
     [
      139.7601008,
      35.7064853
     ],
     [
      139.759925,
      35.7066339
     ],
     [
      139.7598682,
      35.7066863
     ],
     [
      139.7594906,
      35.7069793
     ],
     [
      139.7592936,
      35.7070758
     ],
     [
      139.7590979,
      35.7071763
     ],
     [
      139.7589718,
      35.7072257
     ],
     [
      139.7587913,
      35.7072941
     ],
     [
      139.7583651,
      35.707317
     ],
     [
      139.7583125,
      35.7073167
     ],
     [
      139.7575756,
      35.7072972
     ],
     [
      139.7568631,
      35.7072697
     ],
     [
      139.7565202,
      35.7072618
     ],
     [
      139.7562106,
      35.7072823
     ],
     [
      139.7558969,
      35.7072949
     ],
     [
      139.7556696,
      35.7073007
     ],
     [
      139.7550591,
      35.7073296
     ],
     [
      139.7541778,
      35.7073298
     ],
     [
      139.7517035,
      35.7073305
     ],
     [
      139.7512238,
      35.7073204
     ],
     [
      139.7510644,
      35.7073168
     ],
     [
      139.7506051,
      35.707293
     ],
     [
      139.7503918,
      35.7072736
     ],
     [
      139.7496264,
      35.7072039
     ],
     [
      139.7493416,
      35.7071888
     ],
     [
      139.7491917,
      35.7071848
     ],
     [
      139.7490125,
      35.7071883
     ],
     [
      139.7488322,
      35.7072024
     ],
     [
      139.7486332,
      35.7072312
     ],
     [
      139.7484696,
      35.707266
     ],
     [
      139.7482964,
      35.7072987
     ],
     [
      139.7480747,
      35.7073701
     ],
     [
      139.7479437,
      35.7074142
     ],
     [
      139.7474858,
      35.7076406
     ],
     [
      139.7469816,
      35.7079957
     ],
     [
      139.7460106,
      35.7086839
     ],
     [
      139.7453642,
      35.7090824
     ],
     [
      139.7445836,
      35.7095387
     ],
     [
      139.7440677,
      35.7098686
     ],
     [
      139.7435473,
      35.7102494
     ],
     [
      139.7432079,
      35.7105025
     ],
     [
      139.7413997,
      35.7118956
     ],
     [
      139.7409651,
      35.7122645
     ],
     [
      139.7395876,
      35.7136682
     ],
     [
      139.7395043,
      35.7137552
     ],
     [
      139.7393837,
      35.713896
     ],
     [
      139.7392679,
      35.7140362
     ],
     [
      139.7391319,
      35.7142248
     ],
     [
      139.7389735,
      35.7144774
     ],
     [
      139.7382931,
      35.7156201
     ],
     [
      139.7381719,
      35.7158186
     ],
     [
      139.7380554,
      35.7159795
     ],
     [
      139.7379945,
      35.7160616
     ],
     [
      139.7379525,
      35.7161184
     ],
     [
      139.7378433,
      35.7162506
     ],
     [
      139.737682,
      35.7164289
     ],
     [
      139.7375547,
      35.7165595
     ],
     [
      139.73718,
      35.7169385
     ],
     [
      139.7369206,
      35.7171817
     ],
     [
      139.7367344,
      35.7173608
     ],
     [
      139.7365294,
      35.7175633
     ],
     [
      139.7364986,
      35.7175951
     ],
     [
      139.7359326,
      35.7181749
     ],
     [
      139.735636,
      35.718459
     ],
     [
      139.7352383,
      35.7187471
     ],
     [
      139.735082,
      35.7188565
     ],
     [
      139.7349623,
      35.7189638
     ],
     [
      139.7348438,
      35.7191646
     ],
     [
      139.734735,
      35.7194455
     ],
     [
      139.7342374,
      35.7208413
     ],
     [
      139.7340488,
      35.7213893
     ],
     [
      139.7339625,
      35.7216402
     ],
     [
      139.7335762,
      35.7223947
     ],
     [
      139.7330308,
      35.7232624
     ],
     [
      139.732583,
      35.723766
     ],
     [
      139.7318921,
      35.7243542
     ],
     [
      139.7314307,
      35.7246835
     ],
     [
      139.730531,
      35.7253564
     ],
     [
      139.7302514,
      35.72554
     ],
     [
      139.7299109,
      35.7257664
     ],
     [
      139.7264621,
      35.7280531
     ],
     [
      139.7255684,
      35.7286386
     ],
     [
      139.7251699,
      35.7289061
     ],
     [
      139.724734,
      35.7291942
     ],
     [
      139.7244129,
      35.7293736
     ],
     [
      139.7241023,
      35.7295284
     ],
     [
      139.7237711,
      35.7296667
     ],
     [
      139.7234322,
      35.729794
     ],
     [
      139.7227281,
      35.7299889
     ],
     [
      139.7216526,
      35.7302821
     ],
     [
      139.7209441,
      35.7304727
     ],
     [
      139.7202049,
      35.7306601
     ],
     [
      139.7198858,
      35.7307214
     ],
     [
      139.7195393,
      35.7307546
     ],
     [
      139.7191349,
      35.7307654
     ],
     [
      139.7187572,
      35.7307507
     ],
     [
      139.7184048,
      35.7307062
     ],
     [
      139.7180348,
      35.7306341
     ],
     [
      139.7159251,
      35.7300063
     ],
     [
      139.7146703,
      35.7296336
     ],
     [
      139.7143331,
      35.7295603
     ],
     [
      139.7141647,
      35.7295371
     ],
     [
      139.7140686,
      35.7295313
     ],
     [
      139.7139503,
      35.7295269
     ],
     [
      139.7138268,
      35.7295303
     ],
     [
      139.7137027,
      35.7295397
     ],
     [
      139.7136015,
      35.7295524
     ],
     [
      139.7133919,
      35.7295904
     ],
     [
      139.7132115,
      35.7296385
     ],
     [
      139.7130267,
      35.7296929
     ],
     [
      139.7127154,
      35.7297877
     ]
    ]
   }
  },
  {
   "type": "Feature",
   "properties": {
    "kind": "track",
    "seq": 1,
    "role": "sub"
   },
   "geometry": {
    "type": "LineString",
    "coordinates": [
     [
      139.7127154,
      35.7297877
     ],
     [
      139.7122952,
      35.7299007
     ],
     [
      139.7117323,
      35.7300791
     ],
     [
      139.7109112,
      35.7303725
     ]
    ]
   }
  },
  {
   "type": "Feature",
   "properties": {
    "kind": "station",
    "name": "荻窪"
   },
   "geometry": {
    "type": "Point",
    "coordinates": [
     139.61976,
     35.704175
    ]
   }
  },
  {
   "type": "Feature",
   "properties": {
    "kind": "station",
    "name": "南阿佐ケ谷"
   },
   "geometry": {
    "type": "Point",
    "coordinates": [
     139.635575,
     35.699455
    ]
   }
  },
  {
   "type": "Feature",
   "properties": {
    "kind": "station",
    "name": "新高円寺"
   },
   "geometry": {
    "type": "Point",
    "coordinates": [
     139.64851,
     35.69786
    ]
   }
  },
  {
   "type": "Feature",
   "properties": {
    "kind": "station",
    "name": "東高円寺"
   },
   "geometry": {
    "type": "Point",
    "coordinates": [
     139.658295,
     35.697965
    ]
   }
  },
  {
   "type": "Feature",
   "properties": {
    "kind": "station",
    "name": "新中野"
   },
   "geometry": {
    "type": "Point",
    "coordinates": [
     139.66951,
     35.697475
    ]
   }
  },
  {
   "type": "Feature",
   "properties": {
    "kind": "station",
    "name": "中野坂上"
   },
   "geometry": {
    "type": "Point",
    "coordinates": [
     139.682205,
     35.697085
    ]
   }
  },
  {
   "type": "Feature",
   "properties": {
    "kind": "station",
    "name": "西新宿"
   },
   "geometry": {
    "type": "Point",
    "coordinates": [
     139.69256,
     35.694515
    ]
   }
  },
  {
   "type": "Feature",
   "properties": {
    "kind": "station",
    "name": "新宿"
   },
   "geometry": {
    "type": "Point",
    "coordinates": [
     139.700548,
     35.692452
    ]
   }
  },
  {
   "type": "Feature",
   "properties": {
    "kind": "station",
    "name": "新宿三丁目"
   },
   "geometry": {
    "type": "Point",
    "coordinates": [
     139.70421,
     35.69118
    ]
   }
  },
  {
   "type": "Feature",
   "properties": {
    "kind": "station",
    "name": "新宿御苑前"
   },
   "geometry": {
    "type": "Point",
    "coordinates": [
     139.710915,
     35.688525
    ]
   }
  },
  {
   "type": "Feature",
   "properties": {
    "kind": "station",
    "name": "四谷三丁目"
   },
   "geometry": {
    "type": "Point",
    "coordinates": [
     139.7205672,
     35.6879717
    ]
   }
  },
  {
   "type": "Feature",
   "properties": {
    "kind": "station",
    "name": "四ツ谷"
   },
   "geometry": {
    "type": "Point",
    "coordinates": [
     139.7299697,
     35.6845484
    ]
   }
  },
  {
   "type": "Feature",
   "properties": {
    "kind": "station",
    "name": "赤坂見附"
   },
   "geometry": {
    "type": "Point",
    "coordinates": [
     139.737347,
     35.676845
    ]
   }
  },
  {
   "type": "Feature",
   "properties": {
    "kind": "station",
    "name": "国会議事堂前"
   },
   "geometry": {
    "type": "Point",
    "coordinates": [
     139.745568,
     35.6745352
    ]
   }
  },
  {
   "type": "Feature",
   "properties": {
    "kind": "station",
    "name": "霞ケ関"
   },
   "geometry": {
    "type": "Point",
    "coordinates": [
     139.75268,
     35.674235
    ]
   }
  },
  {
   "type": "Feature",
   "properties": {
    "kind": "station",
    "name": "銀座"
   },
   "geometry": {
    "type": "Point",
    "coordinates": [
     139.7631812,
     35.6728944
    ]
   }
  },
  {
   "type": "Feature",
   "properties": {
    "kind": "station",
    "name": "東京"
   },
   "geometry": {
    "type": "Point",
    "coordinates": [
     139.7648,
     35.681935
    ]
   }
  },
  {
   "type": "Feature",
   "properties": {
    "kind": "station",
    "name": "大手町"
   },
   "geometry": {
    "type": "Point",
    "coordinates": [
     139.766203,
     35.686875
    ]
   }
  },
  {
   "type": "Feature",
   "properties": {
    "kind": "station",
    "name": "淡路町"
   },
   "geometry": {
    "type": "Point",
    "coordinates": [
     139.767455,
     35.69487
    ]
   }
  },
  {
   "type": "Feature",
   "properties": {
    "kind": "station",
    "name": "御茶ノ水"
   },
   "geometry": {
    "type": "Point",
    "coordinates": [
     139.7640257,
     35.7005663
    ]
   }
  },
  {
   "type": "Feature",
   "properties": {
    "kind": "station",
    "name": "本郷三丁目"
   },
   "geometry": {
    "type": "Point",
    "coordinates": [
     139.760154,
     35.706726
    ]
   }
  },
  {
   "type": "Feature",
   "properties": {
    "kind": "station",
    "name": "後楽園"
   },
   "geometry": {
    "type": "Point",
    "coordinates": [
     139.7512504,
     35.7073394
    ]
   }
  },
  {
   "type": "Feature",
   "properties": {
    "kind": "station",
    "name": "茗荷谷"
   },
   "geometry": {
    "type": "Point",
    "coordinates": [
     139.736895,
     35.7172
    ]
   }
  },
  {
   "type": "Feature",
   "properties": {
    "kind": "station",
    "name": "新大塚"
   },
   "geometry": {
    "type": "Point",
    "coordinates": [
     139.7299314,
     35.7257925
    ]
   }
  },
  {
   "type": "Feature",
   "properties": {
    "kind": "station",
    "name": "池袋"
   },
   "geometry": {
    "type": "Point",
    "coordinates": [
     139.71115,
     35.730345
    ]
   }
  }
 ]
}
