{
 "type": "FeatureCollection",
 "metadata": {
  "line_id": "tokyo-metro.yurakucho",
  "source": {
   "name": "mini-tokyo-3d (4ad6ca6, 2026-06-03)",
   "url": "https://github.com/nagix/mini-tokyo-3d",
   "license": "MIT (c) Akihiko Kusanagi",
   "retrieved": "2026-06-03",
   "note": "国土数値情報 N02 へ到達できない環境向けのブートストラップ。extract-n02 で再抽出して差し替え可能。"
  }
 },
 "features": [
  {
   "type": "Feature",
   "properties": {
    "kind": "track",
    "seq": 0,
    "role": "sub"
   },
   "geometry": {
    "type": "LineString",
    "coordinates": [
     [
      139.6117478,
      35.7888071
     ],
     [
      139.6125592,
      35.7884719
     ],
     [
      139.6148268,
      35.7875377
     ],
     [
      139.6158769,
      35.7871102
     ],
     [
      139.617022,
      35.7866479
     ],
     [
      139.6176909,
      35.7863684
     ],
     [
      139.6185255,
      35.7860539
     ],
     [
      139.6192524,
      35.785788
     ],
     [
      139.6208602,
      35.7851484
     ],
     [
      139.6216042,
      35.7848429
     ],
     [
      139.6220067,
      35.7846679
     ],
     [
      139.6222072,
      35.7845761
     ],
     [
      139.6224699,
      35.7844494
     ],
     [
      139.622758,
      35.7843021
     ],
     [
      139.6231074,
      35.7841134
     ],
     [
      139.6234777,
      35.7838944
     ],
     [
      139.6238797,
      35.7836465
     ],
     [
      139.6242563,
      35.7833962
     ],
     [
      139.624984,
      35.7828936
     ],
     [
      139.6257321,
      35.7823659
     ],
     [
      139.6260842,
      35.7821353
     ],
     [
      139.6267273,
      35.7816869
     ],
     [
      139.6274345,
      35.7812165
     ]
    ]
   }
  },
  {
   "type": "Feature",
   "properties": {
    "kind": "track",
    "seq": 1,
    "role": "sub"
   },
   "geometry": {
    "type": "LineString",
    "coordinates": [
     [
      139.6274345,
      35.7812165
     ],
     [
      139.6278774,
      35.7809179
     ],
     [
      139.6281361,
      35.7806997
     ],
     [
      139.6283484,
      35.7804414
     ],
     [
      139.6285028,
      35.7801597
     ],
     [
      139.6285967,
      35.7798716
     ],
     [
      139.6286436,
      35.7795652
     ],
     [
      139.6286607,
      35.7792643
     ],
     [
      139.6286909,
      35.7788164
     ],
     [
      139.6287203,
      35.7786489
     ],
     [
      139.6288335,
      35.7783572
     ],
     [
      139.6288832,
      35.7782545
     ],
     [
      139.6290812,
      35.7779727
     ],
     [
      139.6292863,
      35.7777691
     ],
     [
      139.6295531,
      35.7775728
     ],
     [
      139.6298326,
      35.7774168
     ],
     [
      139.6304202,
      35.777155
     ],
     [
      139.630508,
      35.7771159
     ],
     [
      139.6313339,
      35.776704
     ],
     [
      139.6325467,
      35.7760587
     ],
     [
      139.6340583,
      35.775316
     ],
     [
      139.6342538,
      35.7752019
     ],
     [
      139.6345701,
      35.7750182
     ],
     [
      139.6348892,
      35.7746729
     ],
     [
      139.6354694,
      35.7740222
     ],
     [
      139.6363604,
      35.7732111
     ],
     [
      139.6367875,
      35.7728251
     ],
     [
      139.6373366,
      35.7724815
     ],
     [
      139.6377833,
      35.7722415
     ],
     [
      139.6384261,
      35.7719335
     ],
     [
      139.6388379,
      35.7717826
     ],
     [
      139.6415177,
      35.7712077
     ],
     [
      139.6421852,
      35.771026
     ],
     [
      139.6425199,
      35.7709005
     ],
     [
      139.6428841,
      35.7707122
     ],
     [
      139.6441677,
      35.769971
     ],
     [
      139.645414,
      35.7692265
     ],
     [
      139.6461525,
      35.7689083
     ],
     [
      139.6484653,
      35.7682904
     ],
     [
      139.6491029,
      35.7681326
     ],
     [
      139.6494397,
      35.7680227
     ],
     [
      139.6498578,
      35.7675994
     ],
     [
      139.6500789,
      35.7672049
     ],
     [
      139.6502687,
      35.7665718
     ],
     [
      139.6507614,
      35.7643364
     ],
     [
      139.6512403,
      35.7604876
     ],
     [
      139.6514466,
      35.7598226
     ],
     [
      139.6516245,
      35.7595067
     ],
     [
      139.6519094,
      35.7592727
     ],
     [
      139.6529979,
      35.758413
     ],
     [
      139.6536345,
      35.7580163
     ],
     [
      139.6542458,
      35.7576942
     ],
     [
      139.6542953,
      35.7576628
     ],
     [
      139.6543405,
      35.7576342
     ],
     [
      139.6560571,
      35.7565467
     ],
     [
      139.6573027,
      35.7558273
     ],
     [
      139.6580634,
      35.7553099
     ],
     [
      139.6585589,
      35.7549281
     ],
     [
      139.6601986,
      35.7536006
     ],
     [
      139.6640979,
      35.7504713
     ],
     [
      139.6647104,
      35.7500477
     ],
     [
      139.6650785,
      35.7498601
     ],
     [
      139.6664962,
      35.7492131
     ],
     [
      139.6665662,
      35.7491811
     ],
     [
      139.6695435,
      35.7479203
     ],
     [
      139.6726742,
      35.7465128
     ]
    ]
   }
  },
  {
   "type": "Feature",
   "properties": {
    "kind": "track",
    "seq": 2,
    "role": "sub"
   },
   "geometry": {
    "type": "LineString",
    "coordinates": [
     [
      139.6726742,
      35.7465128
     ],
     [
      139.6743839,
      35.7457502
     ],
     [
      139.6755751,
      35.7452126
     ],
     [
      139.675946,
      35.745076
     ]
    ]
   }
  },
  {
   "type": "Feature",
   "properties": {
    "kind": "track",
    "seq": 3,
    "role": "sub"
   },
   "geometry": {
    "type": "LineString",
    "coordinates": [
     [
      139.675946,
      35.745076
     ],
     [
      139.6762788,
      35.7449595
     ],
     [
      139.6782181,
      35.7440746
     ]
    ]
   }
  },
  {
   "type": "Feature",
   "properties": {
    "kind": "track",
    "seq": 4,
    "role": "sub"
   },
   "geometry": {
    "type": "LineString",
    "coordinates": [
     [
      139.6782181,
      35.7440746
     ],
     [
      139.6793161,
      35.7436042
     ],
     [
      139.679597,
      35.743477
     ],
     [
      139.6811793,
      35.7427454
     ],
     [
      139.6816561,
      35.7424785
     ],
     [
      139.6822103,
      35.742216
     ],
     [
      139.6830992,
      35.7418005
     ],
     [
      139.6841812,
      35.7412917
     ],
     [
      139.686021,
      35.7404131
     ],
     [
      139.6862519,
      35.740306
     ],
     [
      139.686774,
      35.7400592
     ],
     [
      139.6875088,
      35.7396855
     ],
     [
      139.6878297,
      35.7395095
     ],
     [
      139.6881276,
      35.7393315
     ],
     [
      139.6886881,
      35.7389451
     ],
     [
      139.6895178,
      35.7383063
     ],
     [
      139.6901399,
      35.7378122
     ],
     [
      139.6918159,
      35.7364811
     ],
     [
      139.69299,
      35.7355856
     ],
     [
      139.6941479,
      35.7347121
     ],
     [
      139.6943969,
      35.734552
     ],
     [
      139.694658,
      35.7343956
     ],
     [
      139.6949851,
      35.7342187
     ],
     [
      139.6954566,
      35.7340163
     ],
     [
      139.6959978,
      35.7338216
     ],
     [
      139.6965104,
      35.7336838
     ],
     [
      139.6970439,
      35.7335844
     ],
     [
      139.6977189,
      35.7334431
     ],
     [
      139.6978513,
      35.7334218
     ],
     [
      139.698716,
      35.73328
     ],
     [
      139.6996292,
      35.7331238
     ],
     [
      139.7002328,
      35.7329705
     ],
     [
      139.7006895,
      35.7328966
     ],
     [
      139.7008035,
      35.7328769
     ],
     [
      139.7029841,
      35.7328752
     ],
     [
      139.7036229,
      35.7328836
     ],
     [
      139.7037327,
      35.7328839
     ],
     [
      139.70422,
      35.7327629
     ],
     [
      139.7046882,
      35.7325847
     ]
    ]
   }
  },
  {
   "type": "Feature",
   "properties": {
    "kind": "track",
    "seq": 5,
    "role": "main"
   },
   "geometry": {
    "type": "LineString",
    "coordinates": [
     [
      139.7046882,
      35.7325847
     ],
     [
      139.7057953,
      35.7320968
     ],
     [
      139.7062561,
      35.7318848
     ],
     [
      139.7070706,
      35.7313564
     ],
     [
      139.7080665,
      35.7306179
     ],
     [
      139.7087084,
      35.7301952
     ],
     [
      139.7097272,
      35.7297098
     ],
     [
      139.7109651,
      35.7293036
     ],
     [
      139.7111303,
      35.729246
     ],
     [
      139.7115979,
      35.7290886
     ],
     [
      139.7119372,
      35.7289775
     ],
     [
      139.7120954,
      35.7289122
     ],
     [
      139.7129457,
      35.7284343
     ],
     [
      139.7134285,
      35.7281371
     ],
     [
      139.7141124,
      35.7277636
     ],
     [
      139.714449,
      35.7276558
     ],
     [
      139.7149909,
      35.7276188
     ],
     [
      139.7158357,
      35.7276711
     ],
     [
      139.7161308,
      35.7276558
     ],
     [
      139.7164178,
      35.7276023
     ],
     [
      139.7172478,
      35.7271627
     ],
     [
      139.7177042,
      35.7269092
     ],
     [
      139.7195905,
      35.7257006
     ],
     [
      139.7205829,
      35.7250589
     ],
     [
      139.7219525,
      35.7242035
     ],
     [
      139.7235364,
      35.7232138
     ],
     [
      139.7248104,
      35.7222317
     ],
     [
      139.7264707,
      35.7206442
     ],
     [
      139.7269401,
      35.7201499
     ],
     [
      139.7271759,
      35.719779
     ],
     [
      139.7275108,
      35.7191034
     ],
     [
      139.7277448,
      35.7186354
     ],
     [
      139.7279499,
      35.7181934
     ],
     [
      139.728127,
      35.7178362
     ],
     [
      139.728302,
      35.7174747
     ],
     [
      139.7310777,
      35.7118093
     ],
     [
      139.7311766,
      35.711513
     ],
     [
      139.7312437,
      35.7112146
     ],
     [
      139.7313228,
      35.7109141
     ],
     [
      139.7313885,
      35.7107714
     ],
     [
      139.7314488,
      35.7106381
     ],
     [
      139.7315454,
      35.7104905
     ],
     [
      139.7316407,
      35.7103739
     ],
     [
      139.7317844,
      35.7102417
     ],
     [
      139.7319081,
      35.7101607
     ],
     [
      139.7320746,
      35.7100605
     ],
     [
      139.7322439,
      35.7099831
     ],
     [
      139.7325322,
      35.7098976
     ],
     [
      139.732725,
      35.7098467
     ],
     [
      139.7331293,
      35.7097326
     ],
     [
      139.7336008,
      35.7095696
     ],
     [
      139.7339084,
      35.7094423
     ],
     [
      139.7345301,
      35.7092221
     ],
     [
      139.7348618,
      35.7091297
     ],
     [
      139.7352147,
      35.7090585
     ],
     [
      139.7355773,
      35.7089811
     ],
     [
      139.7411994,
      35.7081446
     ],
     [
      139.7414881,
      35.7080904
     ],
     [
      139.7415911,
      35.7080631
     ],
     [
      139.7418388,
      35.7079842
     ],
     [
      139.7419358,
      35.7079448
     ],
     [
      139.742175,
      35.7078334
     ],
     [
      139.7422345,
      35.7078032
     ],
     [
      139.7422736,
      35.7077833
     ],
     [
      139.7424741,
      35.7076559
     ],
     [
      139.7425599,
      35.7075971
     ],
     [
      139.742745,
      35.7074446
     ],
     [
      139.7428335,
      35.707363
     ],
     [
      139.742977,
      35.7072072
     ],
     [
      139.7430655,
      35.7071032
     ],
     [
      139.7431704,
      35.7069449
     ],
     [
      139.7432412,
      35.7068435
     ],
     [
      139.7433257,
      35.7066758
     ],
     [
      139.7433834,
      35.7065593
     ],
     [
      139.7434794,
      35.7063414
     ],
     [
      139.7437793,
      35.705465
     ],
     [
      139.7439875,
      35.7048806
     ],
     [
      139.7440888,
      35.7045882
     ],
     [
      139.7441876,
      35.7043093
     ],
     [
      139.7442926,
      35.7040044
     ],
     [
      139.7443794,
      35.7037098
     ],
     [
      139.7444428,
      35.7034055
     ],
     [
      139.744463,
      35.7031975
     ],
     [
      139.7444683,
      35.7031169
     ],
     [
      139.7444436,
      35.7029064
     ],
     [
      139.7444292,
      35.7027926
     ],
     [
      139.7443784,
      35.7026422
     ],
     [
      139.7442972,
      35.7025304
     ],
     [
      139.7442026,
      35.702357
     ],
     [
      139.7439209,
      35.7019734
     ]
    ]
   }
  },
  {
   "type": "Feature",
   "properties": {
    "kind": "track",
    "seq": 6,
    "role": "sub"
   },
   "geometry": {
    "type": "LineString",
    "coordinates": [
     [
      139.7439209,
      35.7019734
     ],
     [
      139.7436174,
      35.7015617
     ],
     [
      139.7433312,
      35.7011698
     ],
     [
      139.7429904,
      35.7007171
     ],
     [
      139.7427485,
      35.7003858
     ],
     [
      139.7426294,
      35.7002157
     ],
     [
      139.7424379,
      35.6999629
     ],
     [
      139.7422675,
      35.6996856
     ]
    ]
   }
  },
  {
   "type": "Feature",
   "properties": {
    "kind": "track",
    "seq": 7,
    "role": "main"
   },
   "geometry": {
    "type": "LineString",
    "coordinates": [
     [
      139.7422675,
      35.6996856
     ],
     [
      139.7419222,
      35.6991266
     ],
     [
      139.7415903,
      35.6985863
     ],
     [
      139.741255,
      35.6981027
     ],
     [
      139.7410566,
      35.6978348
     ],
     [
      139.7400591,
      35.6964617
     ],
     [
      139.7394902,
      35.6956979
     ],
     [
      139.7390744,
      35.6951447
     ],
     [
      139.7384441,
      35.6943801
     ],
     [
      139.7380288,
      35.6938937
     ],
     [
      139.7378488,
      35.6936856
     ],
     [
      139.7374023,
      35.6931688
     ],
     [
      139.7367792,
      35.6923634
     ],
     [
      139.7362144,
      35.6915459
     ],
     [
      139.7361074,
      35.691391
     ],
     [
      139.7359459,
      35.6911168
     ],
     [
      139.735727,
      35.6905276
     ],
     [
      139.7356358,
      35.690227
     ],
     [
      139.7355797,
      35.6899475
     ],
     [
      139.7355573,
      35.6896693
     ],
     [
      139.7355534,
      35.6893962
     ],
     [
      139.7355754,
      35.6890894
     ],
     [
      139.7356291,
      35.6887968
     ],
     [
      139.7357486,
      35.688453
     ],
     [
      139.7376724,
      35.6840302
     ],
     [
      139.7381276,
      35.6829691
     ],
     [
      139.7382322,
      35.6823831
     ],
     [
      139.7382643,
      35.6819871
     ],
     [
      139.7383234,
      35.6814267
     ],
     [
      139.7384065,
      35.6811325
     ],
     [
      139.7386015,
      35.6806138
     ],
     [
      139.7387606,
      35.6803329
     ],
     [
      139.7392437,
      35.6796587
     ],
     [
      139.7394641,
      35.6794286
     ],
     [
      139.7395867,
      35.6793198
     ],
     [
      139.7397611,
      35.6791695
     ],
     [
      139.73993,
      35.6790301
     ],
     [
      139.7399573,
      35.6790106
     ],
     [
      139.7401741,
      35.6788558
     ],
     [
      139.7403887,
      35.6787185
     ],
     [
      139.7405978,
      35.6785888
     ],
     [
      139.7410271,
      35.6782969
     ],
     [
      139.7416145,
      35.6779889
     ],
     [
      139.7420061,
      35.6778328
     ],
     [
      139.7425293,
      35.6776595
     ],
     [
      139.7428188,
      35.6775855
     ],
     [
      139.7430266,
      35.6775485
     ],
     [
      139.743201,
      35.6775234
     ],
     [
      139.7436154,
      35.6774962
     ],
     [
      139.7442645,
      35.6775311
     ],
     [
      139.7456592,
      35.6778274
     ],
     [
      139.7467536,
      35.6778405
     ],
     [
      139.7477513,
      35.6777402
     ],
     [
      139.7487532,
      35.6774603
     ],
     [
      139.7489007,
      35.6774308
     ],
     [
      139.7490898,
      35.677396
     ],
     [
      139.7492655,
      35.677372
     ],
     [
      139.7496088,
      35.6773339
     ],
     [
      139.7500433,
      35.6773121
     ],
     [
      139.7503015,
      35.6773084
     ],
     [
      139.7506287,
      35.6773222
     ],
     [
      139.7509298,
      35.6773524
     ],
     [
      139.7516866,
      35.6774582
     ],
     [
      139.7529978,
      35.6776172
     ],
     [
      139.7540063,
      35.677579
     ],
     [
      139.7577238,
      35.6770212
     ],
     [
      139.7584373,
      35.6769188
     ],
     [
      139.7610082,
      35.6762616
     ],
     [
      139.762151,
      35.6760219
     ],
     [
      139.7631591,
      35.6757838
     ],
     [
      139.765884,
      35.6751683
     ],
     [
      139.7660315,
      35.6750868
     ],
     [
      139.7661762,
      35.6749843
     ],
     [
      139.7670517,
      35.6743736
     ],
     [
      139.7683213,
      35.6734988
     ],
     [
      139.7709283,
      35.6717375
     ],
     [
      139.7714487,
      35.6714629
     ],
     [
      139.7719743,
      35.6712402
     ],
     [
      139.7726316,
      35.6709735
     ],
     [
      139.7734291,
      35.6706504
     ],
     [
      139.7738587,
      35.6704687
     ],
     [
      139.7746931,
      35.6701565
     ],
     [
      139.7753379,
      35.6700134
     ],
     [
      139.7767867,
      35.6696923
     ],
     [
      139.7780281,
      35.6694234
     ],
     [
      139.7789044,
      35.6691627
     ],
     [
      139.7795871,
      35.6688364
     ],
     [
      139.7801248,
      35.6684171
     ],
     [
      139.7804533,
      35.6680797
     ],
     [
      139.7811797,
      35.667155
     ],
     [
      139.781515,
      35.6668259
     ],
     [
      139.7822982,
      35.6662093
     ],
     [
      139.7831097,
      35.665734
     ],
     [
      139.7839157,
      35.6652483
     ],
     [
      139.7843636,
      35.6649149
     ],
     [
      139.784766,
      35.6645697
     ],
     [
      139.7855256,
      35.6638923
     ],
     [
      139.7863603,
      35.6631346
     ],
     [
      139.7876088,
      35.6619803
     ],
     [
      139.7877565,
      35.6618009
     ],
     [
      139.7890152,
      35.6605966
     ],
     [
      139.7895938,
      35.6601642
     ],
     [
      139.7899908,
      35.6599419
     ],
     [
      139.7905272,
      35.6597066
     ],
     [
      139.7919189,
      35.6592142
     ],
     [
      139.7929594,
      35.6585093
     ],
     [
      139.7950867,
      35.6562154
     ],
     [
      139.7952662,
      35.656026
     ],
     [
      139.7956515,
      35.6556732
     ],
     [
      139.7959254,
      35.6554021
     ],
     [
      139.79625,
      35.6550808
     ],
     [
      139.7964665,
      35.6548636
     ],
     [
      139.7966809,
      35.6546481
     ],
     [
      139.7967514,
      35.6545773
     ],
     [
      139.7967759,
      35.6545527
     ],
     [
      139.7968285,
      35.6544999
     ],
     [
      139.7969078,
      35.6543948
     ],
     [
      139.7984075,
      35.6529244
     ],
     [
      139.7992471,
      35.6521181
     ],
     [
      139.8002207,
      35.6514336
     ],
     [
      139.8016423,
      35.6504179
     ],
     [
      139.8021036,
      35.6501433
     ],
     [
      139.8023182,
      35.6500343
     ],
     [
      139.8025167,
      35.6499461
     ],
     [
      139.8027447,
      35.6498633
     ],
     [
      139.8032342,
      35.6497183
     ],
     [
      139.8039383,
      35.6495331
     ],
     [
      139.8047242,
      35.6492911
     ],
     [
      139.8053479,
      35.6490209
     ],
     [
      139.8058346,
      35.6487375
     ],
     [
      139.8069236,
      35.6479376
     ],
     [
      139.8085812,
      35.646968
     ],
     [
      139.8094609,
      35.6463922
     ],
     [
      139.8097092,
      35.646216
     ],
     [
      139.8107438,
      35.6455232
     ],
     [
      139.8114015,
      35.6451221
     ],
     [
      139.8115381,
      35.6450406
     ],
     [
      139.8117759,
      35.6449049
     ],
     [
      139.8119417,
      35.6448233
     ],
     [
      139.8121119,
      35.6447396
     ],
     [
      139.8123972,
      35.6446103
     ],
     [
      139.8125106,
      35.6445674
     ],
     [
      139.8126265,
      35.6445259
     ],
     [
      139.8127611,
      35.6444784
     ],
     [
      139.8128992,
      35.6444349
     ],
     [
      139.8130745,
      35.6443906
     ],
     [
      139.8132235,
      35.6443583
     ],
     [
      139.8133767,
      35.6443313
     ],
     [
      139.8135404,
      35.6443092
     ],
     [
      139.8136956,
      35.6442915
     ],
     [
      139.8138363,
      35.6442834
     ],
     [
      139.8139836,
      35.6442799
     ],
     [
      139.814127,
      35.6442819
     ],
     [
      139.8142672,
      35.6442857
     ],
     [
      139.8144004,
      35.6442923
     ],
     [
      139.8145747,
      35.6443118
     ],
     [
      139.8146876,
      35.6443454
     ],
     [
      139.8148242,
      35.6443701
     ],
     [
      139.8149474,
      35.6443997
     ],
     [
      139.8151158,
      35.644443
     ],
     [
      139.8152557,
      35.6444819
     ],
     [
      139.8153939,
      35.6445237
     ],
     [
      139.8155799,
      35.6445793
     ],
     [
      139.8161502,
      35.6447526
     ],
     [
      139.8163538,
      35.6448138
     ],
     [
      139.8165954,
      35.6448818
     ],
     [
      139.8167965,
      35.6449344
     ],
     [
      139.8170049,
      35.6449859
     ],
     [
      139.8172197,
      35.6450311
     ],
     [
      139.8174329,
      35.6450679
     ],
     [
      139.817749,
      35.6451142
     ]
    ]
   }
  },
  {
   "type": "Feature",
   "properties": {
    "kind": "track",
    "seq": 8,
    "role": "sub"
   },
   "geometry": {
    "type": "LineString",
    "coordinates": [
     [
      139.817749,
      35.6451142
     ],
     [
      139.8185071,
      35.6452002
     ],
     [
      139.8195991,
      35.645308
     ],
     [
      139.8204392,
      35.6453982
     ],
     [
      139.8209846,
      35.6454608
     ],
     [
      139.8215737,
      35.6455327
     ],
     [
      139.8220837,
      35.6455839
     ],
     [
      139.8227239,
      35.645644
     ],
     [
      139.8234253,
      35.6457077
     ],
     [
      139.8238364,
      35.6457475
     ],
     [
      139.8241162,
      35.6457743
     ],
     [
      139.8243415,
      35.6457922
     ],
     [
      139.8244922,
      35.6458038
     ],
     [
      139.8247073,
      35.6458189
     ],
     [
      139.8251653,
      35.6458336
     ],
     [
      139.8257784,
      35.6458891
     ],
     [
      139.8266504,
      35.6459744
     ],
     [
      139.8278007,
      35.6460734
     ]
    ]
   }
  },
  {
   "type": "Feature",
   "properties": {
    "kind": "station",
    "name": "和光市"
   },
   "geometry": {
    "type": "Point",
    "coordinates": [
     139.61286,
     35.78835
    ]
   }
  },
  {
   "type": "Feature",
   "properties": {
    "kind": "station",
    "name": "地下鉄成増"
   },
   "geometry": {
    "type": "Point",
    "coordinates": [
     139.63117,
     35.77674
    ]
   }
  },
  {
   "type": "Feature",
   "properties": {
    "kind": "station",
    "name": "地下鉄赤塚"
   },
   "geometry": {
    "type": "Point",
    "coordinates": [
     139.644,
     35.769981
    ]
   }
  },
  {
   "type": "Feature",
   "properties": {
    "kind": "station",
    "name": "平和台"
   },
   "geometry": {
    "type": "Point",
    "coordinates": [
     139.6543,
     35.757555
    ]
   }
  },
  {
   "type": "Feature",
   "properties": {
    "kind": "station",
    "name": "氷川台"
   },
   "geometry": {
    "type": "Point",
    "coordinates": [
     139.66547,
     35.74962
    ]
   }
  },
  {
   "type": "Feature",
   "properties": {
    "kind": "station",
    "name": "小竹向原"
   },
   "geometry": {
    "type": "Point",
    "coordinates": [
     139.67952,
     35.743395
    ]
   }
  },
  {
   "type": "Feature",
   "properties": {
    "kind": "station",
    "name": "千川"
   },
   "geometry": {
    "type": "Point",
    "coordinates": [
     139.6894,
     35.738175
    ]
   }
  },
  {
   "type": "Feature",
   "properties": {
    "kind": "station",
    "name": "要町"
   },
   "geometry": {
    "type": "Point",
    "coordinates": [
     139.69848,
     35.733215
    ]
   }
  },
  {
   "type": "Feature",
   "properties": {
    "kind": "station",
    "name": "池袋"
   },
   "geometry": {
    "type": "Point",
    "coordinates": [
     139.710885,
     35.729185
    ]
   }
  },
  {
   "type": "Feature",
   "properties": {
    "kind": "station",
    "name": "東池袋"
   },
   "geometry": {
    "type": "Point",
    "coordinates": [
     139.718865,
     35.72595
    ]
   }
  },
  {
   "type": "Feature",
   "properties": {
    "kind": "station",
    "name": "護国寺"
   },
   "geometry": {
    "type": "Point",
    "coordinates": [
     139.72745,
     35.71918
    ]
   }
  },
  {
   "type": "Feature",
   "properties": {
    "kind": "station",
    "name": "江戸川橋"
   },
   "geometry": {
    "type": "Point",
    "coordinates": [
     139.7335743,
     35.7095373
    ]
   }
  },
  {
   "type": "Feature",
   "properties": {
    "kind": "station",
    "name": "飯田橋"
   },
   "geometry": {
    "type": "Point",
    "coordinates": [
     139.743207,
     35.701342
    ]
   }
  },
  {
   "type": "Feature",
   "properties": {
    "kind": "station",
    "name": "市ケ谷"
   },
   "geometry": {
    "type": "Point",
    "coordinates": [
     139.736891,
     35.692576
    ]
   }
  },
  {
   "type": "Feature",
   "properties": {
    "kind": "station",
    "name": "麴町"
   },
   "geometry": {
    "type": "Point",
    "coordinates": [
     139.73735,
     35.684785
    ]
   }
  },
  {
   "type": "Feature",
   "properties": {
    "kind": "station",
    "name": "永田町"
   },
   "geometry": {
    "type": "Point",
    "coordinates": [
     139.741773,
     35.677895
    ]
   }
  },
  {
   "type": "Feature",
   "properties": {
    "kind": "station",
    "name": "桜田門"
   },
   "geometry": {
    "type": "Point",
    "coordinates": [
     139.751886,
     35.677459
    ]
   }
  },
  {
   "type": "Feature",
   "properties": {
    "kind": "station",
    "name": "有楽町"
   },
   "geometry": {
    "type": "Point",
    "coordinates": [
     139.762286,
     35.675973
    ]
   }
  },
  {
   "type": "Feature",
   "properties": {
    "kind": "station",
    "name": "銀座一丁目"
   },
   "geometry": {
    "type": "Point",
    "coordinates": [
     139.766786,
     35.674519
    ]
   }
  },
  {
   "type": "Feature",
   "properties": {
    "kind": "station",
    "name": "新富町"
   },
   "geometry": {
    "type": "Point",
    "coordinates": [
     139.773594,
     35.670529
    ]
   }
  },
  {
   "type": "Feature",
   "properties": {
    "kind": "station",
    "name": "月島"
   },
   "geometry": {
    "type": "Point",
    "coordinates": [
     139.784405,
     35.664711
    ]
   }
  },
  {
   "type": "Feature",
   "properties": {
    "kind": "station",
    "name": "豊洲"
   },
   "geometry": {
    "type": "Point",
    "coordinates": [
     139.795994,
     35.655153
    ]
   }
  },
  {
   "type": "Feature",
   "properties": {
    "kind": "station",
    "name": "辰巳"
   },
   "geometry": {
    "type": "Point",
    "coordinates": [
     139.81033,
     35.645775
    ]
   }
  },
  {
   "type": "Feature",
   "properties": {
    "kind": "station",
    "name": "新木場"
   },
   "geometry": {
    "type": "Point",
    "coordinates": [
     139.826605,
     35.64578
    ]
   }
  }
 ]
}
