{
 "type": "FeatureCollection",
 "metadata": {
  "line_id": "tokyo-metro.ginza",
  "source": {
   "name": "mini-tokyo-3d (4ad6ca6, 2026-06-03)",
   "url": "https://github.com/nagix/mini-tokyo-3d",
   "license": "MIT (c) Akihiko Kusanagi",
   "retrieved": "2026-06-03",
   "note": "国土数値情報 N02 へ到達できない環境向けのブートストラップ。extract-n02 で再抽出して差し替え可能。"
  }
 },
 "features": [
  {
   "type": "Feature",
   "properties": {
    "kind": "track",
    "seq": 0,
    "role": "main"
   },
   "geometry": {
    "type": "LineString",
    "coordinates": [
     [
      139.7019651,
      35.658922
     ],
     [
      139.702424,
      35.6590687
     ],
     [
      139.7026059,
      35.6591234
     ],
     [
      139.7028298,
      35.6591836
     ],
     [
      139.70294,
      35.6592074
     ],
     [
      139.7030618,
      35.6592346
     ],
     [
      139.7033231,
      35.6592946
     ],
     [
      139.7037287,
      35.6594059
     ],
     [
      139.7041326,
      35.6595198
     ],
     [
      139.7046526,
      35.6596648
     ]
    ]
   }
  },
  {
   "type": "Feature",
   "properties": {
    "kind": "track",
    "seq": 1,
    "role": "main"
   },
   "geometry": {
    "type": "LineString",
    "coordinates": [
     [
      139.7046526,
      35.6596648
     ],
     [
      139.7049523,
      35.659752
     ],
     [
      139.70505,
      35.6597837
     ],
     [
      139.7051312,
      35.659816
     ],
     [
      139.7053899,
      35.6599256
     ],
     [
      139.7056947,
      35.6600856
     ],
     [
      139.7063279,
      35.6604368
     ],
     [
      139.708221,
      35.6616526
     ],
     [
      139.7101934,
      35.6628676
     ],
     [
      139.7104304,
      35.663036
     ],
     [
      139.7106019,
      35.6631452
     ],
     [
      139.7111234,
      35.663619
     ],
     [
      139.7118576,
      35.6644514
     ],
     [
      139.7119689,
      35.6645599
     ],
     [
      139.7121209,
      35.6647278
     ],
     [
      139.7124195,
      35.6650556
     ],
     [
      139.7127709,
      35.665447
     ],
     [
      139.713209,
      35.6659352
     ],
     [
      139.7132244,
      35.6659543
     ],
     [
      139.7148505,
      35.6677668
     ],
     [
      139.7157433,
      35.6687491
     ],
     [
      139.7161591,
      35.6692459
     ],
     [
      139.7166036,
      35.6697337
     ],
     [
      139.7167496,
      35.6699141
     ],
     [
      139.716981,
      35.6701448
     ],
     [
      139.7173034,
      35.6703584
     ],
     [
      139.7178217,
      35.6705551
     ],
     [
      139.7187314,
      35.6708663
     ],
     [
      139.7196325,
      35.6711757
     ],
     [
      139.7204265,
      35.6714524
     ],
     [
      139.7211954,
      35.6717151
     ],
     [
      139.7221564,
      35.6720537
     ],
     [
      139.7231541,
      35.672398
     ],
     [
      139.7239341,
      35.6726745
     ],
     [
      139.7246373,
      35.6728887
     ],
     [
      139.725342,
      35.6731031
     ],
     [
      139.726367,
      35.6734141
     ],
     [
      139.7269316,
      35.6735786
     ],
     [
      139.7272938,
      35.6736887
     ],
     [
      139.727625,
      35.6737978
     ],
     [
      139.7279694,
      35.6739302
     ],
     [
      139.7283055,
      35.6740671
     ],
     [
      139.7286496,
      35.6742108
     ],
     [
      139.7289578,
      35.6743434
     ],
     [
      139.7293108,
      35.674487
     ],
     [
      139.7296649,
      35.6745747
     ],
     [
      139.7304122,
      35.6746633
     ],
     [
      139.7307823,
      35.674712
     ],
     [
      139.730948,
      35.674749
     ],
     [
      139.7311304,
      35.6748078
     ],
     [
      139.7312847,
      35.6748669
     ],
     [
      139.7314537,
      35.6749579
     ],
     [
      139.7316119,
      35.6750676
     ],
     [
      139.7336109,
      35.6762851
     ],
     [
      139.7344403,
      35.6767997
     ],
     [
      139.7350689,
      35.6771328
     ],
     [
      139.7352742,
      35.6771924
     ],
     [
      139.735437,
      35.6772314
     ],
     [
      139.735597,
      35.6772514
     ],
     [
      139.735796,
      35.6772626
     ],
     [
      139.7360185,
      35.6772515
     ],
     [
      139.7363236,
      35.6771855
     ],
     [
      139.7365255,
      35.6771157
     ],
     [
      139.736683,
      35.6770497
     ],
     [
      139.7368296,
      35.6769609
     ],
     [
      139.7369941,
      35.6768474
     ],
     [
      139.7371124,
      35.6767347
     ],
     [
      139.7372597,
      35.6765654
     ],
     [
      139.7373104,
      35.6765007
     ]
    ]
   }
  },
  {
   "type": "Feature",
   "properties": {
    "kind": "track",
    "seq": 2,
    "role": "sub"
   },
   "geometry": {
    "type": "LineString",
    "coordinates": [
     [
      139.7373104,
      35.6765007
     ],
     [
      139.7374601,
      35.6763066
     ],
     [
      139.7376052,
      35.6761181
     ],
     [
      139.7377487,
      35.675916
     ],
     [
      139.7379272,
      35.6756751
     ],
     [
      139.7381034,
      35.6754372
     ],
     [
      139.738251,
      35.675154
     ]
    ]
   }
  },
  {
   "type": "Feature",
   "properties": {
    "kind": "track",
    "seq": 3,
    "role": "main"
   },
   "geometry": {
    "type": "LineString",
    "coordinates": [
     [
      139.738251,
      35.675154
     ],
     [
      139.7383538,
      35.6748691
     ],
     [
      139.7384449,
      35.6745728
     ],
     [
      139.7385533,
      35.674275
     ],
     [
      139.738675,
      35.6739831
     ],
     [
      139.7388456,
      35.6737291
     ],
     [
      139.7390563,
      35.6734847
     ],
     [
      139.7393254,
      35.6732706
     ],
     [
      139.7396217,
      35.673073
     ],
     [
      139.7399989,
      35.6728303
     ],
     [
      139.7403217,
      35.6726294
     ],
     [
      139.7406086,
      35.6724521
     ],
     [
      139.7409144,
      35.6722876
     ],
     [
      139.7411713,
      35.6721483
     ],
     [
      139.7415556,
      35.6718937
     ],
     [
      139.742043,
      35.6715818
     ],
     [
      139.7425219,
      35.6712839
     ],
     [
      139.7427871,
      35.6711248
     ],
     [
      139.7430455,
      35.6710246
     ],
     [
      139.7432509,
      35.6709701
     ],
     [
      139.7434178,
      35.6709267
     ],
     [
      139.743598,
      35.6708844
     ],
     [
      139.743788,
      35.6708517
     ],
     [
      139.74396,
      35.6707983
     ],
     [
      139.7441841,
      35.6707351
     ],
     [
      139.7442678,
      35.6707099
     ],
     [
      139.744461,
      35.6706688
     ],
     [
      139.7446319,
      35.6706406
     ],
     [
      139.7448584,
      35.6706001
     ],
     [
      139.7450119,
      35.6705662
     ],
     [
      139.7452202,
      35.6705239
     ],
     [
      139.7453696,
      35.6704965
     ],
     [
      139.7455667,
      35.6704524
     ],
     [
      139.7457219,
      35.6704041
     ],
     [
      139.7459186,
      35.6703509
     ],
     [
      139.7460769,
      35.6703051
     ],
     [
      139.7462663,
      35.6702531
     ],
     [
      139.7464394,
      35.6702123
     ],
     [
      139.7466398,
      35.6701812
     ],
     [
      139.7467924,
      35.6701684
     ],
     [
      139.7469837,
      35.670163
     ],
     [
      139.74715,
      35.6701619
     ],
     [
      139.7473737,
      35.6701813
     ],
     [
      139.7475468,
      35.6702017
     ],
     [
      139.7477511,
      35.6702426
     ],
     [
      139.7480871,
      35.6703163
     ],
     [
      139.7482793,
      35.670372
     ],
     [
      139.7484398,
      35.6704043
     ],
     [
      139.7486387,
      35.6704287
     ],
     [
      139.7488173,
      35.6704387
     ],
     [
      139.7489932,
      35.6704305
     ],
     [
      139.7492188,
      35.6704286
     ],
     [
      139.750011,
      35.67015
     ],
     [
      139.7504465,
      35.67001
     ],
     [
      139.7513208,
      35.6696977
     ],
     [
      139.7554654,
      35.6683774
     ],
     [
      139.7563586,
      35.6681007
     ],
     [
      139.7572651,
      35.6678109
     ],
     [
      139.75839,
      35.6674062
     ],
     [
      139.7588763,
      35.6672291
     ],
     [
      139.7593417,
      35.6670519
     ],
     [
      139.7597542,
      35.6669262
     ],
     [
      139.7600976,
      35.6669044
     ],
     [
      139.7604543,
      35.6669436
     ],
     [
      139.7608969,
      35.6671397
     ],
     [
      139.7616506,
      35.6680179
     ],
     [
      139.7649257,
      35.6711366
     ],
     [
      139.7652781,
      35.6714771
     ],
     [
      139.7658965,
      35.6720565
     ],
     [
      139.7683293,
      35.6743587
     ],
     [
      139.7696677,
      35.6761345
     ],
     [
      139.7700459,
      35.6767641
     ],
     [
      139.7703928,
      35.6772889
     ],
     [
      139.7714452,
      35.6790113
     ],
     [
      139.7730243,
      35.6815778
     ],
     [
      139.7733413,
      35.682087
     ],
     [
      139.7736184,
      35.68251
     ],
     [
      139.7738613,
      35.6828275
     ],
     [
      139.7740719,
      35.6831587
     ],
     [
      139.7741111,
      35.6837129
     ],
     [
      139.774155,
      35.6840933
     ],
     [
      139.7743244,
      35.684497
     ],
     [
      139.7744039,
      35.6847792
     ],
     [
      139.7744071,
      35.6849953
     ],
     [
      139.7743589,
      35.6852022
     ],
     [
      139.7740516,
      35.6860017
     ],
     [
      139.7737902,
      35.6865257
     ],
     [
      139.7735518,
      35.6870749
     ],
     [
      139.7733189,
      35.6876533
     ],
     [
      139.7731556,
      35.6881257
     ],
     [
      139.7716264,
      35.6918156
     ],
     [
      139.7711338,
      35.6927883
     ],
     [
      139.7710061,
      35.693213
     ],
     [
      139.7708227,
      35.6937035
     ],
     [
      139.7706916,
      35.6940882
     ],
     [
      139.7706191,
      35.6943034
     ],
     [
      139.7705439,
      35.6945252
     ],
     [
      139.7703408,
      35.6950316
     ],
     [
      139.7703013,
      35.6952548
     ],
     [
      139.7703006,
      35.6954452
     ],
     [
      139.7703376,
      35.6956761
     ],
     [
      139.7703651,
      35.69577
     ],
     [
      139.7704109,
      35.6959057
     ],
     [
      139.770564,
      35.6963573
     ],
     [
      139.7709162,
      35.6972472
     ],
     [
      139.7710756,
      35.6977034
     ],
     [
      139.7711401,
      35.6980046
     ],
     [
      139.7713254,
      35.7000301
     ],
     [
      139.7715939,
      35.702504
     ],
     [
      139.7716554,
      35.7029435
     ],
     [
      139.771714,
      35.7034661
     ],
     [
      139.7718992,
      35.7051001
     ],
     [
      139.7719171,
      35.7052978
     ],
     [
      139.7719823,
      35.7055517
     ],
     [
      139.7720919,
      35.7058707
     ],
     [
      139.7726336,
      35.7067791
     ],
     [
      139.7727638,
      35.7070725
     ],
     [
      139.7728656,
      35.7073543
     ],
     [
      139.7729092,
      35.7075317
     ],
     [
      139.7729685,
      35.7078315
     ],
     [
      139.7729923,
      35.7079479
     ],
     [
      139.7731633,
      35.7087525
     ],
     [
      139.7732554,
      35.7091946
     ],
     [
      139.7734281,
      35.7099432
     ],
     [
      139.7736713,
      35.7105333
     ],
     [
      139.7740012,
      35.7110996
     ],
     [
      139.7740645,
      35.7112032
     ],
     [
      139.7741974,
      35.7113362
     ],
     [
      139.7743478,
      35.7114388
     ],
     [
      139.7745232,
      35.7115249
     ],
     [
      139.7746982,
      35.7115741
     ],
     [
      139.7750304,
      35.7115968
     ],
     [
      139.7753522,
      35.7115947
     ],
     [
      139.7756381,
      35.7116152
     ],
     [
      139.7758085,
      35.711647
     ],
     [
      139.7759986,
      35.7116809
     ],
     [
      139.776143,
      35.7117224
     ],
     [
      139.7766206,
      35.7119367
     ],
     [
      139.7767051,
      35.7119746
     ],
     [
      139.7768739,
      35.7120586
     ],
     [
      139.7769175,
      35.712086
     ],
     [
      139.7770198,
      35.7121336
     ],
     [
      139.7771949,
      35.7122026
     ],
     [
      139.777381,
      35.7122588
     ],
     [
      139.7775923,
      35.7122796
     ],
     [
      139.7777277,
      35.7122839
     ],
     [
      139.7778772,
      35.7122694
     ],
     [
      139.7780093,
      35.7122459
     ],
     [
      139.7801346,
      35.7118679
     ],
     [
      139.7802517,
      35.7118465
     ],
     [
      139.7826812,
      35.7114032
     ],
     [
      139.7845829,
      35.7110654
     ],
     [
      139.7901803,
      35.7100174
     ],
     [
      139.7907726,
      35.7099006
     ],
     [
      139.7912984,
      35.709761
     ],
     [
      139.7926106,
      35.7093535
     ],
     [
      139.7931227,
      35.7092041
     ],
     [
      139.7936983,
      35.7090948
     ],
     [
      139.7950998,
      35.7089037
     ],
     [
      139.795471,
      35.7088681
     ],
     [
      139.7957016,
      35.7088733
     ],
     [
      139.7959332,
      35.7089108
     ],
     [
      139.7961327,
      35.7089613
     ],
     [
      139.7963216,
      35.7090367
     ],
     [
      139.7966052,
      35.7091989
     ],
     [
      139.7968682,
      35.7094325
     ],
     [
      139.7970558,
      35.7096986
     ],
     [
      139.7971624,
      35.7098618
     ],
     [
      139.7972217,
      35.7099527
     ],
     [
      139.7972747,
      35.7100337
     ],
     [
      139.797293,
      35.710075
     ],
     [
      139.7978001,
      35.7108521
     ]
    ]
   }
  },
  {
   "type": "Feature",
   "properties": {
    "kind": "station",
    "name": "渋谷"
   },
   "geometry": {
    "type": "Point",
    "coordinates": [
     139.7024447,
     35.658999
    ]
   }
  },
  {
   "type": "Feature",
   "properties": {
    "kind": "station",
    "name": "表参道"
   },
   "geometry": {
    "type": "Point",
    "coordinates": [
     139.712473,
     35.665042
    ]
   }
  },
  {
   "type": "Feature",
   "properties": {
    "kind": "station",
    "name": "外苑前"
   },
   "geometry": {
    "type": "Point",
    "coordinates": [
     139.717825,
     35.670375
    ]
   }
  },
  {
   "type": "Feature",
   "properties": {
    "kind": "station",
    "name": "青山一丁目"
   },
   "geometry": {
    "type": "Point",
    "coordinates": [
     139.724145,
     35.67279
    ]
   }
  },
  {
   "type": "Feature",
   "properties": {
    "kind": "station",
    "name": "赤坂見附"
   },
   "geometry": {
    "type": "Point",
    "coordinates": [
     139.737347,
     35.676845
    ]
   }
  },
  {
   "type": "Feature",
   "properties": {
    "kind": "station",
    "name": "溜池山王"
   },
   "geometry": {
    "type": "Point",
    "coordinates": [
     139.741943,
     35.671511
    ]
   }
  },
  {
   "type": "Feature",
   "properties": {
    "kind": "station",
    "name": "虎ノ門"
   },
   "geometry": {
    "type": "Point",
    "coordinates": [
     139.75012,
     35.67016
    ]
   }
  },
  {
   "type": "Feature",
   "properties": {
    "kind": "station",
    "name": "新橋"
   },
   "geometry": {
    "type": "Point",
    "coordinates": [
     139.758512,
     35.667382
    ]
   }
  },
  {
   "type": "Feature",
   "properties": {
    "kind": "station",
    "name": "銀座"
   },
   "geometry": {
    "type": "Point",
    "coordinates": [
     139.765366,
     35.6715
    ]
   }
  },
  {
   "type": "Feature",
   "properties": {
    "kind": "station",
    "name": "京橋"
   },
   "geometry": {
    "type": "Point",
    "coordinates": [
     139.77011,
     35.676704
    ]
   }
  },
  {
   "type": "Feature",
   "properties": {
    "kind": "station",
    "name": "日本橋"
   },
   "geometry": {
    "type": "Point",
    "coordinates": [
     139.773335,
     35.681879
    ]
   }
  },
  {
   "type": "Feature",
   "properties": {
    "kind": "station",
    "name": "三越前"
   },
   "geometry": {
    "type": "Point",
    "coordinates": [
     139.773582,
     35.687173
    ]
   }
  },
  {
   "type": "Feature",
   "properties": {
    "kind": "station",
    "name": "神田"
   },
   "geometry": {
    "type": "Point",
    "coordinates": [
     139.77089,
     35.693715
    ]
   }
  },
  {
   "type": "Feature",
   "properties": {
    "kind": "station",
    "name": "末広町"
   },
   "geometry": {
    "type": "Point",
    "coordinates": [
     139.771762,
     35.70278
    ]
   }
  },
  {
   "type": "Feature",
   "properties": {
    "kind": "station",
    "name": "上野広小路"
   },
   "geometry": {
    "type": "Point",
    "coordinates": [
     139.773011,
     35.707765
    ]
   }
  },
  {
   "type": "Feature",
   "properties": {
    "kind": "station",
    "name": "上野"
   },
   "geometry": {
    "type": "Point",
    "coordinates": [
     139.7760755,
     35.711795
    ]
   }
  },
  {
   "type": "Feature",
   "properties": {
    "kind": "station",
    "name": "稲荷町"
   },
   "geometry": {
    "type": "Point",
    "coordinates": [
     139.7826677,
     35.7113442
    ]
   }
  },
  {
   "type": "Feature",
   "properties": {
    "kind": "station",
    "name": "田原町"
   },
   "geometry": {
    "type": "Point",
    "coordinates": [
     139.7907747,
     35.709842
    ]
   }
  },
  {
   "type": "Feature",
   "properties": {
    "kind": "station",
    "name": "浅草"
   },
   "geometry": {
    "type": "Point",
    "coordinates": [
     139.797774,
     35.710746
    ]
   }
  }
 ]
}
