{
 "type": "FeatureCollection",
 "metadata": {
  "line_id": "tokyo-metro.marunouchi-branch",
  "source": {
   "name": "mini-tokyo-3d (4ad6ca6, 2026-06-03)",
   "url": "https://github.com/nagix/mini-tokyo-3d",
   "license": "MIT (c) Akihiko Kusanagi",
   "retrieved": "2026-06-03",
   "note": "国土数値情報 N02 へ到達できない環境向けのブートストラップ。extract-n02 で再抽出して差し替え可能。"
  }
 },
 "features": [
  {
   "type": "Feature",
   "properties": {
    "kind": "track",
    "seq": 0,
    "role": "main"
   },
   "geometry": {
    "type": "LineString",
    "coordinates": [
     [
      139.6568661,
      35.6834106
     ],
     [
      139.6576338,
      35.6835448
     ],
     [
      139.6582605,
      35.6836474
     ],
     [
      139.6583939,
      35.6836707
     ],
     [
      139.6585926,
      35.6837055
     ],
     [
      139.6590152,
      35.6838131
     ],
     [
      139.6603972,
      35.6842023
     ],
     [
      139.661352,
      35.6844746
     ],
     [
      139.6617649,
      35.6846076
     ],
     [
      139.6621082,
      35.6847782
     ],
     [
      139.6623912,
      35.684958
     ],
     [
      139.6626455,
      35.6851471
     ],
     [
      139.6630874,
      35.6855813
     ],
     [
      139.6632698,
      35.6858275
     ],
     [
      139.6634093,
      35.6861172
     ],
     [
      139.6635166,
      35.686407
     ],
     [
      139.6635836,
      35.6866924
     ],
     [
      139.6636709,
      35.6872925
     ],
     [
      139.6637385,
      35.6876093
     ],
     [
      139.6638326,
      35.6882883
     ],
     [
      139.6639574,
      35.6886094
     ],
     [
      139.6641583,
      35.6888946
     ],
     [
      139.6643363,
      35.6890869
     ],
     [
      139.6649165,
      35.6894767
     ],
     [
      139.6651415,
      35.6896062
     ],
     [
      139.6660191,
      35.6900843
     ],
     [
      139.6666427,
      35.6904219
     ],
     [
      139.6669966,
      35.6905746
     ],
     [
      139.6670891,
      35.6906074
     ],
     [
      139.6678436,
      35.6908085
     ],
     [
      139.6721289,
      35.6912913
     ],
     [
      139.6725664,
      35.6913739
     ],
     [
      139.6730356,
      35.6915571
     ],
     [
      139.6734599,
      35.6918205
     ],
     [
      139.6737415,
      35.6920243
     ],
     [
      139.6739803,
      35.6922421
     ],
     [
      139.6742045,
      35.6925075
     ],
     [
      139.674341,
      35.6927557
     ],
     [
      139.6744144,
      35.6930644
     ],
     [
      139.6744322,
      35.6933792
     ],
     [
      139.6741057,
      35.695503
     ],
     [
      139.6740081,
      35.6961486
     ],
     [
      139.6739697,
      35.6964727
     ],
     [
      139.6740152,
      35.6967779
     ],
     [
      139.6741685,
      35.6970783
     ],
     [
      139.6744,
      35.6973299
     ],
     [
      139.6746786,
      35.697519
     ],
     [
      139.6748596,
      35.6975974
     ],
     [
      139.6749978,
      35.6976399
     ],
     [
      139.6752271,
      35.6976791
     ]
    ]
   }
  },
  {
   "type": "Feature",
   "properties": {
    "kind": "track",
    "seq": 1,
    "role": "sub"
   },
   "geometry": {
    "type": "LineString",
    "coordinates": [
     [
      139.6752271,
      35.6976791
     ],
     [
      139.6756026,
      35.6976954
     ],
     [
      139.6759848,
      35.6976987
     ],
     [
      139.6763483,
      35.6976889
     ],
     [
      139.6767198,
      35.6976758
     ],
     [
      139.6770953,
      35.697654
     ],
     [
      139.6774721,
      35.6976214
     ],
     [
      139.6796614,
      35.6973674
     ],
     [
      139.6800532,
      35.697318
     ],
     [
      139.6803367,
      35.6972761
     ],
     [
      139.6819073,
      35.697098
     ],
     [
      139.6826435,
      35.6970158
     ]
    ]
   }
  },
  {
   "type": "Feature",
   "properties": {
    "kind": "station",
    "name": "方南町"
   },
   "geometry": {
    "type": "Point",
    "coordinates": [
     139.657935,
     35.683515
    ]
   }
  },
  {
   "type": "Feature",
   "properties": {
    "kind": "station",
    "name": "中野富士見町"
   },
   "geometry": {
    "type": "Point",
    "coordinates": [
     139.6672426,
     35.69064
    ]
   }
  },
  {
   "type": "Feature",
   "properties": {
    "kind": "station",
    "name": "中野新橋"
   },
   "geometry": {
    "type": "Point",
    "coordinates": [
     139.674001,
     35.691685
    ]
   }
  },
  {
   "type": "Feature",
   "properties": {
    "kind": "station",
    "name": "中野坂上"
   },
   "geometry": {
    "type": "Point",
    "coordinates": [
     139.682205,
     35.697085
    ]
   }
  }
 ]
}
