{
 "type": "FeatureCollection",
 "metadata": {
  "line_id": "tokyo-metro.chiyoda",
  "source": {
   "name": "mini-tokyo-3d (4ad6ca6, 2026-06-03)",
   "url": "https://github.com/nagix/mini-tokyo-3d",
   "license": "MIT (c) Akihiko Kusanagi",
   "retrieved": "2026-06-03",
   "note": "国土数値情報 N02 へ到達できない環境向けのブートストラップ。extract-n02 で再抽出して差し替え可能。"
  }
 },
 "features": [
  {
   "type": "Feature",
   "properties": {
    "kind": "track",
    "seq": 0,
    "role": "sub"
   },
   "geometry": {
    "type": "LineString",
    "coordinates": [
     [
      139.4441157,
      35.5427661
     ],
     [
      139.6753415,
      35.6667361
     ]
    ]
   }
  },
  {
   "type": "Feature",
   "properties": {
    "kind": "track",
    "seq": 1,
    "role": "sub"
   },
   "geometry": {
    "type": "LineString",
    "coordinates": [
     [
      139.6753415,
      35.6667361
     ],
     [
      139.6786404,
      35.6684625
     ]
    ]
   }
  },
  {
   "type": "Feature",
   "properties": {
    "kind": "track",
    "seq": 2,
    "role": "sub"
   },
   "geometry": {
    "type": "LineString",
    "coordinates": [
     [
      139.6786404,
      35.6684625
     ],
     [
      139.6787229,
      35.6685043
     ],
     [
      139.6793209,
      35.6688017
     ],
     [
      139.6797776,
      35.6690291
     ],
     [
      139.6809531,
      35.6696052
     ],
     [
      139.681124,
      35.6696813
     ],
     [
      139.6812891,
      35.6697484
     ],
     [
      139.6814244,
      35.6697976
     ],
     [
      139.6815593,
      35.6698469
     ],
     [
      139.6817164,
      35.6698965
     ],
     [
      139.681877,
      35.6699412
     ],
     [
      139.6820453,
      35.6699821
     ],
     [
      139.6822164,
      35.6700203
     ],
     [
      139.682382,
      35.6700492
     ],
     [
      139.6825742,
      35.6700782
     ],
     [
      139.6827252,
      35.6700966
     ],
     [
      139.6828763,
      35.6701125
     ],
     [
      139.683067,
      35.6701249
     ],
     [
      139.6832512,
      35.6701293
     ],
     [
      139.6834137,
      35.6701284
     ],
     [
      139.6835819,
      35.6701218
     ],
     [
      139.6837562,
      35.6701116
     ],
     [
      139.6839146,
      35.6700978
     ],
     [
      139.6840993,
      35.6700758
     ],
     [
      139.6842712,
      35.6700503
     ],
     [
      139.6845714,
      35.6700045
     ],
     [
      139.6849005,
      35.6699512
     ],
     [
      139.685224,
      35.6698995
     ],
     [
      139.6855421,
      35.6698484
     ],
     [
      139.6859512,
      35.6697817
     ],
     [
      139.6862782,
      35.6697283
     ],
     [
      139.686601,
      35.669674
     ]
    ]
   }
  },
  {
   "type": "Feature",
   "properties": {
    "kind": "track",
    "seq": 3,
    "role": "main"
   },
   "geometry": {
    "type": "LineString",
    "coordinates": [
     [
      139.686601,
      35.669674
     ],
     [
      139.6873605,
      35.6695494
     ],
     [
      139.6886298,
      35.6693359
     ],
     [
      139.6901201,
      35.6690693
     ],
     [
      139.6908563,
      35.6689854
     ],
     [
      139.6915951,
      35.668943
     ],
     [
      139.6916913,
      35.6689357
     ],
     [
      139.6923279,
      35.6689547
     ],
     [
      139.6925826,
      35.6689678
     ],
     [
      139.6927615,
      35.6689768
     ],
     [
      139.6929712,
      35.6689917
     ],
     [
      139.6992654,
      35.6696774
     ],
     [
      139.699608,
      35.669718
     ],
     [
      139.6998708,
      35.669756
     ],
     [
      139.7003969,
      35.6698339
     ],
     [
      139.7007678,
      35.6698761
     ],
     [
      139.7011424,
      35.66989
     ],
     [
      139.7015134,
      35.6698864
     ],
     [
      139.7018878,
      35.6698563
     ],
     [
      139.702253,
      35.6698042
     ],
     [
      139.7025982,
      35.6697325
     ],
     [
      139.7027928,
      35.6696809
     ],
     [
      139.7030283,
      35.6696113
     ],
     [
      139.7032518,
      35.6695301
     ],
     [
      139.7036799,
      35.6693282
     ],
     [
      139.7043842,
      35.6690037
     ],
     [
      139.7048409,
      35.6687925
     ],
     [
      139.7052775,
      35.6685881
     ],
     [
      139.7056592,
      35.6684007
     ],
     [
      139.7062653,
      35.6681318
     ],
     [
      139.7070707,
      35.6677763
     ],
     [
      139.707393,
      35.6676278
     ],
     [
      139.7077174,
      35.6674658
     ],
     [
      139.7080274,
      35.6673037
     ],
     [
      139.7082755,
      35.6671774
     ],
     [
      139.7095655,
      35.6665744
     ],
     [
      139.7099564,
      35.6663969
     ],
     [
      139.7106156,
      35.6661195
     ],
     [
      139.7110166,
      35.6659535
     ],
     [
      139.7115904,
      35.6657144
     ],
     [
      139.7121383,
      35.6654597
     ],
     [
      139.7124388,
      35.6652821
     ],
     [
      139.7125075,
      35.665246
     ],
     [
      139.7129866,
      35.6649178
     ],
     [
      139.7130395,
      35.6648886
     ],
     [
      139.7132447,
      35.664746
     ],
     [
      139.7135264,
      35.6645673
     ],
     [
      139.7144517,
      35.6639746
     ],
     [
      139.7161605,
      35.6628431
     ],
     [
      139.7163974,
      35.6627515
     ],
     [
      139.7167179,
      35.6626964
     ],
     [
      139.7170108,
      35.6626701
     ],
     [
      139.7171174,
      35.6626781
     ],
     [
      139.717224,
      35.6627013
     ],
     [
      139.7173784,
      35.6627971
     ],
     [
      139.7185029,
      35.6637411
     ],
     [
      139.718693,
      35.6638685
     ],
     [
      139.7188581,
      35.6639583
     ],
     [
      139.7190123,
      35.6640109
     ],
     [
      139.7192258,
      35.6640803
     ],
     [
      139.7244196,
      35.6655233
     ],
     [
      139.7246882,
      35.6656082
     ],
     [
      139.725005,
      35.6657309
     ],
     [
      139.7252024,
      35.665842
     ],
     [
      139.7257871,
      35.6662394
     ],
     [
      139.726291,
      35.6667086
     ],
     [
      139.7267508,
      35.6671885
     ],
     [
      139.7273461,
      35.6677227
     ],
     [
      139.7274378,
      35.6678014
     ],
     [
      139.7275316,
      35.66786
     ],
     [
      139.7276354,
      35.6679107
     ],
     [
      139.7277663,
      35.6679632
     ],
     [
      139.7303091,
      35.6687681
     ],
     [
      139.7315613,
      35.6688755
     ],
     [
      139.7320375,
      35.6689766
     ],
     [
      139.7328852,
      35.6695931
     ],
     [
      139.7335926,
      35.6701031
     ],
     [
      139.733665,
      35.6701516
     ],
     [
      139.7341443,
      35.6704728
     ],
     [
      139.7349883,
      35.6709576
     ],
     [
      139.7352291,
      35.6712049
     ],
     [
      139.7353441,
      35.6713062
     ],
     [
      139.7356278,
      35.6715974
     ],
     [
      139.7356755,
      35.6716458
     ],
     [
      139.7362799,
      35.672188
     ],
     [
      139.7364006,
      35.6722838
     ],
     [
      139.7367409,
      35.6725109
     ],
     [
      139.7369648,
      35.6726632
     ],
     [
      139.7371727,
      35.6727912
     ],
     [
      139.7376771,
      35.6729995
     ],
     [
      139.7383918,
      35.6732322
     ],
     [
      139.7388921,
      35.673372
     ],
     [
      139.7392501,
      35.6734446
     ],
     [
      139.7396363,
      35.6735078
     ],
     [
      139.7402172,
      35.6735674
     ],
     [
      139.7405806,
      35.6736001
     ],
     [
      139.7409578,
      35.6736234
     ],
     [
      139.7416941,
      35.6737131
     ]
    ]
   }
  },
  {
   "type": "Feature",
   "properties": {
    "kind": "track",
    "seq": 4,
    "role": "hybrid"
   },
   "geometry": {
    "type": "LineString",
    "coordinates": [
     [
      139.7416941,
      35.6737131
     ],
     [
      139.7420678,
      35.6737442
     ],
     [
      139.7424132,
      35.6737649
     ],
     [
      139.7427386,
      35.6737661
     ],
     [
      139.743424,
      35.6737567
     ],
     [
      139.7440526,
      35.6738049
     ]
    ]
   }
  },
  {
   "type": "Feature",
   "properties": {
    "kind": "track",
    "seq": 5,
    "role": "main"
   },
   "geometry": {
    "type": "LineString",
    "coordinates": [
     [
      139.7440526,
      35.6738049
     ],
     [
      139.7449627,
      35.6739721
     ],
     [
      139.7453655,
      35.6740536
     ],
     [
      139.7458872,
      35.6741495
     ],
     [
      139.7462574,
      35.6741887
     ],
     [
      139.7466436,
      35.6741931
     ],
     [
      139.747003,
      35.6741822
     ],
     [
      139.7473597,
      35.6741517
     ],
     [
      139.747636,
      35.6741103
     ],
     [
      139.7480169,
      35.6740166
     ],
     [
      139.7484809,
      35.6738641
     ],
     [
      139.7487907,
      35.6737268
     ],
     [
      139.7490469,
      35.6736233
     ],
     [
      139.7493821,
      35.6734588
     ],
     [
      139.7497751,
      35.673279
     ],
     [
      139.7499475,
      35.6732096
     ],
     [
      139.7501305,
      35.6731374
     ],
     [
      139.7506318,
      35.672952
     ],
     [
      139.7510505,
      35.6727986
     ],
     [
      139.751661,
      35.6725562
     ],
     [
      139.7527671,
      35.6720336
     ],
     [
      139.7530803,
      35.6718754
     ],
     [
      139.7539352,
      35.6714956
     ],
     [
      139.7545837,
      35.6712275
     ],
     [
      139.7546433,
      35.6712069
     ],
     [
      139.7549204,
      35.6711235
     ],
     [
      139.7552742,
      35.6710631
     ],
     [
      139.7556645,
      35.6710735
     ],
     [
      139.7557376,
      35.671087
     ],
     [
      139.7560004,
      35.6711351
     ],
     [
      139.756081,
      35.6711611
     ],
     [
      139.7563388,
      35.671262
     ],
     [
      139.7564109,
      35.6713028
     ],
     [
      139.7566165,
      35.6714711
     ],
     [
      139.7568656,
      35.6716721
     ],
     [
      139.7569232,
      35.671732
     ],
     [
      139.7570397,
      35.6719255
     ],
     [
      139.7570868,
      35.6720109
     ],
     [
      139.7573499,
      35.6724877
     ],
     [
      139.7575004,
      35.6727729
     ],
     [
      139.7578274,
      35.6732538
     ],
     [
      139.7583081,
      35.6737764
     ],
     [
      139.7588228,
      35.6742722
     ],
     [
      139.759324,
      35.674786
     ],
     [
      139.7595474,
      35.6750409
     ],
     [
      139.7597588,
      35.6752663
     ],
     [
      139.7599552,
      35.675523
     ],
     [
      139.7600944,
      35.6757406
     ],
     [
      139.7606622,
      35.6772615
     ],
     [
      139.7607486,
      35.6776142
     ],
     [
      139.7609293,
      35.678199
     ],
     [
      139.7612677,
      35.6792015
     ],
     [
      139.7613282,
      35.6794417
     ],
     [
      139.7613504,
      35.6795129
     ],
     [
      139.7616204,
      35.6803364
     ],
     [
      139.7619387,
      35.6813136
     ],
     [
      139.762036,
      35.6815929
     ],
     [
      139.7622812,
      35.6822128
     ],
     [
      139.7626909,
      35.683318
     ],
     [
      139.7629199,
      35.6841281
     ],
     [
      139.7630961,
      35.6848264
     ],
     [
      139.7632042,
      35.6854024
     ],
     [
      139.7632276,
      35.6855027
     ],
     [
      139.7635639,
      35.6867793
     ],
     [
      139.7637529,
      35.6873943
     ],
     [
      139.7637809,
      35.6874807
     ],
     [
      139.7640207,
      35.6882257
     ],
     [
      139.7642536,
      35.6889495
     ],
     [
      139.7644381,
      35.6896613
     ],
     [
      139.7644768,
      35.6900153
     ],
     [
      139.7645202,
      35.6904114
     ],
     [
      139.7652072,
      35.6939858
     ],
     [
      139.765234,
      35.6943539
     ],
     [
      139.7650175,
      35.6956441
     ],
     [
      139.7650123,
      35.6958384
     ],
     [
      139.7650232,
      35.6960089
     ],
     [
      139.7651003,
      35.6963014
     ],
     [
      139.7654916,
      35.6972172
     ],
     [
      139.7658352,
      35.6978899
     ],
     [
      139.7658868,
      35.6979719
     ],
     [
      139.7659721,
      35.6981468
     ],
     [
      139.7662103,
      35.6986037
     ],
     [
      139.7669111,
      35.6997724
     ],
     [
      139.7676193,
      35.7004598
     ],
     [
      139.7681895,
      35.700947
     ],
     [
      139.7686669,
      35.7013549
     ],
     [
      139.7690819,
      35.7018665
     ],
     [
      139.7693002,
      35.7022724
     ],
     [
      139.7694555,
      35.7025687
     ],
     [
      139.7695555,
      35.7030021
     ],
     [
      139.7697307,
      35.7037912
     ],
     [
      139.7698817,
      35.7062674
     ],
     [
      139.769903,
      35.7065635
     ],
     [
      139.7699318,
      35.7073337
     ],
     [
      139.7699319,
      35.7074413
     ],
     [
      139.7698804,
      35.7080418
     ],
     [
      139.7696891,
      35.709457
     ],
     [
      139.7694933,
      35.7102193
     ],
     [
      139.7691876,
      35.7110948
     ],
     [
      139.7685868,
      35.712811
     ],
     [
      139.7682622,
      35.7137823
     ],
     [
      139.7677284,
      35.7147492
     ],
     [
      139.7664564,
      35.7166246
     ],
     [
      139.7664002,
      35.7166803
     ],
     [
      139.765722,
      35.7173532
     ],
     [
      139.7649679,
      35.7181352
     ],
     [
      139.7627446,
      35.7204408
     ],
     [
      139.7624621,
      35.7207537
     ],
     [
      139.7623168,
      35.7209649
     ],
     [
      139.7622315,
      35.7211829
     ],
     [
      139.7621934,
      35.7213822
     ],
     [
      139.7622441,
      35.7218233
     ],
     [
      139.7628253,
      35.7239959
     ],
     [
      139.7632712,
      35.7255471
     ],
     [
      139.7636453,
      35.7267158
     ],
     [
      139.7637143,
      35.727089
     ],
     [
      139.7637108,
      35.7273607
     ],
     [
      139.7633422,
      35.7288282
     ],
     [
      139.7633347,
      35.729152
     ],
     [
      139.7633537,
      35.7294225
     ],
     [
      139.7634289,
      35.7297309
     ],
     [
      139.7635498,
      35.7300697
     ],
     [
      139.763669,
      35.7303238
     ],
     [
      139.763858,
      35.7305639
     ],
     [
      139.7640881,
      35.7307968
     ],
     [
      139.7643272,
      35.7310211
     ],
     [
      139.7647769,
      35.7313271
     ],
     [
      139.7652675,
      35.7315927
     ],
     [
      139.7660445,
      35.7319536
     ],
     [
      139.7672246,
      35.732583
     ],
     [
      139.7675667,
      35.7327526
     ],
     [
      139.7683804,
      35.7330901
     ],
     [
      139.7697076,
      35.7336242
     ],
     [
      139.7712794,
      35.7342806
     ],
     [
      139.77367,
      35.735269
     ],
     [
      139.7748489,
      35.7357403
     ],
     [
      139.7754787,
      35.7361468
     ],
     [
      139.7766103,
      35.7370784
     ],
     [
      139.7768464,
      35.7373109
     ],
     [
      139.7793351,
      35.741076
     ],
     [
      139.7796262,
      35.7415163
     ],
     [
      139.780081,
      35.7421821
     ],
     [
      139.7804528,
      35.7427407
     ],
     [
      139.7810404,
      35.7436182
     ],
     [
      139.7813581,
      35.744061
     ],
     [
      139.7815445,
      35.7443146
     ],
     [
      139.7817713,
      35.74456
     ],
     [
      139.7820906,
      35.7448202
     ],
     [
      139.7824216,
      35.7450603
     ],
     [
      139.7826926,
      35.7452043
     ],
     [
      139.7830197,
      35.7453824
     ],
     [
      139.7833651,
      35.7455035
     ],
     [
      139.783752,
      35.7456284
     ],
     [
      139.7841071,
      35.7457044
     ],
     [
      139.7844417,
      35.7457632
     ],
     [
      139.7848218,
      35.74581
     ],
     [
      139.7855677,
      35.7458244
     ],
     [
      139.7867131,
      35.7458222
     ],
     [
      139.7870844,
      35.74585
     ],
     [
      139.7874346,
      35.7459027
     ],
     [
      139.7878128,
      35.7459746
     ],
     [
      139.7881776,
      35.7460551
     ],
     [
      139.7885346,
      35.7461404
     ],
     [
      139.7888991,
      35.746214
     ],
     [
      139.7892468,
      35.7462794
     ],
     [
      139.7896287,
      35.7463294
     ],
     [
      139.7900002,
      35.7463596
     ],
     [
      139.7903515,
      35.7463672
     ],
     [
      139.7907338,
      35.7463795
     ],
     [
      139.7911441,
      35.7463882
     ],
     [
      139.7918811,
      35.746371
     ],
     [
      139.7938266,
      35.7463468
     ],
     [
      139.7945071,
      35.7463501
     ],
     [
      139.7952586,
      35.7463882
     ],
     [
      139.796015,
      35.7464665
     ],
     [
      139.7967151,
      35.7465406
     ],
     [
      139.7975385,
      35.7465776
     ],
     [
      139.7989951,
      35.7466345
     ],
     [
      139.8016855,
      35.7467398
     ],
     [
      139.802058,
      35.746767
     ],
     [
      139.8024577,
      35.746854
     ],
     [
      139.8027661,
      35.7469585
     ],
     [
      139.8030451,
      35.7471109
     ],
     [
      139.803383,
      35.7473264
     ],
     [
      139.8036218,
      35.7475572
     ],
     [
      139.8038685,
      35.7478815
     ],
     [
      139.8040871,
      35.7484301
     ],
     [
      139.8043402,
      35.7493529
     ],
     [
      139.8044308,
      35.7496771
     ],
     [
      139.8045927,
      35.7502913
     ],
     [
      139.8047429,
      35.7507332
     ],
     [
      139.8049387,
      35.7513579
     ],
     [
      139.805274,
      35.752049
     ],
     [
      139.8054352,
      35.7523538
     ]
    ]
   }
  },
  {
   "type": "Feature",
   "properties": {
    "kind": "track",
    "seq": 6,
    "role": "sub"
   },
   "geometry": {
    "type": "LineString",
    "coordinates": [
     [
      139.8054352,
      35.7523538
     ],
     [
      139.8057362,
      35.7529316
     ],
     [
      139.8058101,
      35.7530715
     ],
     [
      139.805911,
      35.7532618
     ],
     [
      139.8061298,
      35.7536784
     ],
     [
      139.8063088,
      35.754006
     ],
     [
      139.8064397,
      35.7542204
     ],
     [
      139.8065066,
      35.75433
     ],
     [
      139.8067326,
      35.7546503
     ],
     [
      139.807025,
      35.7550305
     ],
     [
      139.8101592,
      35.7587594
     ],
     [
      139.8102441,
      35.7588466
     ],
     [
      139.810329,
      35.7589294
     ],
     [
      139.8106872,
      35.7592403
     ],
     [
      139.8109276,
      35.7594511
     ],
     [
      139.8113345,
      35.7597655
     ],
     [
      139.8117538,
      35.7600658
     ],
     [
      139.8121411,
      35.7603148
     ],
     [
      139.8124962,
      35.7605279
     ],
     [
      139.8127852,
      35.7606684
     ],
     [
      139.8130884,
      35.7607873
     ],
     [
      139.8133602,
      35.7608845
     ],
     [
      139.8136253,
      35.7609662
     ],
     [
      139.8138401,
      35.7610154
     ],
     [
      139.814365,
      35.7610799
     ],
     [
      139.8151147,
      35.7611507
     ],
     [
      139.8153922,
      35.7611767
     ],
     [
      139.8180901,
      35.7614294
     ]
    ]
   }
  },
  {
   "type": "Feature",
   "properties": {
    "kind": "track",
    "seq": 7,
    "role": "sub"
   },
   "geometry": {
    "type": "LineString",
    "coordinates": [
     [
      139.8180901,
      35.7614294
     ],
     [
      139.8186266,
      35.7614981
     ],
     [
      139.8195682,
      35.761599
     ],
     [
      139.8200905,
      35.7616512
     ],
     [
      139.8207597,
      35.761711
     ],
     [
      139.8213069,
      35.7617611
     ],
     [
      139.8217589,
      35.7618111
     ],
     [
      139.8223199,
      35.7618659
     ]
    ]
   }
  },
  {
   "type": "Feature",
   "properties": {
    "kind": "track",
    "seq": 8,
    "role": "sub"
   },
   "geometry": {
    "type": "LineString",
    "coordinates": [
     [
      139.8223199,
      35.7618659
     ],
     [
      139.8225012,
      35.7618886
     ],
     [
      139.8226779,
      35.7619134
     ],
     [
      139.8228923,
      35.7619491
     ],
     [
      139.823084,
      35.7619882
     ],
     [
      139.823286,
      35.7620307
     ],
     [
      139.8235171,
      35.7620834
     ],
     [
      139.8236772,
      35.7621175
     ],
     [
      139.8238951,
      35.7621504
     ],
     [
      139.8241896,
      35.762188
     ],
     [
      139.8257487,
      35.7623519
     ],
     [
      139.8260869,
      35.7623896
     ],
     [
      139.8265515,
      35.7624307
     ],
     [
      139.8269035,
      35.7624431
     ],
     [
      139.8270633,
      35.7624478
     ],
     [
      139.8271976,
      35.7624529
     ],
     [
      139.8280057,
      35.7625206
     ],
     [
      139.8286338,
      35.7625844
     ],
     [
      139.8292714,
      35.7626519
     ]
    ]
   }
  },
  {
   "type": "Feature",
   "properties": {
    "kind": "station",
    "name": "代々木上原"
   },
   "geometry": {
    "type": "Point",
    "coordinates": [
     139.67968,
     35.66906
    ]
   }
  },
  {
   "type": "Feature",
   "properties": {
    "kind": "station",
    "name": "代々木公園"
   },
   "geometry": {
    "type": "Point",
    "coordinates": [
     139.689791,
     35.669104
    ]
   }
  },
  {
   "type": "Feature",
   "properties": {
    "kind": "station",
    "name": "明治神宮前〈原宿〉"
   },
   "geometry": {
    "type": "Point",
    "coordinates": [
     139.703944,
     35.669123
    ]
   }
  },
  {
   "type": "Feature",
   "properties": {
    "kind": "station",
    "name": "表参道"
   },
   "geometry": {
    "type": "Point",
    "coordinates": [
     139.711346,
     35.665652
    ]
   }
  },
  {
   "type": "Feature",
   "properties": {
    "kind": "station",
    "name": "乃木坂"
   },
   "geometry": {
    "type": "Point",
    "coordinates": [
     139.726229,
     35.666592
    ]
   }
  },
  {
   "type": "Feature",
   "properties": {
    "kind": "station",
    "name": "赤坂"
   },
   "geometry": {
    "type": "Point",
    "coordinates": [
     139.736413,
     35.672104
    ]
   }
  },
  {
   "type": "Feature",
   "properties": {
    "kind": "station",
    "name": "国会議事堂前"
   },
   "geometry": {
    "type": "Point",
    "coordinates": [
     139.743188,
     35.673566
    ]
   }
  },
  {
   "type": "Feature",
   "properties": {
    "kind": "station",
    "name": "霞ケ関"
   },
   "geometry": {
    "type": "Point",
    "coordinates": [
     139.75177,
     35.67256
    ]
   }
  },
  {
   "type": "Feature",
   "properties": {
    "kind": "station",
    "name": "日比谷"
   },
   "geometry": {
    "type": "Point",
    "coordinates": [
     139.758765,
     35.673955
    ]
   }
  },
  {
   "type": "Feature",
   "properties": {
    "kind": "station",
    "name": "二重橋前〈丸の内〉"
   },
   "geometry": {
    "type": "Point",
    "coordinates": [
     139.76178,
     35.680505
    ]
   }
  },
  {
   "type": "Feature",
   "properties": {
    "kind": "station",
    "name": "大手町"
   },
   "geometry": {
    "type": "Point",
    "coordinates": [
     139.763285,
     35.68525
    ]
   }
  },
  {
   "type": "Feature",
   "properties": {
    "kind": "station",
    "name": "新御茶ノ水"
   },
   "geometry": {
    "type": "Point",
    "coordinates": [
     139.76545,
     35.696925
    ]
   }
  },
  {
   "type": "Feature",
   "properties": {
    "kind": "station",
    "name": "湯島"
   },
   "geometry": {
    "type": "Point",
    "coordinates": [
     139.769981,
     35.706805
    ]
   }
  },
  {
   "type": "Feature",
   "properties": {
    "kind": "station",
    "name": "根津"
   },
   "geometry": {
    "type": "Point",
    "coordinates": [
     139.76575,
     35.717325
    ]
   }
  },
  {
   "type": "Feature",
   "properties": {
    "kind": "station",
    "name": "千駄木"
   },
   "geometry": {
    "type": "Point",
    "coordinates": [
     139.763303,
     35.725746
    ]
   }
  },
  {
   "type": "Feature",
   "properties": {
    "kind": "station",
    "name": "西日暮里"
   },
   "geometry": {
    "type": "Point",
    "coordinates": [
     139.76689,
     35.732355
    ]
   }
  },
  {
   "type": "Feature",
   "properties": {
    "kind": "station",
    "name": "町屋"
   },
   "geometry": {
    "type": "Point",
    "coordinates": [
     139.780047,
     35.742068
    ]
   }
  },
  {
   "type": "Feature",
   "properties": {
    "kind": "station",
    "name": "北千住"
   },
   "geometry": {
    "type": "Point",
    "coordinates": [
     139.804403,
     35.7492
    ]
   }
  },
  {
   "type": "Feature",
   "properties": {
    "kind": "station",
    "name": "綾瀬"
   },
   "geometry": {
    "type": "Point",
    "coordinates": [
     139.82481,
     35.76212
    ]
   }
  }
 ]
}
