{
 "type": "FeatureCollection",
 "metadata": {
  "line_id": "tokyo-metro.fukutoshin",
  "source": {
   "name": "mini-tokyo-3d (4ad6ca6, 2026-06-03)",
   "url": "https://github.com/nagix/mini-tokyo-3d",
   "license": "MIT (c) Akihiko Kusanagi",
   "retrieved": "2026-06-03",
   "note": "国土数値情報 N02 へ到達できない環境向けのブートストラップ。extract-n02 で再抽出して差し替え可能。"
  }
 },
 "features": [
  {
   "type": "Feature",
   "properties": {
    "kind": "track",
    "seq": 0,
    "role": "sub"
   },
   "geometry": {
    "type": "LineString",
    "coordinates": [
     [
      139.6117478,
      35.7888071
     ],
     [
      139.6125592,
      35.7884719
     ],
     [
      139.6148268,
      35.7875377
     ],
     [
      139.6158769,
      35.7871102
     ],
     [
      139.617022,
      35.7866479
     ],
     [
      139.6176909,
      35.7863684
     ],
     [
      139.6185255,
      35.7860539
     ],
     [
      139.6192524,
      35.785788
     ],
     [
      139.6208602,
      35.7851484
     ],
     [
      139.6216042,
      35.7848429
     ],
     [
      139.6220067,
      35.7846679
     ],
     [
      139.6222072,
      35.7845761
     ],
     [
      139.6224699,
      35.7844494
     ],
     [
      139.622758,
      35.7843021
     ],
     [
      139.6231074,
      35.7841134
     ],
     [
      139.6234777,
      35.7838944
     ],
     [
      139.6238797,
      35.7836465
     ],
     [
      139.6242563,
      35.7833962
     ],
     [
      139.624984,
      35.7828936
     ],
     [
      139.6257321,
      35.7823659
     ],
     [
      139.6260842,
      35.7821353
     ],
     [
      139.6267273,
      35.7816869
     ],
     [
      139.6274345,
      35.7812165
     ]
    ]
   }
  },
  {
   "type": "Feature",
   "properties": {
    "kind": "track",
    "seq": 1,
    "role": "main"
   },
   "geometry": {
    "type": "LineString",
    "coordinates": [
     [
      139.6274345,
      35.7812165
     ],
     [
      139.6278774,
      35.7809179
     ],
     [
      139.6281361,
      35.7806997
     ],
     [
      139.6283484,
      35.7804414
     ],
     [
      139.6285028,
      35.7801597
     ],
     [
      139.6285967,
      35.7798716
     ],
     [
      139.6286436,
      35.7795652
     ],
     [
      139.6286607,
      35.7792643
     ],
     [
      139.6286909,
      35.7788164
     ],
     [
      139.6287203,
      35.7786489
     ],
     [
      139.6288335,
      35.7783572
     ],
     [
      139.6288832,
      35.7782545
     ],
     [
      139.6290812,
      35.7779727
     ],
     [
      139.6292863,
      35.7777691
     ],
     [
      139.6295531,
      35.7775728
     ],
     [
      139.6298326,
      35.7774168
     ],
     [
      139.6304202,
      35.777155
     ],
     [
      139.630508,
      35.7771159
     ],
     [
      139.6313339,
      35.776704
     ],
     [
      139.6325467,
      35.7760587
     ],
     [
      139.6340583,
      35.775316
     ],
     [
      139.6342538,
      35.7752019
     ],
     [
      139.6345701,
      35.7750182
     ],
     [
      139.6348892,
      35.7746729
     ],
     [
      139.6354694,
      35.7740222
     ],
     [
      139.6363604,
      35.7732111
     ],
     [
      139.6367875,
      35.7728251
     ],
     [
      139.6373366,
      35.7724815
     ],
     [
      139.6377833,
      35.7722415
     ],
     [
      139.6384261,
      35.7719335
     ],
     [
      139.6388379,
      35.7717826
     ],
     [
      139.6415177,
      35.7712077
     ],
     [
      139.6421852,
      35.771026
     ],
     [
      139.6425199,
      35.7709005
     ],
     [
      139.6428841,
      35.7707122
     ],
     [
      139.6441677,
      35.769971
     ],
     [
      139.645414,
      35.7692265
     ],
     [
      139.6461525,
      35.7689083
     ],
     [
      139.6484653,
      35.7682904
     ],
     [
      139.6491029,
      35.7681326
     ],
     [
      139.6494397,
      35.7680227
     ],
     [
      139.6498578,
      35.7675994
     ],
     [
      139.6500789,
      35.7672049
     ],
     [
      139.6502687,
      35.7665718
     ],
     [
      139.6507614,
      35.7643364
     ],
     [
      139.6512403,
      35.7604876
     ],
     [
      139.6514466,
      35.7598226
     ],
     [
      139.6516245,
      35.7595067
     ],
     [
      139.6519094,
      35.7592727
     ],
     [
      139.6529979,
      35.758413
     ],
     [
      139.6536345,
      35.7580163
     ],
     [
      139.6542458,
      35.7576942
     ],
     [
      139.6542953,
      35.7576628
     ],
     [
      139.6543405,
      35.7576342
     ],
     [
      139.6560571,
      35.7565467
     ],
     [
      139.6573027,
      35.7558273
     ],
     [
      139.6580634,
      35.7553099
     ],
     [
      139.6585589,
      35.7549281
     ],
     [
      139.6601986,
      35.7536006
     ],
     [
      139.6640979,
      35.7504713
     ],
     [
      139.6647104,
      35.7500477
     ],
     [
      139.6650785,
      35.7498601
     ],
     [
      139.6664962,
      35.7492131
     ],
     [
      139.6665662,
      35.7491811
     ],
     [
      139.6695435,
      35.7479203
     ],
     [
      139.6726742,
      35.7465128
     ],
     [
      139.6743839,
      35.7457502
     ],
     [
      139.6755751,
      35.7452126
     ],
     [
      139.675946,
      35.745076
     ],
     [
      139.6762788,
      35.7449595
     ]
    ]
   }
  },
  {
   "type": "Feature",
   "properties": {
    "kind": "track",
    "seq": 2,
    "role": "sub"
   },
   "geometry": {
    "type": "LineString",
    "coordinates": [
     [
      139.6762788,
      35.7449595
     ],
     [
      139.6782181,
      35.7440746
     ],
     [
      139.679255,
      35.7435247
     ],
     [
      139.6795387,
      35.7433936
     ],
     [
      139.6811021,
      35.7426576
     ],
     [
      139.6816205,
      35.7424536
     ],
     [
      139.6821875,
      35.7421859
     ],
     [
      139.6830798,
      35.7417733
     ],
     [
      139.6841616,
      35.7412613
     ],
     [
      139.6852657,
      35.7407363
     ],
     [
      139.6859027,
      35.7404313
     ],
     [
      139.6862247,
      35.7402778
     ],
     [
      139.6867516,
      35.7400216
     ],
     [
      139.6874895,
      35.7396521
     ],
     [
      139.6878063,
      35.7394744
     ],
     [
      139.6880969,
      35.7393051
     ],
     [
      139.6886783,
      35.7389367
     ],
     [
      139.6895157,
      35.7382989
     ],
     [
      139.6901377,
      35.737811
     ],
     [
      139.6918018,
      35.7364739
     ],
     [
      139.6929726,
      35.7355747
     ],
     [
      139.6941385,
      35.734702
     ],
     [
      139.694387,
      35.7345415
     ],
     [
      139.6946339,
      35.7343928
     ],
     [
      139.6949753,
      35.7342082
     ],
     [
      139.6954528,
      35.7340014
     ],
     [
      139.6959931,
      35.7338049
     ],
     [
      139.6965082,
      35.7336599
     ],
     [
      139.6970369,
      35.7335516
     ],
     [
      139.6977208,
      35.7334349
     ],
     [
      139.6978519,
      35.7334175
     ],
     [
      139.6987138,
      35.7332813
     ],
     [
      139.6996284,
      35.7331211
     ],
     [
      139.7002601,
      35.7329577
     ],
     [
      139.7008046,
      35.7328727
     ],
     [
      139.7017112,
      35.732864
     ],
     [
      139.7037335,
      35.7328771
     ],
     [
      139.7040111,
      35.732829
     ],
     [
      139.7042914,
      35.7327443
     ],
     [
      139.7047555,
      35.7325592
     ],
     [
      139.7057344,
      35.7321455
     ],
     [
      139.7063057,
      35.7319963
     ],
     [
      139.7071803,
      35.7318037
     ],
     [
      139.7081263,
      35.7315566
     ],
     [
      139.7085034,
      35.7314227
     ],
     [
      139.7089976,
      35.7312233
     ],
     [
      139.7096456,
      35.730932
     ],
     [
      139.7106926,
      35.730555
     ],
     [
      139.7117736,
      35.7301854
     ],
     [
      139.7123946,
      35.7299747
     ],
     [
      139.7127752,
      35.729842
     ]
    ]
   }
  },
  {
   "type": "Feature",
   "properties": {
    "kind": "track",
    "seq": 3,
    "role": "main"
   },
   "geometry": {
    "type": "LineString",
    "coordinates": [
     [
      139.7127752,
      35.729842
     ],
     [
      139.7130161,
      35.7297506
     ],
     [
      139.7134465,
      35.7295658
     ],
     [
      139.7138444,
      35.7293546
     ],
     [
      139.7154897,
      35.7283461
     ],
     [
      139.7166744,
      35.727603
     ],
     [
      139.7169698,
      35.7272837
     ],
     [
      139.7171109,
      35.7270639
     ],
     [
      139.7172097,
      35.7268784
     ],
     [
      139.7172782,
      35.7266168
     ],
     [
      139.7173377,
      35.7262666
     ],
     [
      139.7174289,
      35.724664
     ],
     [
      139.7174332,
      35.7242408
     ],
     [
      139.7174057,
      35.7240009
     ],
     [
      139.7173483,
      35.7237355
     ],
     [
      139.7173381,
      35.7237039
     ],
     [
      139.7172725,
      35.723501
     ],
     [
      139.7171388,
      35.7232431
     ],
     [
      139.7170015,
      35.7229863
     ],
     [
      139.7161375,
      35.7218223
     ],
     [
      139.7160012,
      35.7216388
     ],
     [
      139.714893,
      35.7203689
     ],
     [
      139.7147443,
      35.7201652
     ],
     [
      139.7137937,
      35.7188629
     ],
     [
      139.7136629,
      35.7187167
     ],
     [
      139.713411,
      35.7184535
     ],
     [
      139.7132907,
      35.718319
     ],
     [
      139.7131161,
      35.7180707
     ],
     [
      139.7126814,
      35.7171186
     ],
     [
      139.7118731,
      35.7153844
     ],
     [
      139.7109821,
      35.7136833
     ],
     [
      139.7104329,
      35.712793
     ],
     [
      139.7102567,
      35.7122687
     ],
     [
      139.710052,
      35.7114525
     ],
     [
      139.7098034,
      35.710718
     ],
     [
      139.7093922,
      35.7093585
     ],
     [
      139.709157,
      35.7085575
     ],
     [
      139.7090644,
      35.7079175
     ],
     [
      139.7088933,
      35.706501
     ],
     [
      139.7086868,
      35.7048784
     ],
     [
      139.7084819,
      35.7034275
     ],
     [
      139.7082182,
      35.7019537
     ],
     [
      139.7080844,
      35.700995
     ],
     [
      139.7080317,
      35.7005334
     ],
     [
      139.7077279,
      35.6989445
     ],
     [
      139.7074909,
      35.6977314
     ],
     [
      139.70733,
      35.6969526
     ],
     [
      139.7070143,
      35.6953094
     ],
     [
      139.7069415,
      35.6948027
     ],
     [
      139.7068226,
      35.6942488
     ],
     [
      139.7067376,
      35.6939662
     ],
     [
      139.7065839,
      35.6936497
     ],
     [
      139.7060966,
      35.6928182
     ],
     [
      139.7056182,
      35.6919958
     ],
     [
      139.7053805,
      35.6915809
     ],
     [
      139.705221,
      35.6913113
     ],
     [
      139.7048163,
      35.6906889
     ],
     [
      139.7037417,
      35.6890974
     ],
     [
      139.7031971,
      35.6884308
     ],
     [
      139.7030522,
      35.6882043
     ],
     [
      139.7029477,
      35.6879058
     ],
     [
      139.7029281,
      35.6876046
     ],
     [
      139.7029665,
      35.6873002
     ],
     [
      139.703071,
      35.686969
     ],
     [
      139.7033346,
      35.6860722
     ],
     [
      139.7036021,
      35.6852218
     ],
     [
      139.7037014,
      35.6849626
     ],
     [
      139.7038435,
      35.6846771
     ],
     [
      139.7040017,
      35.6844288
     ],
     [
      139.704321,
      35.6838754
     ],
     [
      139.7044444,
      35.6835857
     ],
     [
      139.704565,
      35.6832349
     ],
     [
      139.7046027,
      35.682919
     ],
     [
      139.7046232,
      35.6826222
     ],
     [
      139.7046161,
      35.6823766
     ],
     [
      139.7045919,
      35.6817535
     ],
     [
      139.7045623,
      35.6811935
     ],
     [
      139.7045222,
      35.6808646
     ],
     [
      139.704498,
      35.6805138
     ],
     [
      139.7044981,
      35.6802006
     ],
     [
      139.704575,
      35.6798596
     ],
     [
      139.7046402,
      35.6796618
     ],
     [
      139.7047689,
      35.6794157
     ],
     [
      139.7048977,
      35.6792131
     ],
     [
      139.7054958,
      35.6784821
     ],
     [
      139.7059804,
      35.6778181
     ],
     [
      139.7060689,
      35.6776525
     ],
     [
      139.7062361,
      35.6772914
     ],
     [
      139.7063273,
      35.6769864
     ],
     [
      139.7064185,
      35.6766792
     ],
     [
      139.706641,
      35.6758142
     ],
     [
      139.706818,
      35.6752171
     ],
     [
      139.7069173,
      35.6749339
     ],
     [
      139.7071184,
      35.6745395
     ],
     [
      139.7074001,
      35.674095
     ],
     [
      139.7077461,
      35.6735677
     ],
     [
      139.7078937,
      35.6732801
     ],
     [
      139.7079983,
      35.6729773
     ],
     [
      139.7080404,
      35.6726477
     ],
     [
      139.7080412,
      35.6723649
     ],
     [
      139.707983,
      35.6720494
     ],
     [
      139.7078936,
      35.6717832
     ],
     [
      139.7077496,
      35.6714954
     ],
     [
      139.7075504,
      35.671221
     ],
     [
      139.7073388,
      35.6709681
     ],
     [
      139.7071376,
      35.6707359
     ],
     [
      139.7067145,
      35.6702141
     ],
     [
      139.7063153,
      35.6696872
     ],
     [
      139.7061372,
      35.669439
     ],
     [
      139.7059778,
      35.6691983
     ],
     [
      139.7057701,
      35.6689019
     ],
     [
      139.7055788,
      35.6686473
     ],
     [
      139.7053934,
      35.668396
     ],
     [
      139.7051951,
      35.6681261
     ],
     [
      139.7049423,
      35.6677992
     ],
     [
      139.7048145,
      35.6676378
     ],
     [
      139.7045828,
      35.6673489
     ],
     [
      139.7043917,
      35.6670931
     ],
     [
      139.7042046,
      35.6668345
     ],
     [
      139.7040313,
      35.6665928
     ],
     [
      139.7038353,
      35.6663354
     ],
     [
      139.7036021,
      35.6659913
     ],
     [
      139.7030055,
      35.6651779
     ],
     [
      139.7026357,
      35.6646332
     ],
     [
      139.7024917,
      35.6643678
     ],
     [
      139.7023675,
      35.6640884
     ],
     [
      139.7022736,
      35.6637855
     ],
     [
      139.7022047,
      35.6634852
     ],
     [
      139.7021699,
      35.6631803
     ],
     [
      139.7021699,
      35.6628643
     ],
     [
      139.7022248,
      35.6622544
     ],
     [
      139.7022441,
      35.6619245
     ],
     [
      139.7022764,
      35.6609165
     ],
     [
      139.7022935,
      35.6606054
     ],
     [
      139.7022939,
      35.6604185
     ],
     [
      139.7023121,
      35.6602078
     ],
     [
      139.7023262,
      35.6600454
     ],
     [
      139.7023389,
      35.6598983
     ],
     [
      139.7024073,
      35.659506
     ],
     [
      139.7024988,
      35.6591943
     ],
     [
      139.7025703,
      35.6589974
     ],
     [
      139.7027508,
      35.6586186
     ],
     [
      139.7028338,
      35.6584642
     ],
     [
      139.702958,
      35.6582793
     ]
    ]
   }
  },
  {
   "type": "Feature",
   "properties": {
    "kind": "station",
    "name": "和光市"
   },
   "geometry": {
    "type": "Point",
    "coordinates": [
     139.61286,
     35.78835
    ]
   }
  },
  {
   "type": "Feature",
   "properties": {
    "kind": "station",
    "name": "地下鉄成増"
   },
   "geometry": {
    "type": "Point",
    "coordinates": [
     139.63117,
     35.77674
    ]
   }
  },
  {
   "type": "Feature",
   "properties": {
    "kind": "station",
    "name": "地下鉄赤塚"
   },
   "geometry": {
    "type": "Point",
    "coordinates": [
     139.644001,
     35.76998
    ]
   }
  },
  {
   "type": "Feature",
   "properties": {
    "kind": "station",
    "name": "平和台"
   },
   "geometry": {
    "type": "Point",
    "coordinates": [
     139.6543,
     35.757555
    ]
   }
  },
  {
   "type": "Feature",
   "properties": {
    "kind": "station",
    "name": "氷川台"
   },
   "geometry": {
    "type": "Point",
    "coordinates": [
     139.66547,
     35.74962
    ]
   }
  },
  {
   "type": "Feature",
   "properties": {
    "kind": "station",
    "name": "小竹向原"
   },
   "geometry": {
    "type": "Point",
    "coordinates": [
     139.67952,
     35.743395
    ]
   }
  },
  {
   "type": "Feature",
   "properties": {
    "kind": "station",
    "name": "千川"
   },
   "geometry": {
    "type": "Point",
    "coordinates": [
     139.6894,
     35.738175
    ]
   }
  },
  {
   "type": "Feature",
   "properties": {
    "kind": "station",
    "name": "要町"
   },
   "geometry": {
    "type": "Point",
    "coordinates": [
     139.69848,
     35.733215
    ]
   }
  },
  {
   "type": "Feature",
   "properties": {
    "kind": "station",
    "name": "池袋"
   },
   "geometry": {
    "type": "Point",
    "coordinates": [
     139.7089439,
     35.7311425
    ]
   }
  },
  {
   "type": "Feature",
   "properties": {
    "kind": "station",
    "name": "雑司が谷"
   },
   "geometry": {
    "type": "Point",
    "coordinates": [
     139.714715,
     35.7202
    ]
   }
  },
  {
   "type": "Feature",
   "properties": {
    "kind": "station",
    "name": "西早稲田"
   },
   "geometry": {
    "type": "Point",
    "coordinates": [
     139.70912,
     35.707806
    ]
   }
  },
  {
   "type": "Feature",
   "properties": {
    "kind": "station",
    "name": "東新宿"
   },
   "geometry": {
    "type": "Point",
    "coordinates": [
     139.707846,
     35.699829
    ]
   }
  },
  {
   "type": "Feature",
   "properties": {
    "kind": "station",
    "name": "新宿三丁目"
   },
   "geometry": {
    "type": "Point",
    "coordinates": [
     139.704727,
     35.690609
    ]
   }
  },
  {
   "type": "Feature",
   "properties": {
    "kind": "station",
    "name": "北参道"
   },
   "geometry": {
    "type": "Point",
    "coordinates": [
     139.705469,
     35.678503
    ]
   }
  },
  {
   "type": "Feature",
   "properties": {
    "kind": "station",
    "name": "明治神宮前〈原宿〉"
   },
   "geometry": {
    "type": "Point",
    "coordinates": [
     139.70524,
     35.668205
    ]
   }
  },
  {
   "type": "Feature",
   "properties": {
    "kind": "station",
    "name": "渋谷"
   },
   "geometry": {
    "type": "Point",
    "coordinates": [
     139.70257,
     35.659092
    ]
   }
  }
 ]
}
