{
 "type": "FeatureCollection",
 "metadata": {
  "line_id": "tokyo-metro.chiyoda-branch",
  "source": {
   "name": "mini-tokyo-3d (4ad6ca6, 2026-06-03)",
   "url": "https://github.com/nagix/mini-tokyo-3d",
   "license": "MIT (c) Akihiko Kusanagi",
   "retrieved": "2026-06-03",
   "note": "国土数値情報 N02 へ到達できない環境向けのブートストラップ。extract-n02 で再抽出して差し替え可能。"
  }
 },
 "features": [
  {
   "type": "Feature",
   "properties": {
    "kind": "track",
    "seq": 0,
    "role": "sub"
   },
   "geometry": {
    "type": "LineString",
    "coordinates": [
     [
      139.8223199,
      35.7618659
     ],
     [
      139.8225012,
      35.7618886
     ],
     [
      139.8226779,
      35.7619134
     ],
     [
      139.8228923,
      35.7619491
     ],
     [
      139.823084,
      35.7619882
     ],
     [
      139.823286,
      35.7620307
     ],
     [
      139.8235171,
      35.7620834
     ],
     [
      139.8236772,
      35.7621175
     ],
     [
      139.8238951,
      35.7621504
     ],
     [
      139.8241896,
      35.762188
     ],
     [
      139.8257487,
      35.7623519
     ],
     [
      139.8260869,
      35.7623896
     ],
     [
      139.8265515,
      35.7624307
     ],
     [
      139.8269035,
      35.7624431
     ],
     [
      139.8270633,
      35.7624478
     ],
     [
      139.8271976,
      35.7624529
     ],
     [
      139.8280057,
      35.7625206
     ],
     [
      139.8286338,
      35.7625844
     ],
     [
      139.8292714,
      35.7626519
     ]
    ]
   }
  },
  {
   "type": "Feature",
   "properties": {
    "kind": "track",
    "seq": 1,
    "role": "main"
   },
   "geometry": {
    "type": "LineString",
    "coordinates": [
     [
      139.8292714,
      35.7626519
     ],
     [
      139.829486,
      35.7626796
     ],
     [
      139.8296493,
      35.7627046
     ],
     [
      139.8297757,
      35.7627384
     ],
     [
      139.8299724,
      35.7628058
     ],
     [
      139.8301104,
      35.7628722
     ],
     [
      139.8302445,
      35.762948
     ],
     [
      139.8303722,
      35.7630446
     ],
     [
      139.8304794,
      35.7631301
     ],
     [
      139.8305648,
      35.7632192
     ],
     [
      139.8306348,
      35.7633089
     ],
     [
      139.8306878,
      35.7633876
     ],
     [
      139.8307523,
      35.7635045
     ],
     [
      139.8307872,
      35.7635807
     ],
     [
      139.8308196,
      35.763675
     ],
     [
      139.8308374,
      35.7637624
     ],
     [
      139.8308488,
      35.7638495
     ],
     [
      139.8308558,
      35.7639513
     ],
     [
      139.8308533,
      35.7640612
     ],
     [
      139.8308381,
      35.764165
     ],
     [
      139.8308089,
      35.7643042
     ],
     [
      139.8306315,
      35.7649598
     ],
     [
      139.8305473,
      35.7652347
     ],
     [
      139.8305246,
      35.7653426
     ],
     [
      139.8305053,
      35.7654284
     ],
     [
      139.8304841,
      35.7656335
     ],
     [
      139.8304779,
      35.7659175
     ],
     [
      139.8304679,
      35.7660905
     ],
     [
      139.8304524,
      35.766612
     ],
     [
      139.8303834,
      35.7694403
     ],
     [
      139.8303721,
      35.7699383
     ],
     [
      139.830373,
      35.7701681
     ],
     [
      139.8303805,
      35.7703782
     ],
     [
      139.8303946,
      35.770544
     ],
     [
      139.830418,
      35.7706648
     ],
     [
      139.8304461,
      35.7707832
     ],
     [
      139.8304786,
      35.7709018
     ],
     [
      139.8305132,
      35.7710163
     ],
     [
      139.8305508,
      35.7711272
     ],
     [
      139.831627,
      35.7738513
     ],
     [
      139.8317551,
      35.7741971
     ],
     [
      139.8318475,
      35.7744949
     ],
     [
      139.8318948,
      35.7746671
     ],
     [
      139.8319208,
      35.7747703
     ],
     [
      139.8319727,
      35.7750105
     ],
     [
      139.8320149,
      35.7752433
     ],
     [
      139.8320412,
      35.7754738
     ],
     [
      139.8320703,
      35.7757622
     ],
     [
      139.8320897,
      35.7760572
     ],
     [
      139.8321195,
      35.7769003
     ],
     [
      139.8321349,
      35.7773164
     ]
    ]
   }
  },
  {
   "type": "Feature",
   "properties": {
    "kind": "station",
    "name": "綾瀬"
   },
   "geometry": {
    "type": "Point",
    "coordinates": [
     139.82481,
     35.76212
    ]
   }
  },
  {
   "type": "Feature",
   "properties": {
    "kind": "station",
    "name": "北綾瀬"
   },
   "geometry": {
    "type": "Point",
    "coordinates": [
     139.832095,
     35.77689
    ]
   }
  }
 ]
}
