{
 "type": "FeatureCollection",
 "metadata": {
  "line_id": "tokyo-metro.hanzomon",
  "source": {
   "name": "mini-tokyo-3d (4ad6ca6, 2026-06-03)",
   "url": "https://github.com/nagix/mini-tokyo-3d",
   "license": "MIT (c) Akihiko Kusanagi",
   "retrieved": "2026-06-03",
   "note": "国土数値情報 N02 へ到達できない環境向けのブートストラップ。extract-n02 で再抽出して差し替え可能。"
  }
 },
 "features": [
  {
   "type": "Feature",
   "properties": {
    "kind": "track",
    "seq": 0,
    "role": "main"
   },
   "geometry": {
    "type": "LineString",
    "coordinates": [
     [
      139.7002522,
      35.6595598
     ],
     [
      139.7010546,
      35.6595254
     ],
     [
      139.701511,
      35.6595202
     ],
     [
      139.7020805,
      35.6595562
     ],
     [
      139.7025295,
      35.659601
     ],
     [
      139.7027545,
      35.6596284
     ],
     [
      139.703405,
      35.6597363
     ],
     [
      139.7038932,
      35.6598188
     ],
     [
      139.7046602,
      35.6599557
     ],
     [
      139.705309,
      35.6600828
     ],
     [
      139.7056018,
      35.6601751
     ],
     [
      139.7061018,
      35.6603632
     ]
    ]
   }
  },
  {
   "type": "Feature",
   "properties": {
    "kind": "track",
    "seq": 1,
    "role": "sub"
   },
   "geometry": {
    "type": "LineString",
    "coordinates": [
     [
      139.7061018,
      35.6603632
     ],
     [
      139.7069254,
      35.6608899
     ],
     [
      139.7084221,
      35.6618793
     ],
     [
      139.7101435,
      35.6629483
     ],
     [
      139.7105202,
      35.663215
     ],
     [
      139.7109005,
      35.6635442
     ],
     [
      139.7117644,
      35.6645055
     ],
     [
      139.711998,
      35.664814
     ],
     [
      139.7122804,
      35.6651381
     ],
     [
      139.7126344,
      35.6655211
     ],
     [
      139.7130917,
      35.6660159
     ],
     [
      139.7132994,
      35.6662546
     ],
     [
      139.7140843,
      35.6671245
     ],
     [
      139.7149185,
      35.6680463
     ],
     [
      139.7155649,
      35.6688481
     ],
     [
      139.7162032,
      35.6696435
     ],
     [
      139.7164515,
      35.6698831
     ],
     [
      139.7165836,
      35.6699817
     ],
     [
      139.7168933,
      35.6701721
     ],
     [
      139.7171998,
      35.6703312
     ],
     [
      139.7175738,
      35.6704802
     ],
     [
      139.718012,
      35.6706294
     ],
     [
      139.718722,
      35.670887
     ],
     [
      139.7196193,
      35.6712312
     ],
     [
      139.7203526,
      35.6715827
     ],
     [
      139.7211033,
      35.6718581
     ],
     [
      139.7220021,
      35.6721885
     ],
     [
      139.7228145,
      35.6724761
     ],
     [
      139.7229238,
      35.6725149
     ],
     [
      139.7235657,
      35.6727503
     ],
     [
      139.7238851,
      35.6728653
     ],
     [
      139.7242599,
      35.6730004
     ],
     [
      139.7251184,
      35.6732421
     ],
     [
      139.7262856,
      35.6735895
     ],
     [
      139.7274604,
      35.673948
     ],
     [
      139.7291258,
      35.6744523
     ],
     [
      139.7298771,
      35.6746714
     ],
     [
      139.7302218,
      35.6747738
     ],
     [
      139.7306679,
      35.6749069
     ],
     [
      139.7310091,
      35.6750179
     ],
     [
      139.7313157,
      35.6751345
     ],
     [
      139.7316844,
      35.6753048
     ],
     [
      139.7334498,
      35.6763741
     ]
    ]
   }
  },
  {
   "type": "Feature",
   "properties": {
    "kind": "track",
    "seq": 2,
    "role": "main"
   },
   "geometry": {
    "type": "LineString",
    "coordinates": [
     [
      139.7334498,
      35.6763741
     ],
     [
      139.7352104,
      35.6774577
     ],
     [
      139.736167,
      35.6779844
     ],
     [
      139.7363305,
      35.6780714
     ],
     [
      139.7368438,
      35.678227
     ],
     [
      139.7370386,
      35.6782622
     ],
     [
      139.7372161,
      35.6782882
     ],
     [
      139.7374529,
      35.6783154
     ],
     [
      139.7386335,
      35.6784077
     ],
     [
      139.7391436,
      35.6784649
     ],
     [
      139.7397257,
      35.6785477
     ],
     [
      139.740105,
      35.678649
     ],
     [
      139.7404981,
      35.6787983
     ],
     [
      139.7408176,
      35.6789858
     ],
     [
      139.7410812,
      35.679186
     ],
     [
      139.7413366,
      35.6794237
     ],
     [
      139.7415326,
      35.6796724
     ],
     [
      139.7416744,
      35.6799272
     ],
     [
      139.7417539,
      35.6801129
     ],
     [
      139.7417914,
      35.6802378
     ],
     [
      139.7418371,
      35.6803967
     ],
     [
      139.741842,
      35.6805102
     ],
     [
      139.7418693,
      35.6806973
     ],
     [
      139.7418555,
      35.681306
     ],
     [
      139.7418384,
      35.6817213
     ],
     [
      139.7418237,
      35.6822328
     ],
     [
      139.741821,
      35.6823313
     ],
     [
      139.7418042,
      35.6825291
     ],
     [
      139.7417566,
      35.6828346
     ],
     [
      139.7416138,
      35.6834316
     ],
     [
      139.7415396,
      35.6837222
     ],
     [
      139.7414629,
      35.6840454
     ],
     [
      139.7414441,
      35.6841609
     ],
     [
      139.741434,
      35.6843237
     ],
     [
      139.7414378,
      35.6844483
     ],
     [
      139.741536,
      35.685237
     ],
     [
      139.7416054,
      35.6856762
     ],
     [
      139.7416999,
      35.686575
     ],
     [
      139.7417129,
      35.6866854
     ],
     [
      139.7417983,
      35.6872125
     ],
     [
      139.7422378,
      35.6883283
     ],
     [
      139.7425827,
      35.6891301
     ],
     [
      139.7428992,
      35.689886
     ],
     [
      139.7433177,
      35.6909665
     ],
     [
      139.7437022,
      35.6921579
     ],
     [
      139.7438476,
      35.6924511
     ],
     [
      139.7440258,
      35.6927485
     ],
     [
      139.7442323,
      35.6930077
     ],
     [
      139.7444656,
      35.6932364
     ],
     [
      139.7447067,
      35.6934496
     ],
     [
      139.7450048,
      35.6936612
     ],
     [
      139.7452909,
      35.6938289
     ],
     [
      139.745627,
      35.693988
     ],
     [
      139.7459784,
      35.6941317
     ],
     [
      139.7467432,
      35.6943548
     ],
     [
      139.7477782,
      35.6946567
     ],
     [
      139.7481108,
      35.6947482
     ],
     [
      139.7484863,
      35.6948462
     ],
     [
      139.7488242,
      35.6949246
     ],
     [
      139.7492212,
      35.6950074
     ],
     [
      139.7495585,
      35.6950887
     ],
     [
      139.7497041,
      35.6951178
     ],
     [
      139.7505399,
      35.695261
     ],
     [
      139.7525679,
      35.6955675
     ],
     [
      139.7539294,
      35.6957752
     ],
     [
      139.7543858,
      35.6958493
     ],
     [
      139.7548414,
      35.6959005
     ],
     [
      139.7549102,
      35.695906
     ],
     [
      139.7551656,
      35.6959271
     ],
     [
      139.7556659,
      35.6959477
     ],
     [
      139.756919,
      35.6959843
     ],
     [
      139.7573349,
      35.6959855
     ],
     [
      139.7575928,
      35.6959657
     ],
     [
      139.757989,
      35.6959359
     ],
     [
      139.7584507,
      35.69587
     ],
     [
      139.7588297,
      35.6957799
     ],
     [
      139.7591615,
      35.6956762
     ],
     [
      139.7595021,
      35.695528
     ],
     [
      139.7597799,
      35.6953766
     ],
     [
      139.7601176,
      35.6951493
     ],
     [
      139.7603465,
      35.6949294
     ],
     [
      139.7605662,
      35.6947014
     ],
     [
      139.760756,
      35.6944247
     ],
     [
      139.7608973,
      35.6941429
     ],
     [
      139.7610129,
      35.6938545
     ],
     [
      139.7610417,
      35.693727
     ],
     [
      139.7611098,
      35.6934135
     ],
     [
      139.7611115,
      35.6929549
     ],
     [
      139.7610815,
      35.6926393
     ],
     [
      139.7610122,
      35.6917421
     ],
     [
      139.7608915,
      35.6908162
     ],
     [
      139.7608486,
      35.6900625
     ],
     [
      139.7608286,
      35.6893158
     ],
     [
      139.7608368,
      35.688997
     ],
     [
      139.760861,
      35.688571
     ],
     [
      139.7609505,
      35.6882718
     ],
     [
      139.7610178,
      35.6881135
     ],
     [
      139.7611758,
      35.6878818
     ],
     [
      139.7613748,
      35.6876776
     ],
     [
      139.7616023,
      35.687518
     ],
     [
      139.7617428,
      35.6874264
     ],
     [
      139.7620523,
      35.6872888
     ],
     [
      139.7623721,
      35.6872065
     ],
     [
      139.7627094,
      35.6871467
     ],
     [
      139.7634368,
      35.6870218
     ],
     [
      139.7636656,
      35.6869799
     ],
     [
      139.7638635,
      35.6869503
     ],
     [
      139.7640882,
      35.6869179
     ],
     [
      139.7650427,
      35.6867555
     ],
     [
      139.7662726,
      35.6865538
     ],
     [
      139.766618,
      35.6865246
     ],
     [
      139.7669868,
      35.6864898
     ],
     [
      139.7681496,
      35.6863765
     ],
     [
      139.7684956,
      35.6863362
     ],
     [
      139.76926,
      35.6861129
     ],
     [
      139.7702336,
      35.6856292
     ],
     [
      139.7704938,
      35.6855072
     ],
     [
      139.7708398,
      35.6853809
     ],
     [
      139.7711831,
      35.6853057
     ],
     [
      139.7715728,
      35.6852384
     ],
     [
      139.7730127,
      35.685017
     ],
     [
      139.773095,
      35.6850014
     ],
     [
      139.7746549,
      35.6846571
     ],
     [
      139.7747409,
      35.6846341
     ],
     [
      139.7748249,
      35.6846176
     ],
     [
      139.7752178,
      35.6846081
     ],
     [
      139.777025,
      35.6848689
     ],
     [
      139.7775266,
      35.6849038
     ],
     [
      139.7781891,
      35.6849452
     ],
     [
      139.7785404,
      35.6849757
     ],
     [
      139.7789025,
      35.6850258
     ],
     [
      139.7792673,
      35.6851238
     ],
     [
      139.7799781,
      35.6853351
     ],
     [
      139.7803348,
      35.6854332
     ],
     [
      139.7806755,
      35.6855094
     ],
     [
      139.7810376,
      35.685553
     ],
     [
      139.7815472,
      35.6855595
     ],
     [
      139.78181,
      35.6855355
     ],
     [
      139.7821802,
      35.6854745
     ],
     [
      139.782553,
      35.68537
     ],
     [
      139.7828963,
      35.685248
     ],
     [
      139.7832933,
      35.6850497
     ],
     [
      139.7835669,
      35.6848689
     ],
     [
      139.7838539,
      35.6846358
     ],
     [
      139.7842294,
      35.6842306
     ],
     [
      139.7844379,
      35.6839822
     ],
     [
      139.7848272,
      35.6835488
     ],
     [
      139.7849958,
      35.6833766
     ],
     [
      139.7852051,
      35.6831266
     ],
     [
      139.7856731,
      35.6825678
     ],
     [
      139.7861346,
      35.6819734
     ],
     [
      139.7862121,
      35.6818345
     ],
     [
      139.7863952,
      35.68157
     ],
     [
      139.7867922,
      35.6810552
     ],
     [
      139.7870001,
      35.6808014
     ],
     [
      139.7872469,
      35.6805759
     ],
     [
      139.7878021,
      35.6801804
     ],
     [
      139.788364,
      35.6798002
     ],
     [
      139.7886913,
      35.6796161
     ],
     [
      139.7893269,
      35.6792915
     ],
     [
      139.7899465,
      35.6789887
     ],
     [
      139.7906426,
      35.6786956
     ],
     [
      139.7909832,
      35.6785573
     ],
     [
      139.7913346,
      35.6784636
     ],
     [
      139.791702,
      35.6784048
     ],
     [
      139.7920614,
      35.6783939
     ],
     [
      139.7924423,
      35.6784331
     ],
     [
      139.792791,
      35.6785224
     ],
     [
      139.7931209,
      35.678664
     ],
     [
      139.7934294,
      35.6788601
     ],
     [
      139.7936949,
      35.6790911
     ],
     [
      139.7939207,
      35.6793532
     ],
     [
      139.7941732,
      35.6796835
     ],
     [
      139.7943746,
      35.6799454
     ],
     [
      139.7946156,
      35.6802384
     ],
     [
      139.7948134,
      35.6804332
     ],
     [
      139.7950682,
      35.680675
     ],
     [
      139.7957812,
      35.6813383
     ],
     [
      139.7959373,
      35.6814619
     ],
     [
      139.796089,
      35.681565
     ],
     [
      139.7962429,
      35.6816485
     ],
     [
      139.7964037,
      35.6817357
     ],
     [
      139.796587,
      35.6818034
     ],
     [
      139.7967332,
      35.6818485
     ],
     [
      139.7969303,
      35.6818963
     ],
     [
      139.7971259,
      35.6819367
     ],
     [
      139.7973011,
      35.6819593
     ],
     [
      139.7974688,
      35.681979
     ],
     [
      139.7976673,
      35.6819964
     ],
     [
      139.7980374,
      35.6820193
     ],
     [
      139.7984181,
      35.6820411
     ],
     [
      139.7985864,
      35.6820555
     ],
     [
      139.7991855,
      35.6820904
     ],
     [
      139.8011634,
      35.6822317
     ],
     [
      139.8012777,
      35.6822381
     ],
     [
      139.8036222,
      35.6823847
     ],
     [
      139.8073581,
      35.6826184
     ],
     [
      139.8106706,
      35.6827644
     ],
     [
      139.8139347,
      35.6829241
     ],
     [
      139.8144042,
      35.6830084
     ],
     [
      139.8147493,
      35.6831315
     ],
     [
      139.8150295,
      35.683287
     ],
     [
      139.81518,
      35.6833844
     ],
     [
      139.8153969,
      35.6835969
     ],
     [
      139.8155643,
      35.683865
     ],
     [
      139.8156861,
      35.6841618
     ],
     [
      139.8157826,
      35.6844786
     ],
     [
      139.8158587,
      35.684756
     ],
     [
      139.8159309,
      35.6850407
     ],
     [
      139.8159499,
      35.6856499
     ],
     [
      139.8158981,
      35.6862588
     ],
     [
      139.8157947,
      35.6874115
     ],
     [
      139.8156743,
      35.6887338
     ],
     [
      139.8156261,
      35.6893254
     ],
     [
      139.8156057,
      35.6896955
     ],
     [
      139.815518,
      35.6913716
     ],
     [
      139.81529,
      35.6926176
     ],
     [
      139.8151973,
      35.6935172
     ],
     [
      139.8151264,
      35.6945759
     ],
     [
      139.8149707,
      35.6962015
     ],
     [
      139.8149454,
      35.6963403
     ],
     [
      139.8149365,
      35.6966972
     ],
     [
      139.8148931,
      35.6973032
     ],
     [
      139.814902,
      35.6980763
     ],
     [
      139.8148629,
      35.6990784
     ],
     [
      139.8145927,
      35.7024546
     ],
     [
      139.8142638,
      35.7060812
     ],
     [
      139.8142064,
      35.7066843
     ],
     [
      139.8141608,
      35.7070089
     ],
     [
      139.8140187,
      35.7076318
     ],
     [
      139.8139227,
      35.70791
     ],
     [
      139.8137122,
      35.70849
     ],
     [
      139.8136076,
      35.7087601
     ],
     [
      139.813495,
      35.7090737
     ],
     [
      139.8133958,
      35.7093475
     ],
     [
      139.8132909,
      35.7096309
     ],
     [
      139.8132053,
      35.7099312
     ],
     [
      139.8131947,
      35.7099882
     ],
     [
      139.8131415,
      35.7102432
     ],
     [
      139.8131034,
      35.7106266
     ],
     [
      139.8131072,
      35.7108641
     ],
     [
      139.8131642,
      35.7111435
     ]
    ]
   }
  },
  {
   "type": "Feature",
   "properties": {
    "kind": "station",
    "name": "渋谷"
   },
   "geometry": {
    "type": "Point",
    "coordinates": [
     139.701035,
     35.65945
    ]
   }
  },
  {
   "type": "Feature",
   "properties": {
    "kind": "station",
    "name": "表参道"
   },
   "geometry": {
    "type": "Point",
    "coordinates": [
     139.712473,
     35.665042
    ]
   }
  },
  {
   "type": "Feature",
   "properties": {
    "kind": "station",
    "name": "青山一丁目"
   },
   "geometry": {
    "type": "Point",
    "coordinates": [
     139.724145,
     35.67279
    ]
   }
  },
  {
   "type": "Feature",
   "properties": {
    "kind": "station",
    "name": "永田町"
   },
   "geometry": {
    "type": "Point",
    "coordinates": [
     139.738865,
     35.678407
    ]
   }
  },
  {
   "type": "Feature",
   "properties": {
    "kind": "station",
    "name": "半蔵門"
   },
   "geometry": {
    "type": "Point",
    "coordinates": [
     139.741695,
     35.68538
    ]
   }
  },
  {
   "type": "Feature",
   "properties": {
    "kind": "station",
    "name": "九段下"
   },
   "geometry": {
    "type": "Point",
    "coordinates": [
     139.751117,
     35.695501
    ]
   }
  },
  {
   "type": "Feature",
   "properties": {
    "kind": "station",
    "name": "神保町"
   },
   "geometry": {
    "type": "Point",
    "coordinates": [
     139.75756,
     35.696021
    ]
   }
  },
  {
   "type": "Feature",
   "properties": {
    "kind": "station",
    "name": "大手町"
   },
   "geometry": {
    "type": "Point",
    "coordinates": [
     139.764905,
     35.686745
    ]
   }
  },
  {
   "type": "Feature",
   "properties": {
    "kind": "station",
    "name": "三越前"
   },
   "geometry": {
    "type": "Point",
    "coordinates": [
     139.77308,
     35.684928
    ]
   }
  },
  {
   "type": "Feature",
   "properties": {
    "kind": "station",
    "name": "水天宮前"
   },
   "geometry": {
    "type": "Point",
    "coordinates": [
     139.785171,
     35.683
    ]
   }
  },
  {
   "type": "Feature",
   "properties": {
    "kind": "station",
    "name": "清澄白河"
   },
   "geometry": {
    "type": "Point",
    "coordinates": [
     139.799841,
     35.682119
    ]
   }
  },
  {
   "type": "Feature",
   "properties": {
    "kind": "station",
    "name": "住吉"
   },
   "geometry": {
    "type": "Point",
    "coordinates": [
     139.815667,
     35.688704
    ]
   }
  },
  {
   "type": "Feature",
   "properties": {
    "kind": "station",
    "name": "錦糸町"
   },
   "geometry": {
    "type": "Point",
    "coordinates": [
     139.814957,
     35.697441
    ]
   }
  },
  {
   "type": "Feature",
   "properties": {
    "kind": "station",
    "name": "押上〈スカイツリー前〉"
   },
   "geometry": {
    "type": "Point",
    "coordinates": [
     139.813735,
     35.708467
    ]
   }
  }
 ]
}
