{
 "type": "FeatureCollection",
 "metadata": {
  "line_id": "tokyo-metro.namboku",
  "source": {
   "name": "mini-tokyo-3d (4ad6ca6, 2026-06-03)",
   "url": "https://github.com/nagix/mini-tokyo-3d",
   "license": "MIT (c) Akihiko Kusanagi",
   "retrieved": "2026-06-03",
   "note": "国土数値情報 N02 へ到達できない環境向けのブートストラップ。extract-n02 で再抽出して差し替え可能。"
  }
 },
 "features": [
  {
   "type": "Feature",
   "properties": {
    "kind": "track",
    "seq": 0,
    "role": "main"
   },
   "geometry": {
    "type": "LineString",
    "coordinates": [
     [
      139.7155881,
      35.632788
     ],
     [
      139.7154804,
      35.6332142
     ],
     [
      139.7154582,
      35.633461
     ],
     [
      139.7154227,
      35.6337635
     ],
     [
      139.7154834,
      35.6340545
     ],
     [
      139.7155692,
      35.6342975
     ],
     [
      139.7157286,
      35.6345392
     ],
     [
      139.715794,
      35.63461
     ],
     [
      139.7159758,
      35.6347997
     ],
     [
      139.7160369,
      35.634836
     ],
     [
      139.7162756,
      35.6349799
     ],
     [
      139.7163467,
      35.6350083
     ],
     [
      139.7166108,
      35.635121
     ],
     [
      139.7170065,
      35.6352055
     ],
     [
      139.7173794,
      35.6352491
     ],
     [
      139.7186667,
      35.635373
     ],
     [
      139.7203622,
      35.6354003
     ],
     [
      139.720722,
      35.6354492
     ],
     [
      139.7210566,
      35.6355419
     ],
     [
      139.7216959,
      35.6358561
     ],
     [
      139.7240996,
      35.6370145
     ],
     [
      139.7265558,
      35.6381169
     ],
     [
      139.7283217,
      35.6389913
     ],
     [
      139.7297614,
      35.639912
     ],
     [
      139.7300723,
      35.6400532
     ],
     [
      139.7304469,
      35.6401635
     ],
     [
      139.7308146,
      35.6402292
     ],
     [
      139.7316716,
      35.6403218
     ],
     [
      139.7318792,
      35.6403495
     ],
     [
      139.7320482,
      35.6403854
     ],
     [
      139.7322029,
      35.6404296
     ],
     [
      139.7323756,
      35.6404939
     ],
     [
      139.7325294,
      35.64056
     ],
     [
      139.7326934,
      35.6406585
     ],
     [
      139.7328127,
      35.6407478
     ],
     [
      139.7329402,
      35.640871
     ],
     [
      139.7330341,
      35.6409789
     ],
     [
      139.7331253,
      35.6411021
     ],
     [
      139.7332218,
      35.6412449
     ],
     [
      139.7334042,
      35.6416263
     ],
     [
      139.7335166,
      35.6418241
     ],
     [
      139.7336419,
      35.6420205
     ],
     [
      139.7337125,
      35.6421183
     ],
     [
      139.733883,
      35.642495
     ],
     [
      139.7341229,
      35.6429466
     ],
     [
      139.7346614,
      35.6439218
     ],
     [
      139.7350778,
      35.6446359
     ],
     [
      139.7356705,
      35.6455994
     ],
     [
      139.7358021,
      35.6458888
     ],
     [
      139.7359213,
      35.6461747
     ],
     [
      139.7360125,
      35.6464603
     ],
     [
      139.7360972,
      35.6467366
     ],
     [
      139.7361937,
      35.647038
     ],
     [
      139.7366423,
      35.6485767
     ],
     [
      139.7367758,
      35.6491189
     ],
     [
      139.7368361,
      35.6494175
     ],
     [
      139.7368693,
      35.6496965
     ],
     [
      139.7368748,
      35.649982
     ],
     [
      139.7368696,
      35.6502992
     ],
     [
      139.7368348,
      35.6505967
     ],
     [
      139.7367583,
      35.651177
     ],
     [
      139.7366108,
      35.6521507
     ],
     [
      139.7366376,
      35.6526454
     ],
     [
      139.7368562,
      35.6537983
     ],
     [
      139.7370305,
      35.65454
     ],
     [
      139.7370366,
      35.6546974
     ],
     [
      139.7370887,
      35.6551811
     ],
     [
      139.7371148,
      35.6554495
     ],
     [
      139.7371036,
      35.6557751
     ],
     [
      139.7370896,
      35.6560627
     ],
     [
      139.7370353,
      35.6563477
     ],
     [
      139.7369581,
      35.6565749
     ],
     [
      139.7368348,
      35.65688
     ],
     [
      139.7367248,
      35.6571066
     ],
     [
      139.7365504,
      35.657403
     ],
     [
      139.7364083,
      35.6576493
     ],
     [
      139.736309,
      35.6579599
     ],
     [
      139.7362581,
      35.6582355
     ],
     [
      139.7362661,
      35.6583674
     ],
     [
      139.7363077,
      35.6586823
     ],
     [
      139.7364821,
      35.6594657
     ],
     [
      139.7366631,
      35.6598526
     ],
     [
      139.7368803,
      35.660137
     ],
     [
      139.7370976,
      35.6604083
     ],
     [
      139.7373015,
      35.6606458
     ],
     [
      139.7374007,
      35.6607635
     ],
     [
      139.737516,
      35.6609008
     ],
     [
      139.7376153,
      35.6610207
     ],
     [
      139.7376877,
      35.6611667
     ],
     [
      139.7378124,
      35.6614554
     ],
     [
      139.7379861,
      35.6622285
     ],
     [
      139.7381437,
      35.6628142
     ],
     [
      139.7382563,
      35.6630996
     ],
     [
      139.7383254,
      35.6632304
     ],
     [
      139.7384655,
      35.6635202
     ],
     [
      139.7385836,
      35.663797
     ],
     [
      139.7386299,
      35.664102
     ],
     [
      139.7386359,
      35.6641404
     ],
     [
      139.7388089,
      35.6649815
     ],
     [
      139.7389387,
      35.6656123
     ],
     [
      139.7389534,
      35.6656757
     ],
     [
      139.7391576,
      35.6666494
     ],
     [
      139.7393145,
      35.6670123
     ],
     [
      139.7395679,
      35.667472
     ],
     [
      139.7411826,
      35.6691859
     ],
     [
      139.741357,
      35.6694463
     ],
     [
      139.7413798,
      35.6695857
     ],
     [
      139.7413784,
      35.6709247
     ],
     [
      139.7413445,
      35.6720345
     ],
     [
      139.7413464,
      35.6723112
     ],
     [
      139.7413433,
      35.6730057
     ],
     [
      139.7413592,
      35.6734802
     ],
     [
      139.741365,
      35.6738292
     ],
     [
      139.7413852,
      35.6741969
     ],
     [
      139.7414884,
      35.6751256
     ],
     [
      139.7415286,
      35.6756878
     ],
     [
      139.741534,
      35.6759907
     ],
     [
      139.7414099,
      35.6765
     ],
     [
      139.7412577,
      35.6768197
     ],
     [
      139.7410868,
      35.6771258
     ],
     [
      139.7409151,
      35.6773508
     ],
     [
      139.7406355,
      35.6776073
     ],
     [
      139.7402755,
      35.6778814
     ],
     [
      139.7397597,
      35.6782043
     ],
     [
      139.7391381,
      35.6784978
     ],
     [
      139.7385225,
      35.6787474
     ],
     [
      139.7381531,
      35.6788547
     ],
     [
      139.7378339,
      35.6789065
     ],
     [
      139.7376475,
      35.6789266
     ],
     [
      139.737445,
      35.678932
     ],
     [
      139.736987,
      35.6788898
     ],
     [
      139.7363279,
      35.6788514
     ],
     [
      139.7354481,
      35.6787915
     ],
     [
      139.7351986,
      35.6787752
     ],
     [
      139.734813,
      35.6787877
     ],
     [
      139.7344208,
      35.6788667
     ],
     [
      139.7340413,
      35.6789979
     ],
     [
      139.7337931,
      35.6791238
     ],
     [
      139.7335115,
      35.6792997
     ],
     [
      139.733238,
      35.6795595
     ],
     [
      139.7324011,
      35.6805226
     ],
     [
      139.7320899,
      35.6808014
     ],
     [
      139.7316152,
      35.681163
     ],
     [
      139.7309607,
      35.6815966
     ],
     [
      139.7307327,
      35.6817469
     ],
     [
      139.7304833,
      35.6819539
     ],
     [
      139.7301139,
      35.6823069
     ],
     [
      139.7299261,
      35.6825514
     ],
     [
      139.7296418,
      35.6829981
     ],
     [
      139.7295016,
      35.6832633
     ],
     [
      139.7294164,
      35.6835285
     ],
     [
      139.7293112,
      35.6838929
     ],
     [
      139.7292628,
      35.6841772
     ],
     [
      139.7292468,
      35.6845835
     ]
    ]
   }
  },
  {
   "type": "Feature",
   "properties": {
    "kind": "track",
    "seq": 1,
    "role": "main"
   },
   "geometry": {
    "type": "LineString",
    "coordinates": [
     [
      139.7292468,
      35.6845835
     ],
     [
      139.7292749,
      35.6848841
     ],
     [
      139.7293232,
      35.6851728
     ],
     [
      139.7294234,
      35.6855806
     ],
     [
      139.7296301,
      35.6862487
     ],
     [
      139.7297726,
      35.6866788
     ],
     [
      139.7301842,
      35.6880899
     ],
     [
      139.7303371,
      35.6884396
     ],
     [
      139.7305021,
      35.6887336
     ],
     [
      139.7306911,
      35.6889951
     ],
     [
      139.7309098,
      35.6892717
     ],
     [
      139.731127,
      35.689483
     ],
     [
      139.7313939,
      35.6897151
     ],
     [
      139.7316635,
      35.6899122
     ],
     [
      139.7319719,
      35.6900952
     ],
     [
      139.7322864,
      35.6902553
     ],
     [
      139.7329187,
      35.6905897
     ],
     [
      139.7335518,
      35.6909208
     ],
     [
      139.7338441,
      35.6911081
     ],
     [
      139.7341284,
      35.6913129
     ],
     [
      139.7346711,
      35.6917367
     ],
     [
      139.7350876,
      35.6920525
     ],
     [
      139.7357579,
      35.6925437
     ],
     [
      139.7359671,
      35.6927071
     ],
     [
      139.7367066,
      35.6933068
     ],
     [
      139.737053,
      35.6936078
     ],
     [
      139.7371892,
      35.6937276
     ],
     [
      139.7373394,
      35.6938617
     ],
     [
      139.7373866,
      35.6939144
     ],
     [
      139.7377574,
      35.6943234
     ],
     [
      139.7381625,
      35.6948528
     ],
     [
      139.7386533,
      35.6955062
     ],
     [
      139.7388571,
      35.6957851
     ],
     [
      139.7389993,
      35.6959593
     ],
     [
      139.7392407,
      35.6962289
     ],
     [
      139.739702,
      35.6967098
     ],
     [
      139.7401821,
      35.6971574
     ],
     [
      139.7411759,
      35.6980897
     ],
     [
      139.7416654,
      35.6985449
     ],
     [
      139.7419015,
      35.6987802
     ],
     [
      139.7421577,
      35.699071
     ],
     [
      139.7423642,
      35.6993628
     ],
     [
      139.7425084,
      35.6996146
     ],
     [
      139.7426564,
      35.6998783
     ],
     [
      139.7428115,
      35.7001422
     ],
     [
      139.7429476,
      35.700388
     ],
     [
      139.7430495,
      35.7005837
     ],
     [
      139.7431238,
      35.7007236
     ],
     [
      139.7432855,
      35.7009921
     ],
     [
      139.7436617,
      35.7015212
     ],
     [
      139.7439742,
      35.7019249
     ],
     [
      139.7443218,
      35.7022735
     ],
     [
      139.7445463,
      35.7024464
     ],
     [
      139.7448315,
      35.7026181
     ],
     [
      139.7451514,
      35.7027783
     ],
     [
      139.7455069,
      35.7029197
     ],
     [
      139.7459292,
      35.7030595
     ],
     [
      139.7462823,
      35.7031536
     ],
     [
      139.7465562,
      35.703196
     ],
     [
      139.7469048,
      35.7032367
     ],
     [
      139.7474203,
      35.7032568
     ],
     [
      139.7477744,
      35.7032526
     ],
     [
      139.7484005,
      35.7032456
     ],
     [
      139.7495657,
      35.7031825
     ],
     [
      139.7499213,
      35.7032127
     ],
     [
      139.7502907,
      35.7032825
     ],
     [
      139.7506428,
      35.7034044
     ],
     [
      139.750968,
      35.7035693
     ],
     [
      139.7512221,
      35.7037747
     ],
     [
      139.7514432,
      35.7039989
     ],
     [
      139.7516247,
      35.7042549
     ],
     [
      139.7517559,
      35.7045871
     ],
     [
      139.7518121,
      35.7048855
     ],
     [
      139.7518095,
      35.7054692
     ],
     [
      139.7518053,
      35.7070899
     ],
     [
      139.7518027,
      35.7071582
     ],
     [
      139.7517502,
      35.7082166
     ],
     [
      139.7517534,
      35.709094
     ],
     [
      139.7517556,
      35.7091239
     ],
     [
      139.7517817,
      35.7097733
     ],
     [
      139.7518008,
      35.7100336
     ],
     [
      139.7518699,
      35.7101953
     ],
     [
      139.752066,
      35.7105616
     ],
     [
      139.7523406,
      35.7108642
     ],
     [
      139.7526152,
      35.7110633
     ],
     [
      139.7529669,
      35.711232
     ],
     [
      139.7533366,
      35.7112916
     ],
     [
      139.754017,
      35.7113649
     ],
     [
      139.7545459,
      35.7114832
     ],
     [
      139.7550477,
      35.7116373
     ],
     [
      139.755342,
      35.7118222
     ],
     [
      139.7555938,
      35.7120267
     ],
     [
      139.7563814,
      35.7129014
     ],
     [
      139.7567032,
      35.713277
     ],
     [
      139.7568333,
      35.7134404
     ],
     [
      139.7569811,
      35.7136603
     ],
     [
      139.7570959,
      35.713914
     ],
     [
      139.7572966,
      35.7144784
     ],
     [
      139.7575884,
      35.7149601
     ],
     [
      139.757925,
      35.7153394
     ],
     [
      139.7581382,
      35.7155702
     ],
     [
      139.7582976,
      35.715839
     ],
     [
      139.7584225,
      35.7162715
     ],
     [
      139.7583677,
      35.7167392
     ],
     [
      139.7581322,
      35.7173083
     ],
     [
      139.7578912,
      35.7180701
     ],
     [
      139.7573695,
      35.718923
     ],
     [
      139.7572403,
      35.7190875
     ],
     [
      139.7560959,
      35.7204621
     ],
     [
      139.7545213,
      35.7224295
     ],
     [
      139.7541274,
      35.7230425
     ],
     [
      139.7539036,
      35.7235363
     ],
     [
      139.7537686,
      35.7241228
     ],
     [
      139.7536398,
      35.7247547
     ],
     [
      139.7535127,
      35.7256112
     ],
     [
      139.7533829,
      35.7263079
     ],
     [
      139.753185,
      35.7266704
     ],
     [
      139.7529862,
      35.7269487
     ],
     [
      139.7526153,
      35.7273514
     ],
     [
      139.7523481,
      35.7276982
     ],
     [
      139.752185,
      35.7279999
     ],
     [
      139.7518964,
      35.7287186
     ],
     [
      139.7516298,
      35.729339
     ],
     [
      139.7512697,
      35.7299695
     ],
     [
      139.7507721,
      35.7306448
     ],
     [
      139.7491682,
      35.7324365
     ],
     [
      139.7481135,
      35.7337589
     ],
     [
      139.7471047,
      35.7352005
     ],
     [
      139.7468547,
      35.7356582
     ],
     [
      139.7466942,
      35.7359676
     ],
     [
      139.7464398,
      35.7366437
     ],
     [
      139.7461469,
      35.7377524
     ],
     [
      139.7461284,
      35.7380486
     ],
     [
      139.7461418,
      35.7383472
     ],
     [
      139.7461903,
      35.7386271
     ],
     [
      139.7462795,
      35.7388769
     ],
     [
      139.7468465,
      35.740102
     ],
     [
      139.7473505,
      35.7412625
     ],
     [
      139.7473992,
      35.7415708
     ],
     [
      139.7474119,
      35.7419604
     ],
     [
      139.7473026,
      35.7424365
     ],
     [
      139.7471184,
      35.7428084
     ],
     [
      139.7469877,
      35.7429942
     ],
     [
      139.7467509,
      35.7432272
     ],
     [
      139.7464871,
      35.7434499
     ],
     [
      139.7458969,
      35.7438313
     ],
     [
      139.7453132,
      35.744159
     ],
     [
      139.7449791,
      35.7443028
     ],
     [
      139.7442725,
      35.7445182
     ],
     [
      139.7435853,
      35.7447931
     ],
     [
      139.7432101,
      35.7450391
     ],
     [
      139.7427286,
      35.7454471
     ],
     [
      139.7421173,
      35.7460173
     ],
     [
      139.7415614,
      35.7466357
     ],
     [
      139.7410577,
      35.7471471
     ],
     [
      139.740314,
      35.7477317
     ],
     [
      139.738981,
      35.7487837
     ],
     [
      139.7385497,
      35.7492653
     ],
     [
      139.7383784,
      35.7494997
     ],
     [
      139.7381991,
      35.7497845
     ],
     [
      139.7379219,
      35.7504625
     ],
     [
      139.737799,
      35.7513297
     ],
     [
      139.7378468,
      35.7523061
     ],
     [
      139.737847,
      35.7527005
     ],
     [
      139.7378472,
      35.7529124
     ],
     [
      139.7377754,
      35.7531644
     ],
     [
      139.7377516,
      35.7532964
     ],
     [
      139.7376473,
      35.7535218
     ],
     [
      139.7374489,
      35.7539405
     ],
     [
      139.7372648,
      35.7543086
     ],
     [
      139.7371777,
      35.7545685
     ],
     [
      139.737079,
      35.7549957
     ],
     [
      139.7370648,
      35.7552404
     ],
     [
      139.7371003,
      35.7554871
     ],
     [
      139.7373013,
      35.7563986
     ],
     [
      139.7373725,
      35.7570413
     ],
     [
      139.7374409,
      35.7579761
     ],
     [
      139.7375251,
      35.7594258
     ],
     [
      139.7375831,
      35.7603377
     ],
     [
      139.7375176,
      35.7609844
     ],
     [
      139.7374463,
      35.7612866
     ],
     [
      139.7373477,
      35.7615825
     ],
     [
      139.7369284,
      35.762362
     ],
     [
      139.7362865,
      35.7634547
     ],
     [
      139.7360998,
      35.763832
     ],
     [
      139.7359952,
      35.7640965
     ],
     [
      139.7359036,
      35.7643801
     ],
     [
      139.7357007,
      35.765049
     ],
     [
      139.7356242,
      35.7652984
     ],
     [
      139.7353004,
      35.7663855
     ],
     [
      139.7342531,
      35.7694307
     ],
     [
      139.7331282,
      35.7726384
     ],
     [
      139.7330643,
      35.7729667
     ],
     [
      139.7330381,
      35.7732674
     ],
     [
      139.7330399,
      35.7735702
     ],
     [
      139.7331548,
      35.7747918
     ],
     [
      139.7332722,
      35.7763008
     ],
     [
      139.7332299,
      35.7765551
     ],
     [
      139.7331517,
      35.776837
     ],
     [
      139.7330073,
      35.7771322
     ],
     [
      139.7328541,
      35.777365
     ],
     [
      139.7324778,
      35.7778789
     ],
     [
      139.7321464,
      35.7783627
     ],
     [
      139.7319411,
      35.7786913
     ],
     [
      139.7316857,
      35.7790764
     ],
     [
      139.7314811,
      35.7793191
     ],
     [
      139.7312491,
      35.7795595
     ],
     [
      139.7310925,
      35.7797114
     ],
     [
      139.7297464,
      35.7808963
     ],
     [
      139.7292239,
      35.7813434
     ],
     [
      139.728981,
      35.7815544
     ],
     [
      139.7286817,
      35.7817454
     ],
     [
      139.7283658,
      35.7819172
     ],
     [
      139.728034,
      35.7820629
     ],
     [
      139.7276966,
      35.7821816
     ],
     [
      139.7266221,
      35.7824524
     ],
     [
      139.724569,
      35.7828975
     ],
     [
      139.7228136,
      35.7832284
     ],
     [
      139.7219088,
      35.7833904
     ],
     [
      139.7209895,
      35.7835865
     ]
    ]
   }
  },
  {
   "type": "Feature",
   "properties": {
    "kind": "station",
    "name": "目黒"
   },
   "geometry": {
    "type": "Point",
    "coordinates": [
     139.715456,
     35.63297
    ]
   }
  },
  {
   "type": "Feature",
   "properties": {
    "kind": "station",
    "name": "白金台"
   },
   "geometry": {
    "type": "Point",
    "coordinates": [
     139.726007,
     35.637851
    ]
   }
  },
  {
   "type": "Feature",
   "properties": {
    "kind": "station",
    "name": "白金高輪"
   },
   "geometry": {
    "type": "Point",
    "coordinates": [
     139.734344,
     35.643283
    ]
   }
  },
  {
   "type": "Feature",
   "properties": {
    "kind": "station",
    "name": "麻布十番"
   },
   "geometry": {
    "type": "Point",
    "coordinates": [
     139.737045,
     35.65481
    ]
   }
  },
  {
   "type": "Feature",
   "properties": {
    "kind": "station",
    "name": "六本木一丁目"
   },
   "geometry": {
    "type": "Point",
    "coordinates": [
     139.7389,
     35.665075
    ]
   }
  },
  {
   "type": "Feature",
   "properties": {
    "kind": "station",
    "name": "溜池山王"
   },
   "geometry": {
    "type": "Point",
    "coordinates": [
     139.741294,
     35.673091
    ]
   }
  },
  {
   "type": "Feature",
   "properties": {
    "kind": "station",
    "name": "永田町"
   },
   "geometry": {
    "type": "Point",
    "coordinates": [
     139.739288,
     35.678338
    ]
   }
  },
  {
   "type": "Feature",
   "properties": {
    "kind": "station",
    "name": "四ツ谷"
   },
   "geometry": {
    "type": "Point",
    "coordinates": [
     139.72968,
     35.686082
    ]
   }
  },
  {
   "type": "Feature",
   "properties": {
    "kind": "station",
    "name": "市ケ谷"
   },
   "geometry": {
    "type": "Point",
    "coordinates": [
     139.736324,
     35.692894
    ]
   }
  },
  {
   "type": "Feature",
   "properties": {
    "kind": "station",
    "name": "飯田橋"
   },
   "geometry": {
    "type": "Point",
    "coordinates": [
     139.743716,
     35.701532
    ]
   }
  },
  {
   "type": "Feature",
   "properties": {
    "kind": "station",
    "name": "後楽園"
   },
   "geometry": {
    "type": "Point",
    "coordinates": [
     139.751786,
     35.70839
    ]
   }
  },
  {
   "type": "Feature",
   "properties": {
    "kind": "station",
    "name": "東大前"
   },
   "geometry": {
    "type": "Point",
    "coordinates": [
     139.75788,
     35.718014
    ]
   }
  },
  {
   "type": "Feature",
   "properties": {
    "kind": "station",
    "name": "本駒込"
   },
   "geometry": {
    "type": "Point",
    "coordinates": [
     139.753812,
     35.724365
    ]
   }
  },
  {
   "type": "Feature",
   "properties": {
    "kind": "station",
    "name": "駒込"
   },
   "geometry": {
    "type": "Point",
    "coordinates": [
     139.746909,
     35.735913
    ]
   }
  },
  {
   "type": "Feature",
   "properties": {
    "kind": "station",
    "name": "西ケ原"
   },
   "geometry": {
    "type": "Point",
    "coordinates": [
     139.74226,
     35.745945
    ]
   }
  },
  {
   "type": "Feature",
   "properties": {
    "kind": "station",
    "name": "王子"
   },
   "geometry": {
    "type": "Point",
    "coordinates": [
     139.737362,
     35.75447
    ]
   }
  },
  {
   "type": "Feature",
   "properties": {
    "kind": "station",
    "name": "王子神谷"
   },
   "geometry": {
    "type": "Point",
    "coordinates": [
     139.735641,
     35.765292
    ]
   }
  },
  {
   "type": "Feature",
   "properties": {
    "kind": "station",
    "name": "志茂"
   },
   "geometry": {
    "type": "Point",
    "coordinates": [
     139.7325,
     35.778025
    ]
   }
  },
  {
   "type": "Feature",
   "properties": {
    "kind": "station",
    "name": "赤羽岩淵"
   },
   "geometry": {
    "type": "Point",
    "coordinates": [
     139.72211,
     35.783355
    ]
   }
  }
 ]
}
