{
 "type": "FeatureCollection",
 "metadata": {
  "line_id": "tokyo-metro.tozai",
  "source": {
   "name": "mini-tokyo-3d (4ad6ca6, 2026-06-03)",
   "url": "https://github.com/nagix/mini-tokyo-3d",
   "license": "MIT (c) Akihiko Kusanagi",
   "retrieved": "2026-06-03",
   "note": "国土数値情報 N02 へ到達できない環境向けのブートストラップ。extract-n02 で再抽出して差し替え可能。"
  }
 },
 "features": [
  {
   "type": "Feature",
   "properties": {
    "kind": "track",
    "seq": 0,
    "role": "sub"
   },
   "geometry": {
    "type": "LineString",
    "coordinates": [
     [
      139.6642889,
      35.7057673
     ],
     [
      139.6644556,
      35.7057759
     ],
     [
      139.6647954,
      35.705791
     ],
     [
      139.6651122,
      35.705801
     ],
     [
      139.6652664,
      35.7058056
     ],
     [
      139.6655367,
      35.7058135
     ],
     [
      139.6667619,
      35.7058504
     ],
     [
      139.6670456,
      35.705858
     ],
     [
      139.6676354,
      35.705867
     ],
     [
      139.6679262,
      35.70587
     ],
     [
      139.6693401,
      35.7058686
     ]
    ]
   }
  },
  {
   "type": "Feature",
   "properties": {
    "kind": "track",
    "seq": 1,
    "role": "main"
   },
   "geometry": {
    "type": "LineString",
    "coordinates": [
     [
      139.6693401,
      35.7058686
     ],
     [
      139.6702756,
      35.70589
     ],
     [
      139.6722525,
      35.7059331
     ],
     [
      139.6731379,
      35.7059709
     ],
     [
      139.6740215,
      35.7059952
     ],
     [
      139.6748993,
      35.7060257
     ],
     [
      139.6753961,
      35.7061357
     ],
     [
      139.6757509,
      35.7062581
     ],
     [
      139.6761518,
      35.7064046
     ],
     [
      139.6766816,
      35.7067415
     ],
     [
      139.6768618,
      35.7068593
     ],
     [
      139.6772019,
      35.7070982
     ],
     [
      139.6780304,
      35.7077111
     ],
     [
      139.6782054,
      35.7078306
     ],
     [
      139.6783797,
      35.7079421
     ],
     [
      139.678554,
      35.70805
     ],
     [
      139.6787457,
      35.7081736
     ],
     [
      139.6789186,
      35.7082746
     ],
     [
      139.679261,
      35.7085031
     ],
     [
      139.6793267,
      35.7085493
     ],
     [
      139.6800262,
      35.7088741
     ],
     [
      139.6804165,
      35.7090566
     ],
     [
      139.6807996,
      35.7092419
     ],
     [
      139.6821583,
      35.7098648
     ],
     [
      139.6823479,
      35.7099381
     ],
     [
      139.6827653,
      35.7100246
     ],
     [
      139.6832206,
      35.7101076
     ],
     [
      139.6834463,
      35.7101434
     ],
     [
      139.6838878,
      35.7102235
     ],
     [
      139.6841024,
      35.7102564
     ],
     [
      139.684768,
      35.7104098
     ],
     [
      139.6853891,
      35.7105519
     ],
     [
      139.6859125,
      35.7106884
     ],
     [
      139.6862058,
      35.7107624
     ],
     [
      139.6871373,
      35.7109687
     ],
     [
      139.6880537,
      35.7111754
     ],
     [
      139.6884691,
      35.7112281
     ],
     [
      139.6891449,
      35.711271
     ],
     [
      139.6899072,
      35.7113115
     ],
     [
      139.6903432,
      35.7113171
     ],
     [
      139.6907207,
      35.7112678
     ],
     [
      139.6913348,
      35.7111421
     ],
     [
      139.6918086,
      35.710971
     ],
     [
      139.6921786,
      35.7109499
     ],
     [
      139.6928942,
      35.7109399
     ],
     [
      139.6933369,
      35.7109961
     ],
     [
      139.6940208,
      35.711083
     ],
     [
      139.6947638,
      35.7111937
     ],
     [
      139.6960201,
      35.7113911
     ],
     [
      139.6962447,
      35.7114324
     ],
     [
      139.6966898,
      35.7115301
     ],
     [
      139.6970831,
      35.7116977
     ],
     [
      139.6983203,
      35.7119576
     ],
     [
      139.6990951,
      35.7121823
     ],
     [
      139.7000043,
      35.7125148
     ],
     [
      139.7006866,
      35.712859
     ],
     [
      139.7016575,
      35.7133815
     ],
     [
      139.7024944,
      35.713675
     ],
     [
      139.7031387,
      35.7137911
     ],
     [
      139.703515,
      35.7138182
     ],
     [
      139.7038569,
      35.7137938
     ],
     [
      139.7043002,
      35.7137057
     ],
     [
      139.7045812,
      35.7135993
     ],
     [
      139.7050201,
      35.713397
     ],
     [
      139.7056691,
      35.7130447
     ],
     [
      139.7069778,
      35.7123166
     ],
     [
      139.7076917,
      35.7119671
     ],
     [
      139.7108413,
      35.7113609
     ],
     [
      139.7113782,
      35.7111559
     ],
     [
      139.7132219,
      35.7101402
     ],
     [
      139.7135516,
      35.709984
     ],
     [
      139.7137072,
      35.7099454
     ],
     [
      139.7163277,
      35.7094471
     ],
     [
      139.7164746,
      35.7093996
     ],
     [
      139.7166056,
      35.7093178
     ],
     [
      139.716865,
      35.7090401
     ],
     [
      139.7174773,
      35.7081261
     ],
     [
      139.7179035,
      35.7075892
     ],
     [
      139.7190425,
      35.706513
     ],
     [
      139.719792,
      35.7060813
     ],
     [
      139.720117,
      35.7059651
     ],
     [
      139.7205236,
      35.7058997
     ],
     [
      139.7212889,
      35.7058094
     ],
     [
      139.7221185,
      35.7057268
     ],
     [
      139.7244066,
      35.7054767
     ],
     [
      139.7249736,
      35.7054325
     ],
     [
      139.7253307,
      35.7053484
     ],
     [
      139.7268618,
      35.7047659
     ],
     [
      139.7272419,
      35.7047121
     ],
     [
      139.7282938,
      35.7047457
     ],
     [
      139.7287416,
      35.7047641
     ],
     [
      139.7296539,
      35.7047911
     ],
     [
      139.730229,
      35.7048006
     ],
     [
      139.7307036,
      35.7046906
     ],
     [
      139.7308893,
      35.7046138
     ],
     [
      139.7311474,
      35.7045036
     ],
     [
      139.7342322,
      35.7039239
     ],
     [
      139.7378582,
      35.7032051
     ],
     [
      139.7383465,
      35.7032128
     ],
     [
      139.7400639,
      35.70341
     ],
     [
      139.7409318,
      35.7034931
     ],
     [
      139.7412699,
      35.7034538
     ],
     [
      139.7424773,
      35.7029965
     ],
     [
      139.7430682,
      35.7028577
     ],
     [
      139.743441,
      35.7028098
     ],
     [
      139.7443771,
      35.7026747
     ],
     [
      139.7445317,
      35.7026341
     ],
     [
      139.7447151,
      35.7025702
     ],
     [
      139.7450462,
      35.7024152
     ],
     [
      139.7456493,
      35.7019798
     ],
     [
      139.7460104,
      35.7017361
     ],
     [
      139.7474843,
      35.7008027
     ],
     [
      139.747734,
      35.7006004
     ],
     [
      139.7505934,
      35.6976272
     ],
     [
      139.7507826,
      35.6973762
     ],
     [
      139.7509607,
      35.6969909
     ],
     [
      139.7512354,
      35.6959716
     ],
     [
      139.7514204,
      35.6953621
     ],
     [
      139.7516658,
      35.6948785
     ],
     [
      139.7517829,
      35.6946196
     ],
     [
      139.751877,
      35.6945029
     ],
     [
      139.7520547,
      35.6943885
     ],
     [
      139.7540101,
      35.6932378
     ],
     [
      139.7544428,
      35.6930051
     ],
     [
      139.7548282,
      35.6927094
     ],
     [
      139.7554975,
      35.6919935
     ],
     [
      139.7565939,
      35.6909489
     ],
     [
      139.7572035,
      35.6906899
     ],
     [
      139.7578876,
      35.6904527
     ],
     [
      139.7587292,
      35.6901289
     ],
     [
      139.7592457,
      35.6899893
     ],
     [
      139.7600262,
      35.6895891
     ],
     [
      139.7602134,
      35.6894763
     ],
     [
      139.7603247,
      35.6893725
     ],
     [
      139.7603879,
      35.6892932
     ],
     [
      139.7607948,
      35.6887446
     ]
    ]
   }
  },
  {
   "type": "Feature",
   "properties": {
    "kind": "track",
    "seq": 2,
    "role": "main"
   },
   "geometry": {
    "type": "LineString",
    "coordinates": [
     [
      139.7607948,
      35.6887446
     ],
     [
      139.7612265,
      35.6866943
     ],
     [
      139.7614017,
      35.6861861
     ],
     [
      139.7617456,
      35.6857603
     ],
     [
      139.7621554,
      35.6855406
     ],
     [
      139.7629878,
      35.6853682
     ],
     [
      139.7638184,
      35.6851972
     ],
     [
      139.7644711,
      35.6850607
     ],
     [
      139.7664664,
      35.6846313
     ],
     [
      139.7708183,
      35.6836712
     ],
     [
      139.7710407,
      35.6836144
     ],
     [
      139.7727001,
      35.6829931
     ],
     [
      139.7735108,
      35.6826743
     ],
     [
      139.7745258,
      35.6822751
     ],
     [
      139.77489,
      35.6821283
     ],
     [
      139.7779783,
      35.680873
     ],
     [
      139.7794292,
      35.6802993
     ],
     [
      139.7801344,
      35.6800099
     ],
     [
      139.7828115,
      35.6784937
     ],
     [
      139.7847212,
      35.6773243
     ],
     [
      139.7859391,
      35.6765928
     ],
     [
      139.7861849,
      35.676464
     ],
     [
      139.7865502,
      35.6763017
     ],
     [
      139.7869597,
      35.6761516
     ],
     [
      139.7873155,
      35.6760449
     ],
     [
      139.7876794,
      35.6759571
     ],
     [
      139.788216,
      35.675853
     ],
     [
      139.7885945,
      35.6757883
     ],
     [
      139.7888544,
      35.6757243
     ],
     [
      139.7890373,
      35.6756709
     ],
     [
      139.7891991,
      35.6756108
     ],
     [
      139.7894368,
      35.675497
     ],
     [
      139.789653,
      35.6753773
     ],
     [
      139.7902891,
      35.6749421
     ],
     [
      139.7907652,
      35.6746196
     ],
     [
      139.7915268,
      35.6741138
     ],
     [
      139.7920411,
      35.6737615
     ],
     [
      139.792316,
      35.673599
     ],
     [
      139.7926504,
      35.6734054
     ],
     [
      139.7930425,
      35.6732089
     ],
     [
      139.7939181,
      35.6728124
     ],
     [
      139.7950785,
      35.6723099
     ],
     [
      139.7959119,
      35.6719413
     ],
     [
      139.7965333,
      35.6716745
     ],
     [
      139.7968248,
      35.6715491
     ],
     [
      139.7969903,
      35.6714868
     ],
     [
      139.7980079,
      35.6710911
     ],
     [
      139.7983458,
      35.6709486
     ],
     [
      139.7990031,
      35.6706601
     ],
     [
      139.7998706,
      35.670283
     ],
     [
      139.8001828,
      35.6701592
     ],
     [
      139.8004922,
      35.6700533
     ],
     [
      139.8006645,
      35.67
     ],
     [
      139.8009414,
      35.6699187
     ],
     [
      139.8012371,
      35.6698479
     ],
     [
      139.8017706,
      35.6697369
     ],
     [
      139.8021053,
      35.6696721
     ],
     [
      139.8024905,
      35.6696225
     ],
     [
      139.8030793,
      35.6695745
     ],
     [
      139.8042965,
      35.6695292
     ],
     [
      139.8065417,
      35.6694504
     ],
     [
      139.8095993,
      35.6693442
     ],
     [
      139.8103734,
      35.6693364
     ],
     [
      139.8112,
      35.6693375
     ],
     [
      139.8118624,
      35.6693613
     ],
     [
      139.8132569,
      35.6694186
     ],
     [
      139.8146961,
      35.6694838
     ],
     [
      139.8161986,
      35.6695301
     ],
     [
      139.8174754,
      35.6696232
     ],
     [
      139.8188468,
      35.6697125
     ],
     [
      139.8253231,
      35.6699643
     ],
     [
      139.8265269,
      35.6700742
     ],
     [
      139.8268887,
      35.6701073
     ],
     [
      139.8270676,
      35.6701196
     ],
     [
      139.8272465,
      35.6701231
     ],
     [
      139.8274174,
      35.6701163
     ],
     [
      139.8275883,
      35.6700986
     ],
     [
      139.8277504,
      35.6700734
     ],
     [
      139.8279126,
      35.6700416
     ],
     [
      139.828034,
      35.6700068
     ],
     [
      139.8281553,
      35.6699633
     ],
     [
      139.8283169,
      35.6698972
     ],
     [
      139.8284731,
      35.6698223
     ],
     [
      139.8295608,
      35.6692414
     ],
     [
      139.8299643,
      35.6690348
     ],
     [
      139.8301541,
      35.6689487
     ],
     [
      139.8303707,
      35.6688604
     ],
     [
      139.830625,
      35.6687653
     ],
     [
      139.8308873,
      35.6686767
     ],
     [
      139.8318701,
      35.6683869
     ],
     [
      139.8332732,
      35.6679162
     ],
     [
      139.8348628,
      35.6674346
     ]
    ]
   }
  },
  {
   "type": "Feature",
   "properties": {
    "kind": "track",
    "seq": 3,
    "role": "main"
   },
   "geometry": {
    "type": "LineString",
    "coordinates": [
     [
      139.8348628,
      35.6674346
     ],
     [
      139.8360708,
      35.6670628
     ],
     [
      139.8366297,
      35.6668908
     ],
     [
      139.8373059,
      35.6667067
     ],
     [
      139.8378163,
      35.6665965
     ],
     [
      139.8383492,
      35.666502
     ],
     [
      139.8389255,
      35.6664185
     ],
     [
      139.8394744,
      35.666343
     ],
     [
      139.8405951,
      35.6662027
     ],
     [
      139.8430807,
      35.6659452
     ],
     [
      139.8554288,
      35.6649174
     ],
     [
      139.8572054,
      35.66477
     ],
     [
      139.8593188,
      35.6645962
     ],
     [
      139.8615908,
      35.6644089
     ],
     [
      139.8625713,
      35.6643265
     ],
     [
      139.8637306,
      35.664226
     ],
     [
      139.8646124,
      35.6641481
     ],
     [
      139.8663871,
      35.6640087
     ],
     [
      139.8673743,
      35.6639275
     ],
     [
      139.8678826,
      35.6638906
     ],
     [
      139.8694188,
      35.6638125
     ],
     [
      139.8701379,
      35.6637696
     ],
     [
      139.8708597,
      35.6637673
     ],
     [
      139.8715606,
      35.6637361
     ],
     [
      139.8726943,
      35.6636754
     ],
     [
      139.8739355,
      35.663609
     ],
     [
      139.8745933,
      35.6635716
     ],
     [
      139.8754407,
      35.6634882
     ],
     [
      139.8779441,
      35.6633598
     ],
     [
      139.8789089,
      35.6633087
     ],
     [
      139.8793885,
      35.6632872
     ],
     [
      139.879894,
      35.6632697
     ],
     [
      139.8804428,
      35.6632685
     ],
     [
      139.8809882,
      35.6632941
     ],
     [
      139.8815426,
      35.6633411
     ],
     [
      139.8825524,
      35.6634325
     ],
     [
      139.8849281,
      35.6636715
     ],
     [
      139.8861417,
      35.6637735
     ],
     [
      139.8876704,
      35.6639154
     ],
     [
      139.8880048,
      35.6639501
     ],
     [
      139.8883892,
      35.6639937
     ],
     [
      139.8887377,
      35.6640558
     ],
     [
      139.8891432,
      35.6641467
     ],
     [
      139.8895525,
      35.6642673
     ],
     [
      139.8897911,
      35.6643527
     ],
     [
      139.890027,
      35.6644424
     ],
     [
      139.8902832,
      35.6645536
     ],
     [
      139.8920268,
      35.6653919
     ],
     [
      139.8928213,
      35.6657719
     ],
     [
      139.8929792,
      35.6658473
     ],
     [
      139.8941045,
      35.6663845
     ],
     [
      139.8945365,
      35.6666009
     ],
     [
      139.8950621,
      35.6668978
     ],
     [
      139.8954934,
      35.6671804
     ],
     [
      139.895788,
      35.667394
     ],
     [
      139.8968514,
      35.668261
     ],
     [
      139.8979061,
      35.669138
     ],
     [
      139.8984385,
      35.6695721
     ],
     [
      139.8989644,
      35.6700106
     ],
     [
      139.9014525,
      35.6720714
     ],
     [
      139.9022636,
      35.6727431
     ],
     [
      139.9037115,
      35.673942
     ],
     [
      139.911287,
      35.6802374
     ],
     [
      139.913278,
      35.6818843
     ],
     [
      139.9144703,
      35.6828752
     ],
     [
      139.9164024,
      35.684481
     ],
     [
      139.9211413,
      35.6884065
     ],
     [
      139.9220535,
      35.6891949
     ],
     [
      139.9234295,
      35.6904094
     ],
     [
      139.924316,
      35.6911668
     ],
     [
      139.9250683,
      35.6917861
     ],
     [
      139.926008,
      35.6925104
     ],
     [
      139.9280054,
      35.6941688
     ],
     [
      139.9286619,
      35.6946282
     ],
     [
      139.9309024,
      35.695891
     ],
     [
      139.9351151,
      35.6983428
     ],
     [
      139.9358697,
      35.6987762
     ],
     [
      139.9372272,
      35.6995737
     ],
     [
      139.9385286,
      35.7003805
     ],
     [
      139.939301,
      35.7009892
     ],
     [
      139.9402043,
      35.7018079
     ],
     [
      139.9406175,
      35.7022552
     ],
     [
      139.9410442,
      35.7026379
     ],
     [
      139.941609,
      35.7031564
     ],
     [
      139.9425632,
      35.704068
     ],
     [
      139.9427371,
      35.7042439
     ],
     [
      139.9430706,
      35.7045592
     ],
     [
      139.9435722,
      35.7049764
     ],
     [
      139.9461513,
      35.7074044
     ],
     [
      139.9464473,
      35.7076829
     ],
     [
      139.9471418,
      35.7083227
     ],
     [
      139.9474329,
      35.7085945
     ],
     [
      139.9476909,
      35.7088077
     ],
     [
      139.9480668,
      35.7090998
     ],
     [
      139.9483243,
      35.7092591
     ],
     [
      139.9487251,
      35.7094831
     ],
     [
      139.9490974,
      35.7096607
     ],
     [
      139.9494706,
      35.7098064
     ],
     [
      139.9498616,
      35.7099267
     ],
     [
      139.9502518,
      35.7100181
     ],
     [
      139.9506419,
      35.7100869
     ],
     [
      139.9510312,
      35.7101369
     ],
     [
      139.9514329,
      35.7101572
     ],
     [
      139.9518624,
      35.7101536
     ],
     [
      139.9522561,
      35.7101304
     ],
     [
      139.9526471,
      35.710084
     ],
     [
      139.9530712,
      35.7100086
     ],
     [
      139.9533649,
      35.7099354
     ],
     [
      139.9537533,
      35.7098223
     ],
     [
      139.9541033,
      35.709686
     ]
    ]
   }
  },
  {
   "type": "Feature",
   "properties": {
    "kind": "track",
    "seq": 4,
    "role": "sub"
   },
   "geometry": {
    "type": "LineString",
    "coordinates": [
     [
      139.9541033,
      35.709686
     ],
     [
      139.9545113,
      35.7095193
     ],
     [
      139.9548729,
      35.7093721
     ],
     [
      139.955263,
      35.7092041
     ],
     [
      139.9561074,
      35.7088192
     ],
     [
      139.9566469,
      35.7085334
     ],
     [
      139.9572175,
      35.7081955
     ],
     [
      139.9575361,
      35.7080032
     ],
     [
      139.957809,
      35.7078442
     ],
     [
      139.9586431,
      35.7074268
     ],
     [
      139.9588877,
      35.707313
     ],
     [
      139.9592025,
      35.7071555
     ],
     [
      139.9598657,
      35.7068755
     ]
    ]
   }
  },
  {
   "type": "Feature",
   "properties": {
    "kind": "station",
    "name": "中野"
   },
   "geometry": {
    "type": "Point",
    "coordinates": [
     139.66594,
     35.70573
    ]
   }
  },
  {
   "type": "Feature",
   "properties": {
    "kind": "station",
    "name": "落合"
   },
   "geometry": {
    "type": "Point",
    "coordinates": [
     139.685965,
     35.710635
    ]
   }
  },
  {
   "type": "Feature",
   "properties": {
    "kind": "station",
    "name": "高田馬場"
   },
   "geometry": {
    "type": "Point",
    "coordinates": [
     139.705045,
     35.71328
    ]
   }
  },
  {
   "type": "Feature",
   "properties": {
    "kind": "station",
    "name": "早稲田"
   },
   "geometry": {
    "type": "Point",
    "coordinates": [
     139.721191,
     35.7058028
    ]
   }
  },
  {
   "type": "Feature",
   "properties": {
    "kind": "station",
    "name": "神楽坂"
   },
   "geometry": {
    "type": "Point",
    "coordinates": [
     139.73452,
     35.703865
    ]
   }
  },
  {
   "type": "Feature",
   "properties": {
    "kind": "station",
    "name": "飯田橋"
   },
   "geometry": {
    "type": "Point",
    "coordinates": [
     139.746521,
     35.701403
    ]
   }
  },
  {
   "type": "Feature",
   "properties": {
    "kind": "station",
    "name": "九段下"
   },
   "geometry": {
    "type": "Point",
    "coordinates": [
     139.751265,
     35.696091
    ]
   }
  },
  {
   "type": "Feature",
   "properties": {
    "kind": "station",
    "name": "竹橋"
   },
   "geometry": {
    "type": "Point",
    "coordinates": [
     139.75767,
     35.69044
    ]
   }
  },
  {
   "type": "Feature",
   "properties": {
    "kind": "station",
    "name": "大手町"
   },
   "geometry": {
    "type": "Point",
    "coordinates": [
     139.76603,
     35.684697
    ]
   }
  },
  {
   "type": "Feature",
   "properties": {
    "kind": "station",
    "name": "日本橋"
   },
   "geometry": {
    "type": "Point",
    "coordinates": [
     139.774101,
     35.682376
    ]
   }
  },
  {
   "type": "Feature",
   "properties": {
    "kind": "station",
    "name": "茅場町"
   },
   "geometry": {
    "type": "Point",
    "coordinates": [
     139.77927,
     35.680346
    ]
   }
  },
  {
   "type": "Feature",
   "properties": {
    "kind": "station",
    "name": "門前仲町"
   },
   "geometry": {
    "type": "Point",
    "coordinates": [
     139.796099,
     35.671892
    ]
   }
  },
  {
   "type": "Feature",
   "properties": {
    "kind": "station",
    "name": "木場"
   },
   "geometry": {
    "type": "Point",
    "coordinates": [
     139.807115,
     35.669356
    ]
   }
  },
  {
   "type": "Feature",
   "properties": {
    "kind": "station",
    "name": "東陽町"
   },
   "geometry": {
    "type": "Point",
    "coordinates": [
     139.81768,
     35.66959
    ]
   }
  },
  {
   "type": "Feature",
   "properties": {
    "kind": "station",
    "name": "南砂町"
   },
   "geometry": {
    "type": "Point",
    "coordinates": [
     139.831695,
     35.668415
    ]
   }
  },
  {
   "type": "Feature",
   "properties": {
    "kind": "station",
    "name": "西葛西"
   },
   "geometry": {
    "type": "Point",
    "coordinates": [
     139.8596,
     35.664562
    ]
   }
  },
  {
   "type": "Feature",
   "properties": {
    "kind": "station",
    "name": "葛西"
   },
   "geometry": {
    "type": "Point",
    "coordinates": [
     139.87253,
     35.663616
    ]
   }
  },
  {
   "type": "Feature",
   "properties": {
    "kind": "station",
    "name": "浦安"
   },
   "geometry": {
    "type": "Point",
    "coordinates": [
     139.893236,
     35.665903
    ]
   }
  },
  {
   "type": "Feature",
   "properties": {
    "kind": "station",
    "name": "南行徳"
   },
   "geometry": {
    "type": "Point",
    "coordinates": [
     139.902276,
     35.672729
    ]
   }
  },
  {
   "type": "Feature",
   "properties": {
    "kind": "station",
    "name": "行徳"
   },
   "geometry": {
    "type": "Point",
    "coordinates": [
     139.914185,
     35.68262
    ]
   }
  },
  {
   "type": "Feature",
   "properties": {
    "kind": "station",
    "name": "妙典"
   },
   "geometry": {
    "type": "Point",
    "coordinates": [
     139.924286,
     35.691014
    ]
   }
  },
  {
   "type": "Feature",
   "properties": {
    "kind": "station",
    "name": "原木中山"
   },
   "geometry": {
    "type": "Point",
    "coordinates": [
     139.941915,
     35.7033
    ]
   }
  },
  {
   "type": "Feature",
   "properties": {
    "kind": "station",
    "name": "西船橋"
   },
   "geometry": {
    "type": "Point",
    "coordinates": [
     139.95925,
     35.70713
    ]
   }
  }
 ]
}
