{
 "type": "FeatureCollection",
 "metadata": {
  "line_id": "tokyo-metro.hibiya",
  "source": {
   "name": "mini-tokyo-3d (4ad6ca6, 2026-06-03)",
   "url": "https://github.com/nagix/mini-tokyo-3d",
   "license": "MIT (c) Akihiko Kusanagi",
   "retrieved": "2026-06-03",
   "note": "国土数値情報 N02 へ到達できない環境向けのブートストラップ。extract-n02 で再抽出して差し替え可能。"
  }
 },
 "features": [
  {
   "type": "Feature",
   "properties": {
    "kind": "track",
    "seq": 0,
    "role": "sub"
   },
   "geometry": {
    "type": "LineString",
    "coordinates": [
     [
      139.6982809,
      35.6437046
     ],
     [
      139.6987513,
      35.6440969
     ],
     [
      139.6993838,
      35.6446243
     ],
     [
      139.6996405,
      35.6448305
     ],
     [
      139.699949,
      35.6450627
     ],
     [
      139.7001596,
      35.6452109
     ],
     [
      139.7003218,
      35.6453318
     ],
     [
      139.7004734,
      35.645468
     ],
     [
      139.7006316,
      35.6456392
     ],
     [
      139.7007402,
      35.6457696
     ],
     [
      139.700838,
      35.6458871
     ],
     [
      139.700908,
      35.645977
     ],
     [
      139.7009682,
      35.6460544
     ],
     [
      139.7010153,
      35.6461069
     ],
     [
      139.7010592,
      35.6461549
     ],
     [
      139.7011184,
      35.6462113
     ],
     [
      139.7011705,
      35.646256
     ],
     [
      139.7012392,
      35.6463148
     ],
     [
      139.7013151,
      35.6463709
     ]
    ]
   }
  },
  {
   "type": "Feature",
   "properties": {
    "kind": "track",
    "seq": 1,
    "role": "main"
   },
   "geometry": {
    "type": "LineString",
    "coordinates": [
     [
      139.7013151,
      35.6463709
     ],
     [
      139.7014802,
      35.646469
     ],
     [
      139.7016236,
      35.646547
     ],
     [
      139.7018045,
      35.6466132
     ],
     [
      139.7021597,
      35.6467015
     ],
     [
      139.7025511,
      35.6467141
     ],
     [
      139.7029354,
      35.6466744
     ],
     [
      139.7033119,
      35.6466062
     ],
     [
      139.7040166,
      35.6464838
     ],
     [
      139.7047555,
      35.6463988
     ],
     [
      139.7062387,
      35.6462568
     ],
     [
      139.706617,
      35.6462233
     ],
     [
      139.7069938,
      35.6462146
     ],
     [
      139.7072375,
      35.6462252
     ],
     [
      139.7075363,
      35.6462899
     ],
     [
      139.707828,
      35.6463944
     ],
     [
      139.7081106,
      35.6465457
     ],
     [
      139.7082327,
      35.6466439
     ],
     [
      139.7086263,
      35.6469875
     ],
     [
      139.7089073,
      35.6472437
     ],
     [
      139.7091915,
      35.6475207
     ],
     [
      139.7093498,
      35.6476854
     ],
     [
      139.7098097,
      35.6481117
     ],
     [
      139.7101489,
      35.6483131
     ],
     [
      139.710466,
      35.6484236
     ],
     [
      139.7108576,
      35.6485283
     ],
     [
      139.7111928,
      35.6485899
     ],
     [
      139.7115501,
      35.6486185
     ],
     [
      139.7119402,
      35.648634
     ],
     [
      139.7123058,
      35.6486092
     ],
     [
      139.7138337,
      35.6484163
     ],
     [
      139.7142264,
      35.6483713
     ],
     [
      139.7145322,
      35.6483474
     ],
     [
      139.7149023,
      35.6483648
     ],
     [
      139.7153125,
      35.6484294
     ],
     [
      139.7160074,
      35.6485501
     ],
     [
      139.7171554,
      35.6486939
     ],
     [
      139.7178501,
      35.6488073
     ],
     [
      139.7184888,
      35.6489216
     ],
     [
      139.7187018,
      35.6489634
     ],
     [
      139.7194689,
      35.6491689
     ],
     [
      139.720164,
      35.6493936
     ],
     [
      139.7205015,
      35.6494995
     ],
     [
      139.7208324,
      35.6496004
     ],
     [
      139.7211515,
      35.6497009
     ],
     [
      139.7214839,
      35.6498639
     ],
     [
      139.7217447,
      35.6500736
     ],
     [
      139.7219737,
      35.6503283
     ],
     [
      139.7221309,
      35.6506163
     ],
     [
      139.7222087,
      35.6508713
     ],
     [
      139.7222221,
      35.6511023
     ],
     [
      139.7221799,
      35.6520769
     ],
     [
      139.722155,
      35.6525517
     ],
     [
      139.7221681,
      35.6529762
     ],
     [
      139.7222221,
      35.6533319
     ],
     [
      139.7223383,
      35.6536753
     ],
     [
      139.7229007,
      35.6547758
     ],
     [
      139.723538,
      35.6559788
     ],
     [
      139.7236871,
      35.6562672
     ],
     [
      139.7237563,
      35.6564583
     ],
     [
      139.7237885,
      35.6565686
     ],
     [
      139.723822,
      35.6567449
     ],
     [
      139.7238237,
      35.6568683
     ],
     [
      139.7237198,
      35.6582867
     ],
     [
      139.7237,
      35.6585853
     ],
     [
      139.7237013,
      35.6586877
     ],
     [
      139.7237264,
      35.6589017
     ],
     [
      139.7237543,
      35.6589972
     ],
     [
      139.7238425,
      35.6592113
     ],
     [
      139.7238944,
      35.659299
     ],
     [
      139.7240226,
      35.6594808
     ],
     [
      139.7242676,
      35.6597104
     ],
     [
      139.7243343,
      35.6597632
     ],
     [
      139.7245604,
      35.6599014
     ],
     [
      139.7273431,
      35.6608594
     ],
     [
      139.727675,
      35.6609629
     ],
     [
      139.7280213,
      35.6611009
     ],
     [
      139.7283979,
      35.6612963
     ],
     [
      139.7289531,
      35.6616091
     ],
     [
      139.7292589,
      35.6617692
     ],
     [
      139.7295874,
      35.661924
     ],
     [
      139.7304256,
      35.6623162
     ],
     [
      139.7308454,
      35.6625799
     ],
     [
      139.7311458,
      35.6627608
     ],
     [
      139.7313156,
      35.662855
     ],
     [
      139.7315615,
      35.6629547
     ],
     [
      139.7318697,
      35.6630523
     ],
     [
      139.7320524,
      35.6630975
     ],
     [
      139.7322516,
      35.6631234
     ],
     [
      139.7326159,
      35.6630981
     ],
     [
      139.7329514,
      35.6630094
     ],
     [
      139.7333,
      35.6628392
     ],
     [
      139.7335881,
      35.6626913
     ],
     [
      139.7338896,
      35.6625399
     ],
     [
      139.7342096,
      35.6624025
     ],
     [
      139.7345873,
      35.662255
     ],
     [
      139.7377646,
      35.6612874
     ],
     [
      139.7392541,
      35.6607003
     ],
     [
      139.7407164,
      35.6600775
     ],
     [
      139.7410446,
      35.6599747
     ],
     [
      139.7414278,
      35.6599331
     ],
     [
      139.7418141,
      35.6599384
     ],
     [
      139.742146,
      35.6600014
     ],
     [
      139.7423163,
      35.6600697
     ],
     [
      139.7426048,
      35.6602167
     ],
     [
      139.7428937,
      35.6604194
     ],
     [
      139.7431338,
      35.6607003
     ],
     [
      139.7433166,
      35.6609262
     ],
     [
      139.7435198,
      35.661195
     ],
     [
      139.7441376,
      35.6620095
     ],
     [
      139.7446078,
      35.66252
     ],
     [
      139.7450394,
      35.6630056
     ],
     [
      139.7456136,
      35.6636205
     ],
     [
      139.7461711,
      35.6641579
     ],
     [
      139.7463888,
      35.6644409
     ],
     [
      139.7465679,
      35.6646627
     ],
     [
      139.7468623,
      35.6652431
     ],
     [
      139.747479,
      35.6666783
     ],
     [
      139.7478206,
      35.6674931
     ],
     [
      139.7480062,
      35.667941
     ],
     [
      139.7481828,
      35.6683369
     ],
     [
      139.7483102,
      35.668604
     ],
     [
      139.7490697,
      35.6700117
     ],
     [
      139.7494023,
      35.6706502
     ],
     [
      139.7498582,
      35.6714727
     ],
     [
      139.7501251,
      35.6720294
     ],
     [
      139.7506538,
      35.673158
     ],
     [
      139.7507875,
      35.6734615
     ],
     [
      139.7510003,
      35.6738941
     ],
     [
      139.7513665,
      35.674511
     ],
     [
      139.7514792,
      35.6746876
     ],
     [
      139.7517532,
      35.6751169
     ],
     [
      139.7522253,
      35.6759057
     ],
     [
      139.7525659,
      35.6765179
     ],
     [
      139.7527644,
      35.6767903
     ],
     [
      139.7529602,
      35.6769689
     ],
     [
      139.7532043,
      35.677091
     ],
     [
      139.7533652,
      35.677165
     ],
     [
      139.7536254,
      35.6772391
     ],
     [
      139.7537327,
      35.6772609
     ],
     [
      139.7539982,
      35.6772696
     ],
     [
      139.7541082,
      35.6772696
     ],
     [
      139.7543576,
      35.6772304
     ],
     [
      139.7545078,
      35.6771825
     ],
     [
      139.7568481,
      35.6762042
     ],
     [
      139.7587229,
      35.6754035
     ],
     [
      139.7590381,
      35.6752662
     ],
     [
      139.759187,
      35.6751867
     ],
     [
      139.7593532,
      35.6751028
     ],
     [
      139.7594981,
      35.6750211
     ],
     [
      139.7596054,
      35.6749601
     ],
     [
      139.7598275,
      35.6748691
     ],
     [
      139.7604261,
      35.67446
     ],
     [
      139.7609384,
      35.674119
     ],
     [
      139.7620247,
      35.6733346
     ],
     [
      139.7632224,
      35.6726249
     ],
     [
      139.7639439,
      35.6721112
     ],
     [
      139.7643399,
      35.6718147
     ],
     [
      139.7650096,
      35.6712979
     ],
     [
      139.7659622,
      35.6705619
     ],
     [
      139.7664812,
      35.6701588
     ],
     [
      139.766865,
      35.6698434
     ],
     [
      139.7669892,
      35.6697512
     ],
     [
      139.7677047,
      35.6691204
     ],
     [
      139.7695309,
      35.6674154
     ],
     [
      139.7697844,
      35.6671942
     ],
     [
      139.7700056,
      35.6670624
     ],
     [
      139.7703409,
      35.6669436
     ],
     [
      139.7707272,
      35.6668979
     ],
     [
      139.7710946,
      35.6669447
     ],
     [
      139.7714245,
      35.6670657
     ],
     [
      139.7716056,
      35.6671572
     ],
     [
      139.7720413,
      35.6675358
     ],
     [
      139.7725834,
      35.668101
     ],
     [
      139.7731242,
      35.6685524
     ],
     [
      139.7739332,
      35.6691781
     ],
     [
      139.7745671,
      35.6696778
     ],
     [
      139.7748068,
      35.6699006
     ],
     [
      139.7749275,
      35.67004
     ],
     [
      139.7750509,
      35.6702645
     ],
     [
      139.7751136,
      35.6704222
     ],
     [
      139.7757509,
      35.6719782
     ],
     [
      139.7759709,
      35.6727082
     ],
     [
      139.7761173,
      35.6736036
     ],
     [
      139.7762257,
      35.6738968
     ],
     [
      139.7764134,
      35.6741604
     ],
     [
      139.776797,
      35.6746947
     ],
     [
      139.777029,
      35.6750179
     ],
     [
      139.7797162,
      35.6792641
     ],
     [
      139.7800478,
      35.6797981
     ],
     [
      139.7801685,
      35.6799942
     ],
     [
      139.7803026,
      35.6802752
     ],
     [
      139.7803791,
      35.6805672
     ],
     [
      139.7805561,
      35.6811717
     ],
     [
      139.7806674,
      35.6813471
     ],
     [
      139.7808766,
      35.6816162
     ],
     [
      139.7811261,
      35.6818493
     ],
     [
      139.7816074,
      35.6822694
     ],
     [
      139.7818905,
      35.6824898
     ],
     [
      139.7822043,
      35.6826652
     ],
     [
      139.782832,
      35.6829942
     ],
     [
      139.7831002,
      35.6831979
     ],
     [
      139.7833362,
      35.6834452
     ],
     [
      139.7835213,
      35.6837023
     ],
     [
      139.7836587,
      35.6839222
     ],
     [
      139.7836916,
      35.6840824
     ],
     [
      139.7837131,
      35.6842524
     ],
     [
      139.783719,
      35.6843586
     ],
     [
      139.7836755,
      35.6845617
     ],
     [
      139.7836393,
      35.6846717
     ],
     [
      139.7834872,
      35.684938
     ],
     [
      139.7833582,
      35.6850899
     ],
     [
      139.7832896,
      35.6851687
     ],
     [
      139.7831186,
      35.685367
     ],
     [
      139.7829728,
      35.6855289
     ],
     [
      139.7824117,
      35.6861586
     ],
     [
      139.7820046,
      35.686613
     ],
     [
      139.781913,
      35.6867183
     ],
     [
      139.7801203,
      35.6887794
     ],
     [
      139.7784319,
      35.69074
     ],
     [
      139.7775846,
      35.6917028
     ],
     [
      139.7774895,
      35.6918359
     ],
     [
      139.7771808,
      35.6923201
     ],
     [
      139.7769317,
      35.6928276
     ],
     [
      139.7760843,
      35.6950996
     ],
     [
      139.7756277,
      35.6963533
     ],
     [
      139.7755095,
      35.6968188
     ],
     [
      139.7754743,
      35.6972774
     ],
     [
      139.7754836,
      35.6985177
     ],
     [
      139.775501,
      35.7003745
     ],
     [
      139.7755397,
      35.7008062
     ],
     [
      139.776076,
      35.7058646
     ],
     [
      139.7760245,
      35.705968
     ],
     [
      139.7761378,
      35.7065762
     ],
     [
      139.7762816,
      35.7075852
     ],
     [
      139.7762946,
      35.7077209
     ],
     [
      139.7763852,
      35.7089088
     ],
     [
      139.7764224,
      35.7096791
     ],
     [
      139.7764063,
      35.7099891
     ],
     [
      139.7764363,
      35.7103431
     ],
     [
      139.7765051,
      35.7106092
     ],
     [
      139.7766319,
      35.7108643
     ],
     [
      139.7767754,
      35.7110519
     ],
     [
      139.7768693,
      35.7111732
     ],
     [
      139.7769829,
      35.7113066
     ],
     [
      139.7770835,
      35.711431
     ],
     [
      139.7773703,
      35.7116924
     ],
     [
      139.7775675,
      35.7118534
     ],
     [
      139.7778809,
      35.7121136
     ],
     [
      139.7781004,
      35.7122826
     ],
     [
      139.7783821,
      35.7125891
     ],
     [
      139.7798201,
      35.7146713
     ],
     [
      139.7805531,
      35.7156981
     ],
     [
      139.7813432,
      35.7167091
     ],
     [
      139.7845703,
      35.7207339
     ],
     [
      139.7860546,
      35.7226495
     ],
     [
      139.7875097,
      35.7246062
     ],
     [
      139.790284,
      35.7284544
     ],
     [
      139.7907479,
      35.7290453
     ],
     [
      139.7912727,
      35.729566
     ],
     [
      139.7919299,
      35.7300477
     ],
     [
      139.7926231,
      35.7304579
     ],
     [
      139.7932273,
      35.7307511
     ],
     [
      139.7934347,
      35.7308218
     ],
     [
      139.7935165,
      35.7308424
     ],
     [
      139.7936118,
      35.7308609
     ],
     [
      139.793789,
      35.7308752
     ],
     [
      139.7938603,
      35.73088
     ],
     [
      139.794001,
      35.7308892
     ],
     [
      139.7941349,
      35.7308866
     ],
     [
      139.7942942,
      35.7308742
     ]
    ]
   }
  },
  {
   "type": "Feature",
   "properties": {
    "kind": "track",
    "seq": 2,
    "role": "sub"
   },
   "geometry": {
    "type": "LineString",
    "coordinates": [
     [
      139.7942942,
      35.7308742
     ],
     [
      139.7944617,
      35.730856
     ],
     [
      139.7951455,
      35.7307743
     ],
     [
      139.7954309,
      35.7307435
     ],
     [
      139.79569,
      35.730718
     ],
     [
      139.7959351,
      35.7307037
     ],
     [
      139.7960676,
      35.7307017
     ],
     [
      139.7962481,
      35.7307144
     ],
     [
      139.7964714,
      35.7307506
     ],
     [
      139.7966737,
      35.7308016
     ],
     [
      139.7967918,
      35.7308431
     ],
     [
      139.7969135,
      35.7308997
     ],
     [
      139.79701,
      35.7309499
     ],
     [
      139.7975077,
      35.73125
     ],
     [
      139.7978605,
      35.7314493
     ],
     [
      139.7980749,
      35.7315845
     ],
     [
      139.7981799,
      35.7316649
     ],
     [
      139.7982597,
      35.7317378
     ],
     [
      139.7983283,
      35.7318075
     ],
     [
      139.7987663,
      35.7323388
     ],
     [
      139.799262,
      35.7329663
     ],
     [
      139.7995109,
      35.7332686
     ],
     [
      139.7998082,
      35.7336683
     ],
     [
      139.7999115,
      35.7338437
     ],
     [
      139.8000124,
      35.7340465
     ],
     [
      139.8001317,
      35.734311
     ],
     [
      139.8003744,
      35.7348493
     ],
     [
      139.8006265,
      35.7354131
     ]
    ]
   }
  },
  {
   "type": "Feature",
   "properties": {
    "kind": "track",
    "seq": 3,
    "role": "sub"
   },
   "geometry": {
    "type": "LineString",
    "coordinates": [
     [
      139.8006265,
      35.7354131
     ],
     [
      139.8008182,
      35.7358642
     ],
     [
      139.800902,
      35.7360987
     ],
     [
      139.8010131,
      35.7364467
     ],
     [
      139.8011046,
      35.7367447
     ],
     [
      139.8012199,
      35.7371106
     ],
     [
      139.8013286,
      35.7374636
     ],
     [
      139.8013798,
      35.7376325
     ],
     [
      139.8014188,
      35.737811
     ],
     [
      139.8015384,
      35.7383501
     ],
     [
      139.801719,
      35.7392361
     ],
     [
      139.8017829,
      35.7395203
     ],
     [
      139.801878,
      35.7398614
     ],
     [
      139.801969,
      35.7401575
     ],
     [
      139.8021247,
      35.7406481
     ],
     [
      139.8022813,
      35.7411495
     ],
     [
      139.8023196,
      35.741272
     ],
     [
      139.8023386,
      35.741333
     ],
     [
      139.8025641,
      35.7420272
     ],
     [
      139.8025911,
      35.7421101
     ],
     [
      139.8029388,
      35.7431806
     ],
     [
      139.8030177,
      35.7434232
     ],
     [
      139.8030351,
      35.7434769
     ]
    ]
   }
  },
  {
   "type": "Feature",
   "properties": {
    "kind": "track",
    "seq": 4,
    "role": "sub"
   },
   "geometry": {
    "type": "LineString",
    "coordinates": [
     [
      139.8030351,
      35.7434769
     ],
     [
      139.8032831,
      35.7442724
     ],
     [
      139.8033384,
      35.7444484
     ],
     [
      139.803357,
      35.7445075
     ],
     [
      139.8036683,
      35.7454983
     ],
     [
      139.8038259,
      35.7458911
     ],
     [
      139.8038814,
      35.7460244
     ],
     [
      139.8039758,
      35.7462271
     ],
     [
      139.8040725,
      35.7464144
     ],
     [
      139.8041172,
      35.7464992
     ],
     [
      139.8042801,
      35.7467812
     ],
     [
      139.8046081,
      35.7473007
     ],
     [
      139.8046956,
      35.7474716
     ],
     [
      139.8047777,
      35.747641
     ]
    ]
   }
  },
  {
   "type": "Feature",
   "properties": {
    "kind": "track",
    "seq": 5,
    "role": "sub"
   },
   "geometry": {
    "type": "LineString",
    "coordinates": [
     [
      139.8047777,
      35.747641
     ],
     [
      139.8049071,
      35.7479885
     ],
     [
      139.8049581,
      35.7481629
     ],
     [
      139.8049854,
      35.7482804
     ],
     [
      139.8050055,
      35.7484115
     ],
     [
      139.8050268,
      35.7485639
     ],
     [
      139.8050506,
      35.7487237
     ],
     [
      139.8050801,
      35.7488704
     ],
     [
      139.8052821,
      35.7495425
     ],
     [
      139.8053078,
      35.7496316
     ],
     [
      139.8055628,
      35.750515
     ],
     [
      139.8056476,
      35.7507508
     ]
    ]
   }
  },
  {
   "type": "Feature",
   "properties": {
    "kind": "track",
    "seq": 6,
    "role": "sub"
   },
   "geometry": {
    "type": "LineString",
    "coordinates": [
     [
      139.8056476,
      35.7507508
     ],
     [
      139.8057433,
      35.7510335
     ],
     [
      139.8059378,
      35.75147
     ],
     [
      139.8060952,
      35.7517786
     ],
     [
      139.8061846,
      35.7519412
     ],
     [
      139.8062825,
      35.7521012
     ],
     [
      139.8063957,
      35.7522568
     ],
     [
      139.8065037,
      35.7523864
     ],
     [
      139.806713,
      35.7526019
     ],
     [
      139.806881,
      35.7527522
     ],
     [
      139.8069829,
      35.7528408
     ],
     [
      139.80708,
      35.752916
     ],
     [
      139.8072136,
      35.7530131
     ],
     [
      139.8073768,
      35.7531363
     ],
     [
      139.8074805,
      35.7532254
     ],
     [
      139.8078108,
      35.7535388
     ],
     [
      139.8083137,
      35.7540272
     ],
     [
      139.8086268,
      35.7543968
     ],
     [
      139.8088077,
      35.7545803
     ]
    ]
   }
  },
  {
   "type": "Feature",
   "properties": {
    "kind": "track",
    "seq": 7,
    "role": "sub"
   },
   "geometry": {
    "type": "LineString",
    "coordinates": [
     [
      139.8088077,
      35.7545803
     ],
     [
      139.7895899,
      35.8765591
     ]
    ]
   }
  },
  {
   "type": "Feature",
   "properties": {
    "kind": "station",
    "name": "中目黒"
   },
   "geometry": {
    "type": "Point",
    "coordinates": [
     139.699116,
     35.64431
    ]
   }
  },
  {
   "type": "Feature",
   "properties": {
    "kind": "station",
    "name": "恵比寿"
   },
   "geometry": {
    "type": "Point",
    "coordinates": [
     139.708701,
     35.64704
    ]
   }
  },
  {
   "type": "Feature",
   "properties": {
    "kind": "station",
    "name": "広尾"
   },
   "geometry": {
    "type": "Point",
    "coordinates": [
     139.722209,
     35.651499
    ]
   }
  },
  {
   "type": "Feature",
   "properties": {
    "kind": "station",
    "name": "六本木"
   },
   "geometry": {
    "type": "Point",
    "coordinates": [
     139.731155,
     35.6628
    ]
   }
  },
  {
   "type": "Feature",
   "properties": {
    "kind": "station",
    "name": "神谷町"
   },
   "geometry": {
    "type": "Point",
    "coordinates": [
     139.7450477,
     35.662964
    ]
   }
  },
  {
   "type": "Feature",
   "properties": {
    "kind": "station",
    "name": "虎ノ門ヒルズ"
   },
   "geometry": {
    "type": "Point",
    "coordinates": [
     139.7477648,
     35.6674688
    ]
   }
  },
  {
   "type": "Feature",
   "properties": {
    "kind": "station",
    "name": "霞ケ関"
   },
   "geometry": {
    "type": "Point",
    "coordinates": [
     139.75106,
     35.673875
    ]
   }
  },
  {
   "type": "Feature",
   "properties": {
    "kind": "station",
    "name": "日比谷"
   },
   "geometry": {
    "type": "Point",
    "coordinates": [
     139.7606,
     35.674271
    ]
   }
  },
  {
   "type": "Feature",
   "properties": {
    "kind": "station",
    "name": "銀座"
   },
   "geometry": {
    "type": "Point",
    "coordinates": [
     139.764007,
     35.671983
    ]
   }
  },
  {
   "type": "Feature",
   "properties": {
    "kind": "station",
    "name": "東銀座"
   },
   "geometry": {
    "type": "Point",
    "coordinates": [
     139.767633,
     35.669129
    ]
   }
  },
  {
   "type": "Feature",
   "properties": {
    "kind": "station",
    "name": "築地"
   },
   "geometry": {
    "type": "Point",
    "coordinates": [
     139.772473,
     35.667928
    ]
   }
  },
  {
   "type": "Feature",
   "properties": {
    "kind": "station",
    "name": "八丁堀"
   },
   "geometry": {
    "type": "Point",
    "coordinates": [
     139.777334,
     35.675368
    ]
   }
  },
  {
   "type": "Feature",
   "properties": {
    "kind": "station",
    "name": "茅場町"
   },
   "geometry": {
    "type": "Point",
    "coordinates": [
     139.779619,
     35.679078
    ]
   }
  },
  {
   "type": "Feature",
   "properties": {
    "kind": "station",
    "name": "人形町"
   },
   "geometry": {
    "type": "Point",
    "coordinates": [
     139.782339,
     35.686259
    ]
   }
  },
  {
   "type": "Feature",
   "properties": {
    "kind": "station",
    "name": "小伝馬町"
   },
   "geometry": {
    "type": "Point",
    "coordinates": [
     139.778758,
     35.690423
    ]
   }
  },
  {
   "type": "Feature",
   "properties": {
    "kind": "station",
    "name": "秋葉原"
   },
   "geometry": {
    "type": "Point",
    "coordinates": [
     139.775529,
     35.697965
    ]
   }
  },
  {
   "type": "Feature",
   "properties": {
    "kind": "station",
    "name": "仲御徒町"
   },
   "geometry": {
    "type": "Point",
    "coordinates": [
     139.77619,
     35.706655
    ]
   }
  },
  {
   "type": "Feature",
   "properties": {
    "kind": "station",
    "name": "上野"
   },
   "geometry": {
    "type": "Point",
    "coordinates": [
     139.777061,
     35.711558
    ]
   }
  },
  {
   "type": "Feature",
   "properties": {
    "kind": "station",
    "name": "入谷"
   },
   "geometry": {
    "type": "Point",
    "coordinates": [
     139.784466,
     35.720565
    ]
   }
  },
  {
   "type": "Feature",
   "properties": {
    "kind": "station",
    "name": "三ノ輪"
   },
   "geometry": {
    "type": "Point",
    "coordinates": [
     139.7913004,
     35.7295502
    ]
   }
  },
  {
   "type": "Feature",
   "properties": {
    "kind": "station",
    "name": "南千住"
   },
   "geometry": {
    "type": "Point",
    "coordinates": [
     139.79878,
     35.73231
    ]
   }
  },
  {
   "type": "Feature",
   "properties": {
    "kind": "station",
    "name": "北千住"
   },
   "geometry": {
    "type": "Point",
    "coordinates": [
     139.80556,
     35.74981
    ]
   }
  }
 ]
}
