{
 "type": "FeatureCollection",
 "metadata": {
  "line_id": "twr.rinkai",
  "source": {
   "name": "mini-tokyo-3d (4ad6ca6, 2026-06-03)",
   "url": "https://github.com/nagix/mini-tokyo-3d",
   "license": "MIT (c) Akihiko Kusanagi",
   "retrieved": "2026-06-03",
   "note": "国土数値情報 N02 へ到達できない環境向けのブートストラップ。extract-n02 で再抽出して差し替え可能。"
  }
 },
 "features": [
  {
   "type": "Feature",
   "properties": {
    "kind": "track",
    "seq": 0,
    "role": "sub"
   },
   "geometry": {
    "type": "LineString",
    "coordinates": [
     [
      139.8292896,
      35.6462536
     ],
     [
      139.8252721,
      35.6458795
     ],
     [
      139.824598,
      35.645845
     ]
    ]
   }
  },
  {
   "type": "Feature",
   "properties": {
    "kind": "track",
    "seq": 1,
    "role": "main"
   },
   "geometry": {
    "type": "LineString",
    "coordinates": [
     [
      139.824598,
      35.645845
     ],
     [
      139.8238735,
      35.6457849
     ],
     [
      139.8228792,
      35.6456903
     ],
     [
      139.8203162,
      35.6454334
     ],
     [
      139.8189183,
      35.6453305
     ],
     [
      139.8182007,
      35.6452646
     ],
     [
      139.8177917,
      35.6452119
     ],
     [
      139.817394,
      35.645141
     ],
     [
      139.8170451,
      35.6450736
     ],
     [
      139.8165946,
      35.6449607
     ],
     [
      139.816258,
      35.6448657
     ],
     [
      139.8159279,
      35.6447626
     ],
     [
      139.815588,
      35.6446518
     ],
     [
      139.8138228,
      35.6440762
     ],
     [
      139.811456,
      35.6433085
     ],
     [
      139.8063874,
      35.6416611
     ],
     [
      139.8051392,
      35.6412573
     ],
     [
      139.8036351,
      35.640707
     ],
     [
      139.8028582,
      35.6404183
     ],
     [
      139.8025318,
      35.6402868
     ],
     [
      139.8021283,
      35.6401172
     ],
     [
      139.8016962,
      35.6399133
     ],
     [
      139.8008844,
      35.6394804
     ],
     [
      139.7999059,
      35.6389542
     ],
     [
      139.7996912,
      35.6388387
     ],
     [
      139.798141,
      35.638012
     ],
     [
      139.7979466,
      35.6379108
     ]
    ]
   }
  },
  {
   "type": "Feature",
   "properties": {
    "kind": "track",
    "seq": 2,
    "role": "main"
   },
   "geometry": {
    "type": "LineString",
    "coordinates": [
     [
      139.7979466,
      35.6379108
     ],
     [
      139.7916044,
      35.6345353
     ],
     [
      139.7902843,
      35.6338257
     ],
     [
      139.7787817,
      35.6276427
     ],
     [
      139.7771765,
      35.6267706
     ],
     [
      139.7762275,
      35.6263162
     ],
     [
      139.7752119,
      35.6258606
     ],
     [
      139.7743029,
      35.6255211
     ],
     [
      139.7739544,
      35.6253902
     ],
     [
      139.7735528,
      35.6252812
     ],
     [
      139.7730338,
      35.6251785
     ],
     [
      139.7725967,
      35.6251173
     ],
     [
      139.7717691,
      35.6250687
     ],
     [
      139.767749,
      35.6251006
     ],
     [
      139.7594058,
      35.624937
     ],
     [
      139.7590775,
      35.6249232
     ],
     [
      139.7586865,
      35.6248335
     ],
     [
      139.7583549,
      35.6246898
     ],
     [
      139.7578431,
      35.624474
     ],
     [
      139.7575674,
      35.6243885
     ],
     [
      139.7572107,
      35.6243161
     ],
     [
      139.7535333,
      35.6241726
     ],
     [
      139.7531868,
      35.6241537
     ],
     [
      139.7529162,
      35.6240822
     ],
     [
      139.7526469,
      35.6239804
     ],
     [
      139.7524146,
      35.6238711
     ],
     [
      139.7522003,
      35.6237307
     ],
     [
      139.7520141,
      35.623567
     ],
     [
      139.751876,
      35.6234239
     ],
     [
      139.7517119,
      35.6232105
     ],
     [
      139.7515619,
      35.6229297
     ],
     [
      139.7513632,
      35.622605
     ],
     [
      139.751214,
      35.6222518
     ],
     [
      139.7510818,
      35.6219001
     ],
     [
      139.7509426,
      35.6215554
     ],
     [
      139.7508498,
      35.6212408
     ],
     [
      139.7508079,
      35.6209582
     ],
     [
      139.7507921,
      35.620566
     ],
     [
      139.7505911,
      35.6173163
     ],
     [
      139.7501725,
      35.6132929
     ],
     [
      139.750136,
      35.6129425
     ],
     [
      139.7500302,
      35.6117921
     ],
     [
      139.7498591,
      35.6097234
     ],
     [
      139.7496534,
      35.6081002
     ],
     [
      139.7496194,
      35.6079577
     ],
     [
      139.7495221,
      35.6078054
     ],
     [
      139.749366,
      35.6076671
     ],
     [
      139.7491831,
      35.6075372
     ],
     [
      139.7490447,
      35.6074611
     ],
     [
      139.7488591,
      35.607403
     ],
     [
      139.7486456,
      35.6073391
     ],
     [
      139.7470494,
      35.60705
     ],
     [
      139.7454038,
      35.60678
     ],
     [
      139.7440708,
      35.6068662
     ],
     [
      139.7428917,
      35.6068267
     ],
     [
      139.7409544,
      35.6068389
     ],
     [
      139.7408097,
      35.6068398
     ],
     [
      139.7396009,
      35.6068498
     ],
     [
      139.7384572,
      35.6069649
     ],
     [
      139.7365161,
      35.6072513
     ],
     [
      139.7350175,
      35.607443
     ],
     [
      139.7346173,
      35.6074938
     ],
     [
      139.7335938,
      35.6076141
     ],
     [
      139.7327135,
      35.6077142
     ],
     [
      139.7317935,
      35.6078174
     ],
     [
      139.7316999,
      35.6078564
     ],
     [
      139.731643,
      35.6079005
     ],
     [
      139.7315262,
      35.6080028
     ],
     [
      139.7313976,
      35.6081375
     ],
     [
      139.7312674,
      35.6082955
     ],
     [
      139.7311441,
      35.6084497
     ],
     [
      139.731034,
      35.6086133
     ],
     [
      139.7309368,
      35.608772
     ],
     [
      139.7307991,
      35.6089973
     ],
     [
      139.7306836,
      35.6092165
     ],
     [
      139.7306316,
      35.6093412
     ],
     [
      139.7305722,
      35.6095519
     ],
     [
      139.7305516,
      35.609698
     ],
     [
      139.7305437,
      35.6098821
     ],
     [
      139.7305376,
      35.6101028
     ],
     [
      139.7305527,
      35.6102981
     ],
     [
      139.730619,
      35.611
     ],
     [
      139.7306655,
      35.6112205
     ],
     [
      139.7307503,
      35.6114266
     ],
     [
      139.7308679,
      35.6115675
     ],
     [
      139.7310429,
      35.6117623
     ],
     [
      139.7312103,
      35.6119313
     ],
     [
      139.7313708,
      35.6121342
     ],
     [
      139.7315133,
      35.6123259
     ],
     [
      139.731639,
      35.6125288
     ],
     [
      139.7318459,
      35.6128624
     ],
     [
      139.7319291,
      35.6130019
     ],
     [
      139.7320149,
      35.6132331
     ],
     [
      139.7320494,
      35.6133814
     ],
     [
      139.7320672,
      35.6135689
     ],
     [
      139.7320848,
      35.613847
     ]
    ]
   }
  },
  {
   "type": "Feature",
   "properties": {
    "kind": "track",
    "seq": 3,
    "role": "sub"
   },
   "geometry": {
    "type": "LineString",
    "coordinates": [
     [
      139.7320848,
      35.613847
     ],
     [
      139.7320882,
      35.6140122
     ],
     [
      139.7320804,
      35.6141962
     ],
     [
      139.7320576,
      35.6143613
     ],
     [
      139.732032,
      35.6144897
     ],
     [
      139.7320053,
      35.6145926
     ],
     [
      139.7319806,
      35.6146806
     ],
     [
      139.731949,
      35.6147699
     ],
     [
      139.7319164,
      35.614872
     ],
     [
      139.7318606,
      35.6150149
     ],
     [
      139.7317924,
      35.6151465
     ],
     [
      139.731737,
      35.6152401
     ],
     [
      139.7316775,
      35.6153349
     ],
     [
      139.7314685,
      35.6156151
     ],
     [
      139.7311445,
      35.616013
     ],
     [
      139.7308922,
      35.6163293
     ],
     [
      139.7306923,
      35.6165797
     ],
     [
      139.7306603,
      35.6166198
     ],
     [
      139.7305033,
      35.6168114
     ],
     [
      139.730356,
      35.6169911
     ],
     [
      139.7301226,
      35.6172572
     ],
     [
      139.729963,
      35.6174196
     ],
     [
      139.7298168,
      35.617557
     ],
     [
      139.7297337,
      35.6176311
     ],
     [
      139.7294869,
      35.6178491
     ],
     [
      139.7293045,
      35.6180039
     ],
     [
      139.7291624,
      35.6181489
     ],
     [
      139.7289009,
      35.61844
     ],
     [
      139.7282612,
      35.6192841
     ],
     [
      139.7281532,
      35.6194324
     ],
     [
      139.7278199,
      35.6198867
     ],
     [
      139.7276258,
      35.6201792
     ],
     [
      139.7275911,
      35.6202414
     ],
     [
      139.7275118,
      35.6203939
     ],
     [
      139.7274753,
      35.6204623
     ],
     [
      139.7272808,
      35.6208166
     ],
     [
      139.727112,
      35.6210847
     ]
    ]
   }
  },
  {
   "type": "Feature",
   "properties": {
    "kind": "station",
    "name": "新木場"
   },
   "geometry": {
    "type": "Point",
    "coordinates": [
     139.82678,
     35.64604
    ]
   }
  },
  {
   "type": "Feature",
   "properties": {
    "kind": "station",
    "name": "東雲"
   },
   "geometry": {
    "type": "Point",
    "coordinates": [
     139.80328,
     35.6406
    ]
   }
  },
  {
   "type": "Feature",
   "properties": {
    "kind": "station",
    "name": "国際展示場"
   },
   "geometry": {
    "type": "Point",
    "coordinates": [
     139.79163,
     35.63457
    ]
   }
  },
  {
   "type": "Feature",
   "properties": {
    "kind": "station",
    "name": "東京テレポート"
   },
   "geometry": {
    "type": "Point",
    "coordinates": [
     139.77885,
     35.62754
    ]
   }
  },
  {
   "type": "Feature",
   "properties": {
    "kind": "station",
    "name": "天王洲アイル"
   },
   "geometry": {
    "type": "Point",
    "coordinates": [
     139.75084,
     35.62038
    ]
   }
  },
  {
   "type": "Feature",
   "properties": {
    "kind": "station",
    "name": "品川シーサイド"
   },
   "geometry": {
    "type": "Point",
    "coordinates": [
     139.74967,
     35.60897
    ]
   }
  },
  {
   "type": "Feature",
   "properties": {
    "kind": "station",
    "name": "大井町"
   },
   "geometry": {
    "type": "Point",
    "coordinates": [
     139.73474,
     35.60741
    ]
   }
  },
  {
   "type": "Feature",
   "properties": {
    "kind": "station",
    "name": "大崎"
   },
   "geometry": {
    "type": "Point",
    "coordinates": [
     139.72816,
     35.62019
    ]
   }
  }
 ]
}
